{"type": "FeatureCollection", "features": [{"type": "Feature", "properties": {"No": 1, "Nama": "Kebun Pisang", "jarak_m": 122, "kelas": "Tinggi"}, "geometry": {"type": "LineString", "coordinates": [[105.244242, -5.547735], [105.243648, -5.546938], [105.243715, -5.54699], [105.243764, -5.547039], [105.243814, -5.547088], [105.243899, -5.547182], [105.243958, -5.547258], [105.244017, -5.547335], [105.244093, -5.547438], [105.24414, -5.547518], [105.244188, -5.547599], [105.244217, -5.547653], [105.244244, -5.547706]]}}, {"type": "Feature", "properties": {"No": 2, "Nama": "Kebun Pisang", "jarak_m": 1995, "kelas": "Rendah"}, "geometry": {"type": "LineString", "coordinates": [[105.2283, -5.551014], [105.242054, -5.553109], [105.24204, -5.553078], [105.24199, -5.552993], [105.241959, -5.55294], [105.241903, -5.552856], [105.241858, -5.552791], [105.241825, -5.552751], [105.241723, -5.552778], [105.241641, -5.552852], [105.241556, -5.552921], [105.241467, -5.552986], [105.241374, -5.553046], [105.241278, -5.5531], [105.241162, -5.553155], [105.241043, -5.553205], [105.24096, -5.553238], [105.240879, -5.553278], [105.240802, -5.553323], [105.240728, -5.553375], [105.240659, -5.553431], [105.240593, -5.553493], [105.240526, -5.553572], [105.240459, -5.553651], [105.2404, -5.553722], [105.240342, -5.553793], [105.240283, -5.553864], [105.240211, -5.553957], [105.240119, -5.553938], [105.240065, -5.553871], [105.240012, -5.553805], [105.239959, -5.553739], [105.239942, -5.553714], [105.239878, -5.553659], [105.239814, -5.553604], [105.239751, -5.55355], [105.239687, -5.553495], [105.239605, -5.55346], [105.239523, -5.553426], [105.239452, -5.553398], [105.239381, -5.553371], [105.239368, -5.553354], [105.239356, -5.553333], [105.239267, -5.553298], [105.239187, -5.553276], [105.239117, -5.553274], [105.239047, -5.553273], [105.238944, -5.553271], [105.238842, -5.553269], [105.238753, -5.553271], [105.238664, -5.553274], [105.238575, -5.553276], [105.238486, -5.553279], [105.238396, -5.553281], [105.238307, -5.553284], [105.238218, -5.553286], [105.238129, -5.553289], [105.238, -5.553298], [105.23793, -5.553312], [105.23786, -5.553326], [105.237782, -5.553343], [105.237704, -5.55336], [105.237626, -5.553378], [105.237548, -5.553395], [105.237476, -5.553411], [105.237403, -5.553428], [105.237321, -5.553448], [105.237238, -5.553468], [105.23715, -5.553489], [105.237063, -5.55351], [105.236975, -5.553531], [105.2369, -5.553555], [105.236824, -5.55358], [105.236714, -5.553603], [105.236604, -5.553627], [105.236516, -5.553652], [105.236427, -5.553676], [105.236339, -5.553701], [105.236262, -5.553726], [105.236187, -5.553659], [105.236144, -5.553577], [105.236108, -5.553506], [105.236072, -5.553434], [105.236036, -5.553363], [105.236, -5.553292], [105.235948, -5.55318], [105.235908, -5.553104], [105.235869, -5.553029], [105.235816, -5.552934], [105.235773, -5.552872], [105.235731, -5.55281], [105.235679, -5.552738], [105.235605, -5.552629], [105.235554, -5.552563], [105.235496, -5.552489], [105.235436, -5.552405], [105.235368, -5.55231], [105.235312, -5.552233], [105.235271, -5.552177], [105.235207, -5.552099], [105.235127, -5.55201], [105.235078, -5.551953], [105.235016, -5.551873], [105.23497, -5.551806], [105.234925, -5.55174], [105.234874, -5.551663], [105.234826, -5.551595], [105.234778, -5.551527], [105.234695, -5.551431], [105.234633, -5.551367], [105.234541, -5.55138], [105.234477, -5.551396], [105.234391, -5.551415], [105.234319, -5.55143], [105.234246, -5.551445], [105.234142, -5.55147], [105.234049, -5.551492], [105.233957, -5.551509], [105.233878, -5.551529], [105.233791, -5.55155], [105.233706, -5.551577], [105.233623, -5.551611], [105.233541, -5.551649], [105.233459, -5.551688], [105.233367, -5.551732], [105.233258, -5.551786], [105.23319, -5.551814], [105.233121, -5.551843], [105.233051, -5.551872], [105.232977, -5.551907], [105.2329, -5.551941], [105.232815, -5.551975], [105.23273, -5.552009], [105.232649, -5.55205], [105.232567, -5.552092], [105.232502, -5.552133], [105.232436, -5.552175], [105.232349, -5.552234], [105.232262, -5.552293], [105.232176, -5.552352], [105.232079, -5.552408], [105.231981, -5.552464], [105.231932, -5.552473], [105.231888, -5.552403], [105.231835, -5.55232], [105.231782, -5.552237], [105.23173, -5.552155], [105.231677, -5.552072], [105.231631, -5.552002], [105.231584, -5.551933], [105.231538, -5.551863], [105.231491, -5.551794], [105.231445, -5.551724], [105.231394, -5.551641], [105.231343, -5.551559], [105.231302, -5.551485], [105.231261, -5.551411], [105.231228, -5.551349], [105.231195, -5.551287], [105.231138, -5.551191], [105.231086, -5.551112], [105.231034, -5.551033], [105.230982, -5.550954], [105.230941, -5.550882], [105.230899, -5.55081], [105.230858, -5.550739], [105.230817, -5.550667], [105.230775, -5.550599], [105.230733, -5.550532], [105.230672, -5.550452], [105.230591, -5.550349], [105.230537, -5.550282], [105.230483, -5.550216], [105.230422, -5.550148], [105.230362, -5.55008], [105.230291, -5.550005], [105.230225, -5.549926], [105.230164, -5.549843]]}}, {"type": "Feature", "properties": {"No": 3, "Nama": "Kebun Pisang", "jarak_m": 2714, "kelas": "Rendah"}, "geometry": {"type": "LineString", "coordinates": [[105.2266, -5.549319], [105.242054, -5.553109], [105.24204, -5.553078], [105.24199, -5.552993], [105.241959, -5.55294], [105.241903, -5.552856], [105.241858, -5.552791], [105.241825, -5.552751], [105.241723, -5.552778], [105.241641, -5.552852], [105.241556, -5.552921], [105.241467, -5.552986], [105.241374, -5.553046], [105.241278, -5.5531], [105.241162, -5.553155], [105.241043, -5.553205], [105.24096, -5.553238], [105.240879, -5.553278], [105.240802, -5.553323], [105.240728, -5.553375], [105.240659, -5.553431], [105.240593, -5.553493], [105.240526, -5.553572], [105.240459, -5.553651], [105.2404, -5.553722], [105.240342, -5.553793], [105.240283, -5.553864], [105.240211, -5.553957], [105.240119, -5.553938], [105.240065, -5.553871], [105.240012, -5.553805], [105.239959, -5.553739], [105.239942, -5.553714], [105.239878, -5.553659], [105.239814, -5.553604], [105.239751, -5.55355], [105.239687, -5.553495], [105.239605, -5.55346], [105.239523, -5.553426], [105.239452, -5.553398], [105.239381, -5.553371], [105.239368, -5.553354], [105.239356, -5.553333], [105.239267, -5.553298], [105.239187, -5.553276], [105.239117, -5.553274], [105.239047, -5.553273], [105.238944, -5.553271], [105.238842, -5.553269], [105.238753, -5.553271], [105.238664, -5.553274], [105.238575, -5.553276], [105.238486, -5.553279], [105.238396, -5.553281], [105.238307, -5.553284], [105.238218, -5.553286], [105.238129, -5.553289], [105.238, -5.553298], [105.23793, -5.553312], [105.23786, -5.553326], [105.237782, -5.553343], [105.237704, -5.55336], [105.237626, -5.553378], [105.237548, -5.553395], [105.237476, -5.553411], [105.237403, -5.553428], [105.237321, -5.553448], [105.237238, -5.553468], [105.23715, -5.553489], [105.237063, -5.55351], [105.236975, -5.553531], [105.2369, -5.553555], [105.236824, -5.55358], [105.236714, -5.553603], [105.236604, -5.553627], [105.236516, -5.553652], [105.236427, -5.553676], [105.236339, -5.553701], [105.236262, -5.553726], [105.236187, -5.553659], [105.236144, -5.553577], [105.236108, -5.553506], [105.236072, -5.553434], [105.236036, -5.553363], [105.236, -5.553292], [105.235948, -5.55318], [105.235908, -5.553104], [105.235869, -5.553029], [105.235816, -5.552934], [105.235773, -5.552872], [105.235731, -5.55281], [105.235679, -5.552738], [105.235605, -5.552629], [105.235554, -5.552563], [105.235496, -5.552489], [105.235436, -5.552405], [105.235368, -5.55231], [105.235312, -5.552233], [105.235271, -5.552177], [105.235207, -5.552099], [105.235127, -5.55201], [105.235078, -5.551953], [105.235016, -5.551873], [105.23497, -5.551806], [105.234925, -5.55174], [105.234874, -5.551663], [105.234826, -5.551595], [105.234778, -5.551527], [105.234695, -5.551431], [105.234633, -5.551367], [105.234572, -5.551303], [105.234503, -5.551254], [105.234424, -5.551224], [105.23434, -5.551215], [105.234237, -5.551217], [105.234177, -5.551211], [105.234117, -5.551199], [105.234066, -5.551185], [105.233983, -5.551157], [105.233901, -5.55113], [105.23381, -5.551099], [105.23372, -5.551068], [105.233645, -5.551038], [105.233571, -5.551009], [105.2335, -5.550979], [105.233452, -5.550951], [105.233375, -5.550896], [105.23331, -5.550828], [105.233238, -5.550748], [105.233151, -5.550685], [105.233082, -5.550641], [105.233013, -5.550597], [105.232936, -5.550546], [105.232859, -5.550496], [105.232761, -5.550432], [105.23266, -5.550373], [105.23258, -5.550332], [105.232501, -5.550291], [105.232427, -5.550254], [105.232354, -5.550218], [105.232275, -5.550181], [105.232194, -5.550149], [105.232112, -5.550116], [105.232031, -5.550079], [105.231975, -5.550045], [105.23192, -5.550009], [105.231863, -5.549964], [105.231806, -5.549919], [105.231724, -5.549853], [105.231643, -5.549786], [105.231561, -5.54972], [105.231487, -5.549669], [105.231428, -5.54962], [105.231388, -5.549577], [105.231351, -5.549532], [105.231317, -5.549484], [105.231248, -5.549376], [105.231221, -5.549328], [105.231197, -5.549277], [105.231178, -5.549225], [105.23115, -5.54912], [105.231131, -5.54905], [105.231113, -5.54898], [105.231098, -5.548919], [105.231089, -5.548858], [105.231087, -5.548796], [105.231083, -5.548704], [105.231075, -5.548632], [105.231062, -5.548568], [105.231039, -5.548471], [105.231004, -5.548389], [105.230952, -5.548317], [105.230887, -5.548255], [105.230852, -5.548222], [105.230789, -5.54815], [105.23074, -5.548072], [105.230692, -5.547994], [105.230643, -5.547916], [105.230593, -5.547844], [105.230539, -5.547775], [105.230481, -5.54771], [105.230419, -5.547648], [105.230343, -5.547601], [105.230268, -5.547563], [105.230192, -5.547524], [105.230117, -5.547486], [105.230042, -5.547448], [105.229945, -5.5474], [105.229849, -5.547353], [105.229756, -5.547313], [105.229663, -5.547274], [105.229566, -5.547228], [105.229471, -5.547177], [105.229417, -5.54714], [105.229367, -5.547098], [105.229321, -5.547052], [105.229273, -5.547001], [105.229225, -5.546951], [105.229165, -5.546889], [105.229124, -5.546846], [105.229064, -5.546772], [105.229023, -5.546717], [105.228951, -5.546635], [105.22888, -5.546553], [105.228828, -5.546494], [105.228777, -5.546435], [105.228723, -5.546382], [105.228664, -5.54631], [105.228615, -5.546246], [105.228565, -5.546182], [105.228516, -5.546118], [105.228422, -5.546025], [105.228324, -5.545935], [105.228247, -5.545876], [105.228167, -5.545823], [105.228091, -5.545762], [105.228018, -5.545697], [105.227949, -5.545629], [105.227894, -5.545571], [105.22784, -5.545513], [105.227787, -5.545458], [105.227734, -5.545402], [105.227681, -5.545347], [105.227602, -5.545277], [105.22752, -5.54521], [105.227457, -5.545166], [105.227391, -5.545129], [105.227321, -5.545097], [105.227256, -5.545071], [105.22719, -5.54505], [105.227122, -5.545034], [105.227001, -5.544997], [105.226986, -5.545047], [105.226966, -5.545137], [105.226946, -5.545228], [105.22696, -5.545328], [105.226996, -5.54545], [105.227027, -5.54553], [105.227058, -5.54561], [105.227088, -5.545662], [105.227105, -5.545765], [105.227106, -5.545818], [105.227092, -5.545922], [105.227063, -5.546009], [105.227027, -5.546137], [105.227012, -5.546207], [105.226987, -5.546278], [105.226961, -5.54635], [105.226936, -5.546416], [105.226914, -5.546458], [105.226881, -5.546545], [105.226847, -5.546633], [105.226806, -5.546698], [105.226765, -5.546763]]}}, {"type": "Feature", "properties": {"No": 4, "Nama": "Kebun Pisang", "jarak_m": 128, "kelas": "Tinggi"}, "geometry": {"type": "LineString", "coordinates": [[105.243948, -5.546086], [105.243648, -5.546938], [105.243552, -5.546872], [105.243491, -5.546832]]}}, {"type": "Feature", "properties": {"No": 5, "Nama": "Kebun Campuran", "jarak_m": 372, "kelas": "Tinggi"}, "geometry": {"type": "LineString", "coordinates": [[105.243246, -5.552984], [105.242054, -5.553109], [105.24204, -5.553078], [105.24199, -5.552993], [105.241959, -5.55294], [105.241903, -5.552856], [105.241858, -5.552791], [105.241804, -5.55271], [105.241889, -5.552646], [105.241977, -5.552587], [105.242068, -5.552532], [105.242162, -5.552483], [105.242258, -5.552427], [105.242353, -5.552371], [105.242446, -5.552314], [105.242538, -5.552258], [105.242628, -5.552202], [105.242718, -5.552146], [105.24279, -5.552095], [105.242861, -5.552044], [105.242956, -5.552069], [105.242999, -5.552106], [105.243066, -5.552138], [105.243145, -5.552177], [105.243198, -5.552199], [105.243281, -5.552231], [105.243333, -5.552271], [105.243415, -5.552342], [105.243497, -5.552413], [105.243559, -5.552464], [105.243653, -5.552546]]}}, {"type": "Feature", "properties": {"No": 6, "Nama": "Kebun Campuran", "jarak_m": 401, "kelas": "Tinggi"}, "geometry": {"type": "LineString", "coordinates": [[105.2442, -5.549774], [105.243648, -5.546938], [105.243715, -5.54699], [105.243764, -5.547039], [105.243814, -5.547088], [105.243899, -5.547182], [105.243958, -5.547258], [105.244017, -5.547335], [105.244093, -5.547438], [105.24414, -5.547518], [105.244188, -5.547599], [105.244217, -5.547653], [105.244244, -5.547706], [105.244269, -5.547759], [105.244293, -5.547823], [105.244313, -5.547888], [105.244327, -5.547955], [105.244337, -5.548023], [105.244342, -5.548129], [105.244351, -5.548234], [105.244364, -5.548339], [105.244399, -5.548443], [105.244434, -5.548547], [105.244459, -5.548624], [105.244485, -5.5487], [105.24451, -5.548777], [105.244536, -5.548854], [105.244567, -5.548946], [105.244591, -5.549039], [105.244609, -5.549133], [105.24462, -5.549228], [105.244624, -5.549324], [105.244621, -5.54942], [105.244612, -5.549516], [105.244586, -5.549591], [105.244559, -5.549665], [105.244533, -5.54974], [105.244506, -5.549815], [105.244477, -5.549881]]}}, {"type": "Feature", "properties": {"No": 7, "Nama": "Kebun Campuran", "jarak_m": 2599, "kelas": "Rendah"}, "geometry": {"type": "LineString", "coordinates": [[105.225188, -5.543347], [105.242054, -5.553109], [105.24204, -5.553078], [105.24199, -5.552993], [105.241959, -5.55294], [105.241903, -5.552856], [105.241858, -5.552791], [105.241825, -5.552751], [105.241723, -5.552778], [105.241641, -5.552852], [105.241556, -5.552921], [105.241467, -5.552986], [105.241374, -5.553046], [105.241278, -5.5531], [105.241162, -5.553155], [105.241043, -5.553205], [105.24096, -5.553238], [105.240879, -5.553278], [105.240802, -5.553323], [105.240728, -5.553375], [105.240659, -5.553431], [105.240593, -5.553493], [105.240526, -5.553572], [105.240459, -5.553651], [105.2404, -5.553722], [105.240342, -5.553793], [105.240283, -5.553864], [105.240211, -5.553957], [105.240119, -5.553938], [105.240065, -5.553871], [105.240012, -5.553805], [105.239959, -5.553739], [105.239942, -5.553714], [105.239878, -5.553659], [105.239814, -5.553604], [105.239751, -5.55355], [105.239687, -5.553495], [105.239605, -5.55346], [105.239523, -5.553426], [105.239452, -5.553398], [105.239381, -5.553371], [105.239368, -5.553354], [105.239356, -5.553333], [105.239267, -5.553298], [105.239187, -5.553276], [105.239117, -5.553274], [105.239047, -5.553273], [105.238944, -5.553271], [105.238842, -5.553269], [105.238753, -5.553271], [105.238664, -5.553274], [105.238575, -5.553276], [105.238486, -5.553279], [105.238396, -5.553281], [105.238307, -5.553284], [105.238218, -5.553286], [105.238129, -5.553289], [105.238, -5.553298], [105.23793, -5.553312], [105.23786, -5.553326], [105.237782, -5.553343], [105.237704, -5.55336], [105.237626, -5.553378], [105.237548, -5.553395], [105.237476, -5.553411], [105.237403, -5.553428], [105.237321, -5.553448], [105.237238, -5.553468], [105.23715, -5.553489], [105.237063, -5.55351], [105.236975, -5.553531], [105.2369, -5.553555], [105.236824, -5.55358], [105.236714, -5.553603], [105.236604, -5.553627], [105.236516, -5.553652], [105.236427, -5.553676], [105.236339, -5.553701], [105.236262, -5.553726], [105.236187, -5.553659], [105.236144, -5.553577], [105.236108, -5.553506], [105.236072, -5.553434], [105.236036, -5.553363], [105.236, -5.553292], [105.235948, -5.55318], [105.235908, -5.553104], [105.235869, -5.553029], [105.235816, -5.552934], [105.235773, -5.552872], [105.235731, -5.55281], [105.235679, -5.552738], [105.235605, -5.552629], [105.235554, -5.552563], [105.235496, -5.552489], [105.235436, -5.552405], [105.235368, -5.55231], [105.235312, -5.552233], [105.235271, -5.552177], [105.235207, -5.552099], [105.235127, -5.55201], [105.235078, -5.551953], [105.235016, -5.551873], [105.23497, -5.551806], [105.234925, -5.55174], [105.234874, -5.551663], [105.234826, -5.551595], [105.234778, -5.551527], [105.234695, -5.551431], [105.234633, -5.551367], [105.234572, -5.551303], [105.234503, -5.551254], [105.234424, -5.551224], [105.23434, -5.551215], [105.234237, -5.551217], [105.234177, -5.551211], [105.234117, -5.551199], [105.234066, -5.551185], [105.233983, -5.551157], [105.233901, -5.55113], [105.23381, -5.551099], [105.23372, -5.551068], [105.233645, -5.551038], [105.233571, -5.551009], [105.2335, -5.550979], [105.233452, -5.550951], [105.233375, -5.550896], [105.23331, -5.550828], [105.233238, -5.550748], [105.233151, -5.550685], [105.233082, -5.550641], [105.233013, -5.550597], [105.232936, -5.550546], [105.232859, -5.550496], [105.232761, -5.550432], [105.23266, -5.550373], [105.23258, -5.550332], [105.232501, -5.550291], [105.232427, -5.550254], [105.232354, -5.550218], [105.232275, -5.550181], [105.232194, -5.550149], [105.232112, -5.550116], [105.232031, -5.550079], [105.231975, -5.550045], [105.23192, -5.550009], [105.231863, -5.549964], [105.231806, -5.549919], [105.231724, -5.549853], [105.231643, -5.549786], [105.231561, -5.54972], [105.231487, -5.549669], [105.231428, -5.54962], [105.231388, -5.549577], [105.231351, -5.549532], [105.231317, -5.549484], [105.231248, -5.549376], [105.231221, -5.549328], [105.231197, -5.549277], [105.231178, -5.549225], [105.23115, -5.54912], [105.231131, -5.54905], [105.231113, -5.54898], [105.231098, -5.548919], [105.231089, -5.548858], [105.231087, -5.548796], [105.231083, -5.548704], [105.231075, -5.548632], [105.231062, -5.548568], [105.231039, -5.548471], [105.231004, -5.548389], [105.230952, -5.548317], [105.230887, -5.548255], [105.230852, -5.548222], [105.230789, -5.54815], [105.23074, -5.548072], [105.230692, -5.547994], [105.230643, -5.547916], [105.230593, -5.547844], [105.230539, -5.547775], [105.230481, -5.54771], [105.230419, -5.547648], [105.230343, -5.547601], [105.230268, -5.547563], [105.230192, -5.547524], [105.230117, -5.547486], [105.230042, -5.547448], [105.229945, -5.5474], [105.229849, -5.547353], [105.229756, -5.547313], [105.229663, -5.547274], [105.229566, -5.547228], [105.229471, -5.547177], [105.229417, -5.54714], [105.229367, -5.547098], [105.229321, -5.547052], [105.229273, -5.547001], [105.229225, -5.546951], [105.229165, -5.546889], [105.229124, -5.546846], [105.229064, -5.546772], [105.229023, -5.546717], [105.228951, -5.546635], [105.22888, -5.546553], [105.228828, -5.546494], [105.228777, -5.546435], [105.228723, -5.546382], [105.228664, -5.54631], [105.228615, -5.546246], [105.228565, -5.546182], [105.228516, -5.546118], [105.228422, -5.546025], [105.228324, -5.545935], [105.228247, -5.545876], [105.228167, -5.545823], [105.228091, -5.545762], [105.228018, -5.545697], [105.227949, -5.545629], [105.227894, -5.545571], [105.22784, -5.545513], [105.227787, -5.545458], [105.227734, -5.545402], [105.227681, -5.545347], [105.227602, -5.545277], [105.22752, -5.54521], [105.227457, -5.545166], [105.227391, -5.545129], [105.227321, -5.545097], [105.227256, -5.545071], [105.22719, -5.54505], [105.227122, -5.545034], [105.227001, -5.544997], [105.226916, -5.544967], [105.22683, -5.544937], [105.226745, -5.544907], [105.226674, -5.544877], [105.226603, -5.544846], [105.226532, -5.544816], [105.226437, -5.544777], [105.226324, -5.544733], [105.22624, -5.544698], [105.226156, -5.544664], [105.226087, -5.544632], [105.226018, -5.5446], [105.225951, -5.544571], [105.225885, -5.544543], [105.225781, -5.544501], [105.225698, -5.544476], [105.225584, -5.544444], [105.225512, -5.544422], [105.225408, -5.54438], [105.225337, -5.544346], [105.225252, -5.544297], [105.225141, -5.544226], [105.225081, -5.544191], [105.225017, -5.544162], [105.224952, -5.544138], [105.224884, -5.544121], [105.224838, -5.544128], [105.22476, -5.544089], [105.224742, -5.543988], [105.224742, -5.543901], [105.224743, -5.543836], [105.224716, -5.543795]]}}, {"type": "Feature", "properties": {"No": 8, "Nama": "Kebun Campuran", "jarak_m": 2216, "kelas": "Rendah"}, "geometry": {"type": "LineString", "coordinates": [[105.227712, -5.544847], [105.242054, -5.553109], [105.24204, -5.553078], [105.24199, -5.552993], [105.241959, -5.55294], [105.241903, -5.552856], [105.241858, -5.552791], [105.241825, -5.552751], [105.241723, -5.552778], [105.241641, -5.552852], [105.241556, -5.552921], [105.241467, -5.552986], [105.241374, -5.553046], [105.241278, -5.5531], [105.241162, -5.553155], [105.241043, -5.553205], [105.24096, -5.553238], [105.240879, -5.553278], [105.240802, -5.553323], [105.240728, -5.553375], [105.240659, -5.553431], [105.240593, -5.553493], [105.240526, -5.553572], [105.240459, -5.553651], [105.2404, -5.553722], [105.240342, -5.553793], [105.240283, -5.553864], [105.240211, -5.553957], [105.240119, -5.553938], [105.240065, -5.553871], [105.240012, -5.553805], [105.239959, -5.553739], [105.239942, -5.553714], [105.239878, -5.553659], [105.239814, -5.553604], [105.239751, -5.55355], [105.239687, -5.553495], [105.239605, -5.55346], [105.239523, -5.553426], [105.239452, -5.553398], [105.239381, -5.553371], [105.239368, -5.553354], [105.239356, -5.553333], [105.239267, -5.553298], [105.239187, -5.553276], [105.239117, -5.553274], [105.239047, -5.553273], [105.238944, -5.553271], [105.238842, -5.553269], [105.238753, -5.553271], [105.238664, -5.553274], [105.238575, -5.553276], [105.238486, -5.553279], [105.238396, -5.553281], [105.238307, -5.553284], [105.238218, -5.553286], [105.238129, -5.553289], [105.238, -5.553298], [105.23793, -5.553312], [105.23786, -5.553326], [105.237782, -5.553343], [105.237704, -5.55336], [105.237626, -5.553378], [105.237548, -5.553395], [105.237476, -5.553411], [105.237403, -5.553428], [105.237321, -5.553448], [105.237238, -5.553468], [105.23715, -5.553489], [105.237063, -5.55351], [105.236975, -5.553531], [105.2369, -5.553555], [105.236824, -5.55358], [105.236714, -5.553603], [105.236604, -5.553627], [105.236516, -5.553652], [105.236427, -5.553676], [105.236339, -5.553701], [105.236262, -5.553726], [105.236187, -5.553659], [105.236144, -5.553577], [105.236108, -5.553506], [105.236072, -5.553434], [105.236036, -5.553363], [105.236, -5.553292], [105.235948, -5.55318], [105.235908, -5.553104], [105.235869, -5.553029], [105.235816, -5.552934], [105.235773, -5.552872], [105.235731, -5.55281], [105.235679, -5.552738], [105.235605, -5.552629], [105.235554, -5.552563], [105.235496, -5.552489], [105.235436, -5.552405], [105.235368, -5.55231], [105.235312, -5.552233], [105.235271, -5.552177], [105.235207, -5.552099], [105.235127, -5.55201], [105.235078, -5.551953], [105.235016, -5.551873], [105.23497, -5.551806], [105.234925, -5.55174], [105.234874, -5.551663], [105.234826, -5.551595], [105.234778, -5.551527], [105.234695, -5.551431], [105.234633, -5.551367], [105.234572, -5.551303], [105.234503, -5.551254], [105.234424, -5.551224], [105.23434, -5.551215], [105.234237, -5.551217], [105.234177, -5.551211], [105.234117, -5.551199], [105.234066, -5.551185], [105.233983, -5.551157], [105.233901, -5.55113], [105.23381, -5.551099], [105.23372, -5.551068], [105.233645, -5.551038], [105.233571, -5.551009], [105.2335, -5.550979], [105.233452, -5.550951], [105.233375, -5.550896], [105.23331, -5.550828], [105.233238, -5.550748], [105.233151, -5.550685], [105.233082, -5.550641], [105.233013, -5.550597], [105.232936, -5.550546], [105.232859, -5.550496], [105.232761, -5.550432], [105.23266, -5.550373], [105.23258, -5.550332], [105.232501, -5.550291], [105.232427, -5.550254], [105.232354, -5.550218], [105.232275, -5.550181], [105.232194, -5.550149], [105.232112, -5.550116], [105.232031, -5.550079], [105.231975, -5.550045], [105.23192, -5.550009], [105.231863, -5.549964], [105.231806, -5.549919], [105.231724, -5.549853], [105.231643, -5.549786], [105.231561, -5.54972], [105.231487, -5.549669], [105.231428, -5.54962], [105.231388, -5.549577], [105.231351, -5.549532], [105.231317, -5.549484], [105.231248, -5.549376], [105.231221, -5.549328], [105.231197, -5.549277], [105.231178, -5.549225], [105.23115, -5.54912], [105.231131, -5.54905], [105.231113, -5.54898], [105.231098, -5.548919], [105.231089, -5.548858], [105.231087, -5.548796], [105.231083, -5.548704], [105.231075, -5.548632], [105.231062, -5.548568], [105.231039, -5.548471], [105.231004, -5.548389], [105.230952, -5.548317], [105.230887, -5.548255], [105.230852, -5.548222], [105.230789, -5.54815], [105.23074, -5.548072], [105.230692, -5.547994], [105.230643, -5.547916], [105.230593, -5.547844], [105.230539, -5.547775], [105.230481, -5.54771], [105.230419, -5.547648], [105.230343, -5.547601], [105.230268, -5.547563], [105.230192, -5.547524], [105.230117, -5.547486], [105.230042, -5.547448], [105.229945, -5.5474], [105.229849, -5.547353], [105.229756, -5.547313], [105.229663, -5.547274], [105.229566, -5.547228], [105.229471, -5.547177], [105.229417, -5.54714], [105.229367, -5.547098], [105.229321, -5.547052], [105.229273, -5.547001], [105.229225, -5.546951], [105.229165, -5.546889], [105.229124, -5.546846], [105.229064, -5.546772], [105.229023, -5.546717], [105.228951, -5.546635], [105.22888, -5.546553], [105.228828, -5.546494], [105.228777, -5.546435], [105.228723, -5.546382], [105.228664, -5.54631], [105.228615, -5.546246], [105.228565, -5.546182], [105.228516, -5.546118], [105.228422, -5.546025], [105.228324, -5.545935], [105.228247, -5.545876], [105.228167, -5.545823], [105.228091, -5.545762], [105.228018, -5.545697], [105.227949, -5.545629], [105.227894, -5.545571], [105.22784, -5.545513], [105.227787, -5.545458], [105.227734, -5.545402], [105.227681, -5.545347], [105.227602, -5.545277], [105.22752, -5.54521], [105.227457, -5.545166]]}}, {"type": "Feature", "properties": {"No": 9, "Nama": "Kebun Campuran", "jarak_m": 2111, "kelas": "Rendah"}, "geometry": {"type": "LineString", "coordinates": [[105.228444, -5.545488], [105.242054, -5.553109], [105.24204, -5.553078], [105.24199, -5.552993], [105.241959, -5.55294], [105.241903, -5.552856], [105.241858, -5.552791], [105.241825, -5.552751], [105.241723, -5.552778], [105.241641, -5.552852], [105.241556, -5.552921], [105.241467, -5.552986], [105.241374, -5.553046], [105.241278, -5.5531], [105.241162, -5.553155], [105.241043, -5.553205], [105.24096, -5.553238], [105.240879, -5.553278], [105.240802, -5.553323], [105.240728, -5.553375], [105.240659, -5.553431], [105.240593, -5.553493], [105.240526, -5.553572], [105.240459, -5.553651], [105.2404, -5.553722], [105.240342, -5.553793], [105.240283, -5.553864], [105.240211, -5.553957], [105.240119, -5.553938], [105.240065, -5.553871], [105.240012, -5.553805], [105.239959, -5.553739], [105.239942, -5.553714], [105.239878, -5.553659], [105.239814, -5.553604], [105.239751, -5.55355], [105.239687, -5.553495], [105.239605, -5.55346], [105.239523, -5.553426], [105.239452, -5.553398], [105.239381, -5.553371], [105.239368, -5.553354], [105.239356, -5.553333], [105.239267, -5.553298], [105.239187, -5.553276], [105.239117, -5.553274], [105.239047, -5.553273], [105.238944, -5.553271], [105.238842, -5.553269], [105.238753, -5.553271], [105.238664, -5.553274], [105.238575, -5.553276], [105.238486, -5.553279], [105.238396, -5.553281], [105.238307, -5.553284], [105.238218, -5.553286], [105.238129, -5.553289], [105.238, -5.553298], [105.23793, -5.553312], [105.23786, -5.553326], [105.237782, -5.553343], [105.237704, -5.55336], [105.237626, -5.553378], [105.237548, -5.553395], [105.237476, -5.553411], [105.237403, -5.553428], [105.237321, -5.553448], [105.237238, -5.553468], [105.23715, -5.553489], [105.237063, -5.55351], [105.236975, -5.553531], [105.2369, -5.553555], [105.236824, -5.55358], [105.236714, -5.553603], [105.236604, -5.553627], [105.236516, -5.553652], [105.236427, -5.553676], [105.236339, -5.553701], [105.236262, -5.553726], [105.236187, -5.553659], [105.236144, -5.553577], [105.236108, -5.553506], [105.236072, -5.553434], [105.236036, -5.553363], [105.236, -5.553292], [105.235948, -5.55318], [105.235908, -5.553104], [105.235869, -5.553029], [105.235816, -5.552934], [105.235773, -5.552872], [105.235731, -5.55281], [105.235679, -5.552738], [105.235605, -5.552629], [105.235554, -5.552563], [105.235496, -5.552489], [105.235436, -5.552405], [105.235368, -5.55231], [105.235312, -5.552233], [105.235271, -5.552177], [105.235207, -5.552099], [105.235127, -5.55201], [105.235078, -5.551953], [105.235016, -5.551873], [105.23497, -5.551806], [105.234925, -5.55174], [105.234874, -5.551663], [105.234826, -5.551595], [105.234778, -5.551527], [105.234695, -5.551431], [105.234633, -5.551367], [105.234572, -5.551303], [105.234503, -5.551254], [105.234424, -5.551224], [105.23434, -5.551215], [105.234237, -5.551217], [105.234177, -5.551211], [105.234117, -5.551199], [105.234066, -5.551185], [105.233983, -5.551157], [105.233901, -5.55113], [105.23381, -5.551099], [105.23372, -5.551068], [105.233645, -5.551038], [105.233571, -5.551009], [105.2335, -5.550979], [105.233452, -5.550951], [105.233375, -5.550896], [105.23331, -5.550828], [105.233238, -5.550748], [105.233151, -5.550685], [105.233082, -5.550641], [105.233013, -5.550597], [105.232936, -5.550546], [105.232859, -5.550496], [105.232761, -5.550432], [105.23266, -5.550373], [105.23258, -5.550332], [105.232501, -5.550291], [105.232427, -5.550254], [105.232354, -5.550218], [105.232275, -5.550181], [105.232194, -5.550149], [105.232112, -5.550116], [105.232031, -5.550079], [105.231975, -5.550045], [105.23192, -5.550009], [105.231863, -5.549964], [105.231806, -5.549919], [105.231724, -5.549853], [105.231643, -5.549786], [105.231561, -5.54972], [105.231487, -5.549669], [105.231428, -5.54962], [105.231388, -5.549577], [105.231351, -5.549532], [105.231317, -5.549484], [105.231248, -5.549376], [105.231221, -5.549328], [105.231197, -5.549277], [105.231178, -5.549225], [105.23115, -5.54912], [105.231131, -5.54905], [105.231113, -5.54898], [105.231098, -5.548919], [105.231089, -5.548858], [105.231087, -5.548796], [105.231083, -5.548704], [105.231075, -5.548632], [105.231062, -5.548568], [105.231039, -5.548471], [105.231004, -5.548389], [105.230952, -5.548317], [105.230887, -5.548255], [105.230852, -5.548222], [105.230789, -5.54815], [105.23074, -5.548072], [105.230692, -5.547994], [105.230643, -5.547916], [105.230593, -5.547844], [105.230539, -5.547775], [105.230481, -5.54771], [105.230419, -5.547648], [105.230343, -5.547601], [105.230268, -5.547563], [105.230192, -5.547524], [105.230117, -5.547486], [105.230042, -5.547448], [105.229945, -5.5474], [105.229849, -5.547353], [105.229756, -5.547313], [105.229663, -5.547274], [105.229566, -5.547228], [105.229471, -5.547177], [105.229417, -5.54714], [105.229367, -5.547098], [105.229321, -5.547052], [105.229273, -5.547001], [105.229225, -5.546951], [105.229165, -5.546889], [105.229124, -5.546846], [105.229064, -5.546772], [105.229023, -5.546717], [105.228951, -5.546635], [105.22888, -5.546553], [105.228828, -5.546494], [105.228777, -5.546435], [105.228723, -5.546382], [105.228664, -5.54631], [105.228615, -5.546246], [105.228565, -5.546182], [105.228516, -5.546118], [105.228422, -5.546025], [105.228324, -5.545935], [105.228247, -5.545876], [105.228167, -5.545823]]}}, {"type": "Feature", "properties": {"No": 10, "Nama": "Kebun Campuran", "jarak_m": 2265, "kelas": "Rendah"}, "geometry": {"type": "LineString", "coordinates": [[105.226765, -5.545107], [105.242054, -5.553109], [105.24204, -5.553078], [105.24199, -5.552993], [105.241959, -5.55294], [105.241903, -5.552856], [105.241858, -5.552791], [105.241825, -5.552751], [105.241723, -5.552778], [105.241641, -5.552852], [105.241556, -5.552921], [105.241467, -5.552986], [105.241374, -5.553046], [105.241278, -5.5531], [105.241162, -5.553155], [105.241043, -5.553205], [105.24096, -5.553238], [105.240879, -5.553278], [105.240802, -5.553323], [105.240728, -5.553375], [105.240659, -5.553431], [105.240593, -5.553493], [105.240526, -5.553572], [105.240459, -5.553651], [105.2404, -5.553722], [105.240342, -5.553793], [105.240283, -5.553864], [105.240211, -5.553957], [105.240119, -5.553938], [105.240065, -5.553871], [105.240012, -5.553805], [105.239959, -5.553739], [105.239942, -5.553714], [105.239878, -5.553659], [105.239814, -5.553604], [105.239751, -5.55355], [105.239687, -5.553495], [105.239605, -5.55346], [105.239523, -5.553426], [105.239452, -5.553398], [105.239381, -5.553371], [105.239368, -5.553354], [105.239356, -5.553333], [105.239267, -5.553298], [105.239187, -5.553276], [105.239117, -5.553274], [105.239047, -5.553273], [105.238944, -5.553271], [105.238842, -5.553269], [105.238753, -5.553271], [105.238664, -5.553274], [105.238575, -5.553276], [105.238486, -5.553279], [105.238396, -5.553281], [105.238307, -5.553284], [105.238218, -5.553286], [105.238129, -5.553289], [105.238, -5.553298], [105.23793, -5.553312], [105.23786, -5.553326], [105.237782, -5.553343], [105.237704, -5.55336], [105.237626, -5.553378], [105.237548, -5.553395], [105.237476, -5.553411], [105.237403, -5.553428], [105.237321, -5.553448], [105.237238, -5.553468], [105.23715, -5.553489], [105.237063, -5.55351], [105.236975, -5.553531], [105.2369, -5.553555], [105.236824, -5.55358], [105.236714, -5.553603], [105.236604, -5.553627], [105.236516, -5.553652], [105.236427, -5.553676], [105.236339, -5.553701], [105.236262, -5.553726], [105.236187, -5.553659], [105.236144, -5.553577], [105.236108, -5.553506], [105.236072, -5.553434], [105.236036, -5.553363], [105.236, -5.553292], [105.235948, -5.55318], [105.235908, -5.553104], [105.235869, -5.553029], [105.235816, -5.552934], [105.235773, -5.552872], [105.235731, -5.55281], [105.235679, -5.552738], [105.235605, -5.552629], [105.235554, -5.552563], [105.235496, -5.552489], [105.235436, -5.552405], [105.235368, -5.55231], [105.235312, -5.552233], [105.235271, -5.552177], [105.235207, -5.552099], [105.235127, -5.55201], [105.235078, -5.551953], [105.235016, -5.551873], [105.23497, -5.551806], [105.234925, -5.55174], [105.234874, -5.551663], [105.234826, -5.551595], [105.234778, -5.551527], [105.234695, -5.551431], [105.234633, -5.551367], [105.234572, -5.551303], [105.234503, -5.551254], [105.234424, -5.551224], [105.23434, -5.551215], [105.234237, -5.551217], [105.234177, -5.551211], [105.234117, -5.551199], [105.234066, -5.551185], [105.233983, -5.551157], [105.233901, -5.55113], [105.23381, -5.551099], [105.23372, -5.551068], [105.233645, -5.551038], [105.233571, -5.551009], [105.2335, -5.550979], [105.233452, -5.550951], [105.233375, -5.550896], [105.23331, -5.550828], [105.233238, -5.550748], [105.233151, -5.550685], [105.233082, -5.550641], [105.233013, -5.550597], [105.232936, -5.550546], [105.232859, -5.550496], [105.232761, -5.550432], [105.23266, -5.550373], [105.23258, -5.550332], [105.232501, -5.550291], [105.232427, -5.550254], [105.232354, -5.550218], [105.232275, -5.550181], [105.232194, -5.550149], [105.232112, -5.550116], [105.232031, -5.550079], [105.231975, -5.550045], [105.23192, -5.550009], [105.231863, -5.549964], [105.231806, -5.549919], [105.231724, -5.549853], [105.231643, -5.549786], [105.231561, -5.54972], [105.231487, -5.549669], [105.231428, -5.54962], [105.231388, -5.549577], [105.231351, -5.549532], [105.231317, -5.549484], [105.231248, -5.549376], [105.231221, -5.549328], [105.231197, -5.549277], [105.231178, -5.549225], [105.23115, -5.54912], [105.231131, -5.54905], [105.231113, -5.54898], [105.231098, -5.548919], [105.231089, -5.548858], [105.231087, -5.548796], [105.231083, -5.548704], [105.231075, -5.548632], [105.231062, -5.548568], [105.231039, -5.548471], [105.231004, -5.548389], [105.230952, -5.548317], [105.230887, -5.548255], [105.230852, -5.548222], [105.230789, -5.54815], [105.23074, -5.548072], [105.230692, -5.547994], [105.230643, -5.547916], [105.230593, -5.547844], [105.230539, -5.547775], [105.230481, -5.54771], [105.230419, -5.547648], [105.230343, -5.547601], [105.230268, -5.547563], [105.230192, -5.547524], [105.230117, -5.547486], [105.230042, -5.547448], [105.229945, -5.5474], [105.229849, -5.547353], [105.229756, -5.547313], [105.229663, -5.547274], [105.229566, -5.547228], [105.229471, -5.547177], [105.229417, -5.54714], [105.229367, -5.547098], [105.229321, -5.547052], [105.229273, -5.547001], [105.229225, -5.546951], [105.229165, -5.546889], [105.229124, -5.546846], [105.229064, -5.546772], [105.229023, -5.546717], [105.228951, -5.546635], [105.22888, -5.546553], [105.228828, -5.546494], [105.228777, -5.546435], [105.228723, -5.546382], [105.228664, -5.54631], [105.228615, -5.546246], [105.228565, -5.546182], [105.228516, -5.546118], [105.228422, -5.546025], [105.228324, -5.545935], [105.228247, -5.545876], [105.228167, -5.545823], [105.228091, -5.545762], [105.228018, -5.545697], [105.227949, -5.545629], [105.227894, -5.545571], [105.22784, -5.545513], [105.227787, -5.545458], [105.227734, -5.545402], [105.227681, -5.545347], [105.227602, -5.545277], [105.22752, -5.54521], [105.227457, -5.545166], [105.227391, -5.545129], [105.227321, -5.545097], [105.227256, -5.545071], [105.22719, -5.54505], [105.227122, -5.545034], [105.227001, -5.544997], [105.226916, -5.544967], [105.22683, -5.544937]]}}, {"type": "Feature", "properties": {"No": 11, "Nama": "Kebun Campuran", "jarak_m": 2249, "kelas": "Rendah"}, "geometry": {"type": "LineString", "coordinates": [[105.226938, -5.544839], [105.242054, -5.553109], [105.24204, -5.553078], [105.24199, -5.552993], [105.241959, -5.55294], [105.241903, -5.552856], [105.241858, -5.552791], [105.241825, -5.552751], [105.241723, -5.552778], [105.241641, -5.552852], [105.241556, -5.552921], [105.241467, -5.552986], [105.241374, -5.553046], [105.241278, -5.5531], [105.241162, -5.553155], [105.241043, -5.553205], [105.24096, -5.553238], [105.240879, -5.553278], [105.240802, -5.553323], [105.240728, -5.553375], [105.240659, -5.553431], [105.240593, -5.553493], [105.240526, -5.553572], [105.240459, -5.553651], [105.2404, -5.553722], [105.240342, -5.553793], [105.240283, -5.553864], [105.240211, -5.553957], [105.240119, -5.553938], [105.240065, -5.553871], [105.240012, -5.553805], [105.239959, -5.553739], [105.239942, -5.553714], [105.239878, -5.553659], [105.239814, -5.553604], [105.239751, -5.55355], [105.239687, -5.553495], [105.239605, -5.55346], [105.239523, -5.553426], [105.239452, -5.553398], [105.239381, -5.553371], [105.239368, -5.553354], [105.239356, -5.553333], [105.239267, -5.553298], [105.239187, -5.553276], [105.239117, -5.553274], [105.239047, -5.553273], [105.238944, -5.553271], [105.238842, -5.553269], [105.238753, -5.553271], [105.238664, -5.553274], [105.238575, -5.553276], [105.238486, -5.553279], [105.238396, -5.553281], [105.238307, -5.553284], [105.238218, -5.553286], [105.238129, -5.553289], [105.238, -5.553298], [105.23793, -5.553312], [105.23786, -5.553326], [105.237782, -5.553343], [105.237704, -5.55336], [105.237626, -5.553378], [105.237548, -5.553395], [105.237476, -5.553411], [105.237403, -5.553428], [105.237321, -5.553448], [105.237238, -5.553468], [105.23715, -5.553489], [105.237063, -5.55351], [105.236975, -5.553531], [105.2369, -5.553555], [105.236824, -5.55358], [105.236714, -5.553603], [105.236604, -5.553627], [105.236516, -5.553652], [105.236427, -5.553676], [105.236339, -5.553701], [105.236262, -5.553726], [105.236187, -5.553659], [105.236144, -5.553577], [105.236108, -5.553506], [105.236072, -5.553434], [105.236036, -5.553363], [105.236, -5.553292], [105.235948, -5.55318], [105.235908, -5.553104], [105.235869, -5.553029], [105.235816, -5.552934], [105.235773, -5.552872], [105.235731, -5.55281], [105.235679, -5.552738], [105.235605, -5.552629], [105.235554, -5.552563], [105.235496, -5.552489], [105.235436, -5.552405], [105.235368, -5.55231], [105.235312, -5.552233], [105.235271, -5.552177], [105.235207, -5.552099], [105.235127, -5.55201], [105.235078, -5.551953], [105.235016, -5.551873], [105.23497, -5.551806], [105.234925, -5.55174], [105.234874, -5.551663], [105.234826, -5.551595], [105.234778, -5.551527], [105.234695, -5.551431], [105.234633, -5.551367], [105.234572, -5.551303], [105.234503, -5.551254], [105.234424, -5.551224], [105.23434, -5.551215], [105.234237, -5.551217], [105.234177, -5.551211], [105.234117, -5.551199], [105.234066, -5.551185], [105.233983, -5.551157], [105.233901, -5.55113], [105.23381, -5.551099], [105.23372, -5.551068], [105.233645, -5.551038], [105.233571, -5.551009], [105.2335, -5.550979], [105.233452, -5.550951], [105.233375, -5.550896], [105.23331, -5.550828], [105.233238, -5.550748], [105.233151, -5.550685], [105.233082, -5.550641], [105.233013, -5.550597], [105.232936, -5.550546], [105.232859, -5.550496], [105.232761, -5.550432], [105.23266, -5.550373], [105.23258, -5.550332], [105.232501, -5.550291], [105.232427, -5.550254], [105.232354, -5.550218], [105.232275, -5.550181], [105.232194, -5.550149], [105.232112, -5.550116], [105.232031, -5.550079], [105.231975, -5.550045], [105.23192, -5.550009], [105.231863, -5.549964], [105.231806, -5.549919], [105.231724, -5.549853], [105.231643, -5.549786], [105.231561, -5.54972], [105.231487, -5.549669], [105.231428, -5.54962], [105.231388, -5.549577], [105.231351, -5.549532], [105.231317, -5.549484], [105.231248, -5.549376], [105.231221, -5.549328], [105.231197, -5.549277], [105.231178, -5.549225], [105.23115, -5.54912], [105.231131, -5.54905], [105.231113, -5.54898], [105.231098, -5.548919], [105.231089, -5.548858], [105.231087, -5.548796], [105.231083, -5.548704], [105.231075, -5.548632], [105.231062, -5.548568], [105.231039, -5.548471], [105.231004, -5.548389], [105.230952, -5.548317], [105.230887, -5.548255], [105.230852, -5.548222], [105.230789, -5.54815], [105.23074, -5.548072], [105.230692, -5.547994], [105.230643, -5.547916], [105.230593, -5.547844], [105.230539, -5.547775], [105.230481, -5.54771], [105.230419, -5.547648], [105.230343, -5.547601], [105.230268, -5.547563], [105.230192, -5.547524], [105.230117, -5.547486], [105.230042, -5.547448], [105.229945, -5.5474], [105.229849, -5.547353], [105.229756, -5.547313], [105.229663, -5.547274], [105.229566, -5.547228], [105.229471, -5.547177], [105.229417, -5.54714], [105.229367, -5.547098], [105.229321, -5.547052], [105.229273, -5.547001], [105.229225, -5.546951], [105.229165, -5.546889], [105.229124, -5.546846], [105.229064, -5.546772], [105.229023, -5.546717], [105.228951, -5.546635], [105.22888, -5.546553], [105.228828, -5.546494], [105.228777, -5.546435], [105.228723, -5.546382], [105.228664, -5.54631], [105.228615, -5.546246], [105.228565, -5.546182], [105.228516, -5.546118], [105.228422, -5.546025], [105.228324, -5.545935], [105.228247, -5.545876], [105.228167, -5.545823], [105.228091, -5.545762], [105.228018, -5.545697], [105.227949, -5.545629], [105.227894, -5.545571], [105.22784, -5.545513], [105.227787, -5.545458], [105.227734, -5.545402], [105.227681, -5.545347], [105.227602, -5.545277], [105.22752, -5.54521], [105.227457, -5.545166], [105.227391, -5.545129], [105.227321, -5.545097], [105.227256, -5.545071], [105.22719, -5.54505], [105.227122, -5.545034], [105.227001, -5.544997], [105.226916, -5.544967]]}}, {"type": "Feature", "properties": {"No": 12, "Nama": "Kebun Campuran", "jarak_m": 2791, "kelas": "Rendah"}, "geometry": {"type": "LineString", "coordinates": [[105.222518, -5.544191], [105.242054, -5.553109], [105.24204, -5.553078], [105.24199, -5.552993], [105.241959, -5.55294], [105.241903, -5.552856], [105.241858, -5.552791], [105.241825, -5.552751], [105.241723, -5.552778], [105.241641, -5.552852], [105.241556, -5.552921], [105.241467, -5.552986], [105.241374, -5.553046], [105.241278, -5.5531], [105.241162, -5.553155], [105.241043, -5.553205], [105.24096, -5.553238], [105.240879, -5.553278], [105.240802, -5.553323], [105.240728, -5.553375], [105.240659, -5.553431], [105.240593, -5.553493], [105.240526, -5.553572], [105.240459, -5.553651], [105.2404, -5.553722], [105.240342, -5.553793], [105.240283, -5.553864], [105.240211, -5.553957], [105.240119, -5.553938], [105.240065, -5.553871], [105.240012, -5.553805], [105.239959, -5.553739], [105.239942, -5.553714], [105.239878, -5.553659], [105.239814, -5.553604], [105.239751, -5.55355], [105.239687, -5.553495], [105.239605, -5.55346], [105.239523, -5.553426], [105.239452, -5.553398], [105.239381, -5.553371], [105.239368, -5.553354], [105.239356, -5.553333], [105.239267, -5.553298], [105.239187, -5.553276], [105.239117, -5.553274], [105.239047, -5.553273], [105.238944, -5.553271], [105.238842, -5.553269], [105.238753, -5.553271], [105.238664, -5.553274], [105.238575, -5.553276], [105.238486, -5.553279], [105.238396, -5.553281], [105.238307, -5.553284], [105.238218, -5.553286], [105.238129, -5.553289], [105.238, -5.553298], [105.23793, -5.553312], [105.23786, -5.553326], [105.237782, -5.553343], [105.237704, -5.55336], [105.237626, -5.553378], [105.237548, -5.553395], [105.237476, -5.553411], [105.237403, -5.553428], [105.237321, -5.553448], [105.237238, -5.553468], [105.23715, -5.553489], [105.237063, -5.55351], [105.236975, -5.553531], [105.2369, -5.553555], [105.236824, -5.55358], [105.236714, -5.553603], [105.236604, -5.553627], [105.236516, -5.553652], [105.236427, -5.553676], [105.236339, -5.553701], [105.236262, -5.553726], [105.236187, -5.553659], [105.236144, -5.553577], [105.236108, -5.553506], [105.236072, -5.553434], [105.236036, -5.553363], [105.236, -5.553292], [105.235948, -5.55318], [105.235908, -5.553104], [105.235869, -5.553029], [105.235816, -5.552934], [105.235773, -5.552872], [105.235731, -5.55281], [105.235679, -5.552738], [105.235605, -5.552629], [105.235554, -5.552563], [105.235496, -5.552489], [105.235436, -5.552405], [105.235368, -5.55231], [105.235312, -5.552233], [105.235271, -5.552177], [105.235207, -5.552099], [105.235127, -5.55201], [105.235078, -5.551953], [105.235016, -5.551873], [105.23497, -5.551806], [105.234925, -5.55174], [105.234874, -5.551663], [105.234826, -5.551595], [105.234778, -5.551527], [105.234695, -5.551431], [105.234633, -5.551367], [105.234572, -5.551303], [105.234503, -5.551254], [105.234424, -5.551224], [105.23434, -5.551215], [105.234237, -5.551217], [105.234177, -5.551211], [105.234117, -5.551199], [105.234066, -5.551185], [105.233983, -5.551157], [105.233901, -5.55113], [105.23381, -5.551099], [105.23372, -5.551068], [105.233645, -5.551038], [105.233571, -5.551009], [105.2335, -5.550979], [105.233452, -5.550951], [105.233375, -5.550896], [105.23331, -5.550828], [105.233238, -5.550748], [105.233151, -5.550685], [105.233082, -5.550641], [105.233013, -5.550597], [105.232936, -5.550546], [105.232859, -5.550496], [105.232761, -5.550432], [105.23266, -5.550373], [105.23258, -5.550332], [105.232501, -5.550291], [105.232427, -5.550254], [105.232354, -5.550218], [105.232275, -5.550181], [105.232194, -5.550149], [105.232112, -5.550116], [105.232031, -5.550079], [105.231975, -5.550045], [105.23192, -5.550009], [105.231863, -5.549964], [105.231806, -5.549919], [105.231724, -5.549853], [105.231643, -5.549786], [105.231561, -5.54972], [105.231487, -5.549669], [105.231428, -5.54962], [105.231388, -5.549577], [105.231351, -5.549532], [105.231317, -5.549484], [105.231248, -5.549376], [105.231221, -5.549328], [105.231197, -5.549277], [105.231178, -5.549225], [105.23115, -5.54912], [105.231131, -5.54905], [105.231113, -5.54898], [105.231098, -5.548919], [105.231089, -5.548858], [105.231087, -5.548796], [105.231083, -5.548704], [105.231075, -5.548632], [105.231062, -5.548568], [105.231039, -5.548471], [105.231004, -5.548389], [105.230952, -5.548317], [105.230887, -5.548255], [105.230852, -5.548222], [105.230789, -5.54815], [105.23074, -5.548072], [105.230692, -5.547994], [105.230643, -5.547916], [105.230593, -5.547844], [105.230539, -5.547775], [105.230481, -5.54771], [105.230419, -5.547648], [105.230343, -5.547601], [105.230268, -5.547563], [105.230192, -5.547524], [105.230117, -5.547486], [105.230042, -5.547448], [105.229945, -5.5474], [105.229849, -5.547353], [105.229756, -5.547313], [105.229663, -5.547274], [105.229566, -5.547228], [105.229471, -5.547177], [105.229417, -5.54714], [105.229367, -5.547098], [105.229321, -5.547052], [105.229273, -5.547001], [105.229225, -5.546951], [105.229165, -5.546889], [105.229124, -5.546846], [105.229064, -5.546772], [105.229023, -5.546717], [105.228951, -5.546635], [105.22888, -5.546553], [105.228828, -5.546494], [105.228777, -5.546435], [105.228723, -5.546382], [105.228664, -5.54631], [105.228615, -5.546246], [105.228565, -5.546182], [105.228516, -5.546118], [105.228422, -5.546025], [105.228324, -5.545935], [105.228247, -5.545876], [105.228167, -5.545823], [105.228091, -5.545762], [105.228018, -5.545697], [105.227949, -5.545629], [105.227894, -5.545571], [105.22784, -5.545513], [105.227787, -5.545458], [105.227734, -5.545402], [105.227681, -5.545347], [105.227602, -5.545277], [105.22752, -5.54521], [105.227457, -5.545166], [105.227391, -5.545129], [105.227321, -5.545097], [105.227256, -5.545071], [105.22719, -5.54505], [105.227122, -5.545034], [105.227001, -5.544997], [105.226916, -5.544967], [105.22683, -5.544937], [105.226745, -5.544907], [105.226674, -5.544877], [105.226603, -5.544846], [105.226532, -5.544816], [105.226437, -5.544777], [105.226324, -5.544733], [105.22624, -5.544698], [105.226156, -5.544664], [105.226087, -5.544632], [105.226018, -5.5446], [105.225951, -5.544571], [105.225885, -5.544543], [105.225781, -5.544501], [105.225698, -5.544476], [105.225584, -5.544444], [105.225512, -5.544422], [105.225408, -5.54438], [105.225337, -5.544346], [105.225252, -5.544297], [105.225141, -5.544226], [105.225081, -5.544191], [105.225017, -5.544162], [105.224952, -5.544138], [105.224884, -5.544121], [105.224838, -5.544128], [105.224714, -5.544148], [105.224642, -5.544157], [105.224569, -5.544166], [105.224511, -5.544171], [105.224438, -5.544156], [105.224362, -5.544119], [105.224318, -5.544095], [105.224266, -5.544067], [105.224177, -5.544035], [105.22408, -5.544028], [105.224003, -5.544068], [105.223969, -5.544088], [105.223872, -5.544085], [105.223801, -5.544065], [105.22376, -5.544053], [105.223673, -5.544017], [105.223628, -5.543982], [105.223548, -5.54391], [105.223507, -5.543889], [105.223409, -5.543853], [105.223315, -5.543821], [105.223258, -5.543812], [105.223198, -5.543803], [105.223106, -5.543824], [105.223049, -5.54384], [105.222994, -5.543844], [105.222898, -5.543843], [105.222819, -5.543845], [105.222714, -5.543842], [105.222616, -5.543832], [105.222553, -5.543826]]}}, {"type": "Feature", "properties": {"No": 13, "Nama": "Kebun Campuran", "jarak_m": 2888, "kelas": "Rendah"}, "geometry": {"type": "LineString", "coordinates": [[105.221571, -5.543263], [105.242054, -5.553109], [105.24204, -5.553078], [105.24199, -5.552993], [105.241959, -5.55294], [105.241903, -5.552856], [105.241858, -5.552791], [105.241825, -5.552751], [105.241723, -5.552778], [105.241641, -5.552852], [105.241556, -5.552921], [105.241467, -5.552986], [105.241374, -5.553046], [105.241278, -5.5531], [105.241162, -5.553155], [105.241043, -5.553205], [105.24096, -5.553238], [105.240879, -5.553278], [105.240802, -5.553323], [105.240728, -5.553375], [105.240659, -5.553431], [105.240593, -5.553493], [105.240526, -5.553572], [105.240459, -5.553651], [105.2404, -5.553722], [105.240342, -5.553793], [105.240283, -5.553864], [105.240211, -5.553957], [105.240119, -5.553938], [105.240065, -5.553871], [105.240012, -5.553805], [105.239959, -5.553739], [105.239942, -5.553714], [105.239878, -5.553659], [105.239814, -5.553604], [105.239751, -5.55355], [105.239687, -5.553495], [105.239605, -5.55346], [105.239523, -5.553426], [105.239452, -5.553398], [105.239381, -5.553371], [105.239368, -5.553354], [105.239356, -5.553333], [105.239267, -5.553298], [105.239187, -5.553276], [105.239117, -5.553274], [105.239047, -5.553273], [105.238944, -5.553271], [105.238842, -5.553269], [105.238753, -5.553271], [105.238664, -5.553274], [105.238575, -5.553276], [105.238486, -5.553279], [105.238396, -5.553281], [105.238307, -5.553284], [105.238218, -5.553286], [105.238129, -5.553289], [105.238, -5.553298], [105.23793, -5.553312], [105.23786, -5.553326], [105.237782, -5.553343], [105.237704, -5.55336], [105.237626, -5.553378], [105.237548, -5.553395], [105.237476, -5.553411], [105.237403, -5.553428], [105.237321, -5.553448], [105.237238, -5.553468], [105.23715, -5.553489], [105.237063, -5.55351], [105.236975, -5.553531], [105.2369, -5.553555], [105.236824, -5.55358], [105.236714, -5.553603], [105.236604, -5.553627], [105.236516, -5.553652], [105.236427, -5.553676], [105.236339, -5.553701], [105.236262, -5.553726], [105.236187, -5.553659], [105.236144, -5.553577], [105.236108, -5.553506], [105.236072, -5.553434], [105.236036, -5.553363], [105.236, -5.553292], [105.235948, -5.55318], [105.235908, -5.553104], [105.235869, -5.553029], [105.235816, -5.552934], [105.235773, -5.552872], [105.235731, -5.55281], [105.235679, -5.552738], [105.235605, -5.552629], [105.235554, -5.552563], [105.235496, -5.552489], [105.235436, -5.552405], [105.235368, -5.55231], [105.235312, -5.552233], [105.235271, -5.552177], [105.235207, -5.552099], [105.235127, -5.55201], [105.235078, -5.551953], [105.235016, -5.551873], [105.23497, -5.551806], [105.234925, -5.55174], [105.234874, -5.551663], [105.234826, -5.551595], [105.234778, -5.551527], [105.234695, -5.551431], [105.234633, -5.551367], [105.234572, -5.551303], [105.234503, -5.551254], [105.234424, -5.551224], [105.23434, -5.551215], [105.234237, -5.551217], [105.234177, -5.551211], [105.234117, -5.551199], [105.234066, -5.551185], [105.233983, -5.551157], [105.233901, -5.55113], [105.23381, -5.551099], [105.23372, -5.551068], [105.233645, -5.551038], [105.233571, -5.551009], [105.2335, -5.550979], [105.233452, -5.550951], [105.233375, -5.550896], [105.23331, -5.550828], [105.233238, -5.550748], [105.233151, -5.550685], [105.233082, -5.550641], [105.233013, -5.550597], [105.232936, -5.550546], [105.232859, -5.550496], [105.232761, -5.550432], [105.23266, -5.550373], [105.23258, -5.550332], [105.232501, -5.550291], [105.232427, -5.550254], [105.232354, -5.550218], [105.232275, -5.550181], [105.232194, -5.550149], [105.232112, -5.550116], [105.232031, -5.550079], [105.231975, -5.550045], [105.23192, -5.550009], [105.231863, -5.549964], [105.231806, -5.549919], [105.231724, -5.549853], [105.231643, -5.549786], [105.231561, -5.54972], [105.231487, -5.549669], [105.231428, -5.54962], [105.231388, -5.549577], [105.231351, -5.549532], [105.231317, -5.549484], [105.231248, -5.549376], [105.231221, -5.549328], [105.231197, -5.549277], [105.231178, -5.549225], [105.23115, -5.54912], [105.231131, -5.54905], [105.231113, -5.54898], [105.231098, -5.548919], [105.231089, -5.548858], [105.231087, -5.548796], [105.231083, -5.548704], [105.231075, -5.548632], [105.231062, -5.548568], [105.231039, -5.548471], [105.231004, -5.548389], [105.230952, -5.548317], [105.230887, -5.548255], [105.230852, -5.548222], [105.230789, -5.54815], [105.23074, -5.548072], [105.230692, -5.547994], [105.230643, -5.547916], [105.230593, -5.547844], [105.230539, -5.547775], [105.230481, -5.54771], [105.230419, -5.547648], [105.230343, -5.547601], [105.230268, -5.547563], [105.230192, -5.547524], [105.230117, -5.547486], [105.230042, -5.547448], [105.229945, -5.5474], [105.229849, -5.547353], [105.229756, -5.547313], [105.229663, -5.547274], [105.229566, -5.547228], [105.229471, -5.547177], [105.229417, -5.54714], [105.229367, -5.547098], [105.229321, -5.547052], [105.229273, -5.547001], [105.229225, -5.546951], [105.229165, -5.546889], [105.229124, -5.546846], [105.229064, -5.546772], [105.229023, -5.546717], [105.228951, -5.546635], [105.22888, -5.546553], [105.228828, -5.546494], [105.228777, -5.546435], [105.228723, -5.546382], [105.228664, -5.54631], [105.228615, -5.546246], [105.228565, -5.546182], [105.228516, -5.546118], [105.228422, -5.546025], [105.228324, -5.545935], [105.228247, -5.545876], [105.228167, -5.545823], [105.228091, -5.545762], [105.228018, -5.545697], [105.227949, -5.545629], [105.227894, -5.545571], [105.22784, -5.545513], [105.227787, -5.545458], [105.227734, -5.545402], [105.227681, -5.545347], [105.227602, -5.545277], [105.22752, -5.54521], [105.227457, -5.545166], [105.227391, -5.545129], [105.227321, -5.545097], [105.227256, -5.545071], [105.22719, -5.54505], [105.227122, -5.545034], [105.227001, -5.544997], [105.226916, -5.544967], [105.22683, -5.544937], [105.226745, -5.544907], [105.226674, -5.544877], [105.226603, -5.544846], [105.226532, -5.544816], [105.226437, -5.544777], [105.226324, -5.544733], [105.22624, -5.544698], [105.226156, -5.544664], [105.226087, -5.544632], [105.226018, -5.5446], [105.225951, -5.544571], [105.225885, -5.544543], [105.225781, -5.544501], [105.225698, -5.544476], [105.225584, -5.544444], [105.225512, -5.544422], [105.225408, -5.54438], [105.225337, -5.544346], [105.225252, -5.544297], [105.225141, -5.544226], [105.225081, -5.544191], [105.225017, -5.544162], [105.224952, -5.544138], [105.224884, -5.544121], [105.224838, -5.544128], [105.224714, -5.544148], [105.224642, -5.544157], [105.224569, -5.544166], [105.224511, -5.544171], [105.224438, -5.544156], [105.224362, -5.544119], [105.224318, -5.544095], [105.224266, -5.544067], [105.224177, -5.544035], [105.22408, -5.544028], [105.224003, -5.544068], [105.223969, -5.544088], [105.223872, -5.544085], [105.223801, -5.544065], [105.22376, -5.544053], [105.223673, -5.544017], [105.223628, -5.543982], [105.223548, -5.54391], [105.223507, -5.543889], [105.223409, -5.543853], [105.223315, -5.543821], [105.223258, -5.543812], [105.223198, -5.543803], [105.223106, -5.543824], [105.223049, -5.54384], [105.222994, -5.543844], [105.222898, -5.543843], [105.222819, -5.543845], [105.222714, -5.543842], [105.222616, -5.543832], [105.222553, -5.543826], [105.222491, -5.543811], [105.22242, -5.543799], [105.22235, -5.543787], [105.222256, -5.543779], [105.222161, -5.543765], [105.22213, -5.543749], [105.222033, -5.543701], [105.221931, -5.543673], [105.22183, -5.543648], [105.221762, -5.543638]]}}, {"type": "Feature", "properties": {"No": 14, "Nama": "Kebun Campuran", "jarak_m": 1987, "kelas": "Rendah"}, "geometry": {"type": "LineString", "coordinates": [[105.2283, -5.550664], [105.242054, -5.553109], [105.24204, -5.553078], [105.24199, -5.552993], [105.241959, -5.55294], [105.241903, -5.552856], [105.241858, -5.552791], [105.241825, -5.552751], [105.241723, -5.552778], [105.241641, -5.552852], [105.241556, -5.552921], [105.241467, -5.552986], [105.241374, -5.553046], [105.241278, -5.5531], [105.241162, -5.553155], [105.241043, -5.553205], [105.24096, -5.553238], [105.240879, -5.553278], [105.240802, -5.553323], [105.240728, -5.553375], [105.240659, -5.553431], [105.240593, -5.553493], [105.240526, -5.553572], [105.240459, -5.553651], [105.2404, -5.553722], [105.240342, -5.553793], [105.240283, -5.553864], [105.240211, -5.553957], [105.240119, -5.553938], [105.240065, -5.553871], [105.240012, -5.553805], [105.239959, -5.553739], [105.239942, -5.553714], [105.239878, -5.553659], [105.239814, -5.553604], [105.239751, -5.55355], [105.239687, -5.553495], [105.239605, -5.55346], [105.239523, -5.553426], [105.239452, -5.553398], [105.239381, -5.553371], [105.239368, -5.553354], [105.239356, -5.553333], [105.239267, -5.553298], [105.239187, -5.553276], [105.239117, -5.553274], [105.239047, -5.553273], [105.238944, -5.553271], [105.238842, -5.553269], [105.238753, -5.553271], [105.238664, -5.553274], [105.238575, -5.553276], [105.238486, -5.553279], [105.238396, -5.553281], [105.238307, -5.553284], [105.238218, -5.553286], [105.238129, -5.553289], [105.238, -5.553298], [105.23793, -5.553312], [105.23786, -5.553326], [105.237782, -5.553343], [105.237704, -5.55336], [105.237626, -5.553378], [105.237548, -5.553395], [105.237476, -5.553411], [105.237403, -5.553428], [105.237321, -5.553448], [105.237238, -5.553468], [105.23715, -5.553489], [105.237063, -5.55351], [105.236975, -5.553531], [105.2369, -5.553555], [105.236824, -5.55358], [105.236714, -5.553603], [105.236604, -5.553627], [105.236516, -5.553652], [105.236427, -5.553676], [105.236339, -5.553701], [105.236262, -5.553726], [105.236187, -5.553659], [105.236144, -5.553577], [105.236108, -5.553506], [105.236072, -5.553434], [105.236036, -5.553363], [105.236, -5.553292], [105.235948, -5.55318], [105.235908, -5.553104], [105.235869, -5.553029], [105.235816, -5.552934], [105.235773, -5.552872], [105.235731, -5.55281], [105.235679, -5.552738], [105.235605, -5.552629], [105.235554, -5.552563], [105.235496, -5.552489], [105.235436, -5.552405], [105.235368, -5.55231], [105.235312, -5.552233], [105.235271, -5.552177], [105.235207, -5.552099], [105.235127, -5.55201], [105.235078, -5.551953], [105.235016, -5.551873], [105.23497, -5.551806], [105.234925, -5.55174], [105.234874, -5.551663], [105.234826, -5.551595], [105.234778, -5.551527], [105.234695, -5.551431], [105.234633, -5.551367], [105.234541, -5.55138], [105.234477, -5.551396], [105.234391, -5.551415], [105.234319, -5.55143], [105.234246, -5.551445], [105.234142, -5.55147], [105.234049, -5.551492], [105.233957, -5.551509], [105.233878, -5.551529], [105.233791, -5.55155], [105.233706, -5.551577], [105.233623, -5.551611], [105.233541, -5.551649], [105.233459, -5.551688], [105.233367, -5.551732], [105.233258, -5.551786], [105.23319, -5.551814], [105.233121, -5.551843], [105.233051, -5.551872], [105.232977, -5.551907], [105.2329, -5.551941], [105.232815, -5.551975], [105.23273, -5.552009], [105.232649, -5.55205], [105.232567, -5.552092], [105.232502, -5.552133], [105.232436, -5.552175], [105.232349, -5.552234], [105.232262, -5.552293], [105.232176, -5.552352], [105.232079, -5.552408], [105.231981, -5.552464], [105.231932, -5.552473], [105.231888, -5.552403], [105.231835, -5.55232], [105.231782, -5.552237], [105.23173, -5.552155], [105.231677, -5.552072], [105.231631, -5.552002], [105.231584, -5.551933], [105.231538, -5.551863], [105.231491, -5.551794], [105.231445, -5.551724], [105.231394, -5.551641], [105.231343, -5.551559], [105.231302, -5.551485], [105.231261, -5.551411], [105.231228, -5.551349], [105.231195, -5.551287], [105.231138, -5.551191], [105.231086, -5.551112], [105.231034, -5.551033], [105.230982, -5.550954], [105.230941, -5.550882], [105.230899, -5.55081], [105.230858, -5.550739], [105.230817, -5.550667], [105.230775, -5.550599], [105.230733, -5.550532], [105.230672, -5.550452], [105.230591, -5.550349], [105.230537, -5.550282], [105.230483, -5.550216], [105.230422, -5.550148], [105.230362, -5.55008], [105.230291, -5.550005], [105.230225, -5.549926], [105.230164, -5.549843], [105.230156, -5.54983], [105.230109, -5.549756]]}}, {"type": "Feature", "properties": {"No": 15, "Nama": "Kebun Campuran", "jarak_m": 1988, "kelas": "Rendah"}, "geometry": {"type": "LineString", "coordinates": [[105.2284, -5.5521], [105.242054, -5.553109], [105.24204, -5.553078], [105.24199, -5.552993], [105.241959, -5.55294], [105.241903, -5.552856], [105.241858, -5.552791], [105.241825, -5.552751], [105.241723, -5.552778], [105.241641, -5.552852], [105.241556, -5.552921], [105.241467, -5.552986], [105.241374, -5.553046], [105.241278, -5.5531], [105.241162, -5.553155], [105.241043, -5.553205], [105.24096, -5.553238], [105.240879, -5.553278], [105.240802, -5.553323], [105.240728, -5.553375], [105.240659, -5.553431], [105.240593, -5.553493], [105.240526, -5.553572], [105.240459, -5.553651], [105.2404, -5.553722], [105.240342, -5.553793], [105.240283, -5.553864], [105.240211, -5.553957], [105.240119, -5.553938], [105.240065, -5.553871], [105.240012, -5.553805], [105.239959, -5.553739], [105.239942, -5.553714], [105.239878, -5.553659], [105.239814, -5.553604], [105.239751, -5.55355], [105.239687, -5.553495], [105.239605, -5.55346], [105.239523, -5.553426], [105.239452, -5.553398], [105.239381, -5.553371], [105.239368, -5.553354], [105.239356, -5.553333], [105.239267, -5.553298], [105.239187, -5.553276], [105.239117, -5.553274], [105.239047, -5.553273], [105.238944, -5.553271], [105.238842, -5.553269], [105.238753, -5.553271], [105.238664, -5.553274], [105.238575, -5.553276], [105.238486, -5.553279], [105.238396, -5.553281], [105.238307, -5.553284], [105.238218, -5.553286], [105.238129, -5.553289], [105.238, -5.553298], [105.23793, -5.553312], [105.23786, -5.553326], [105.237782, -5.553343], [105.237704, -5.55336], [105.237626, -5.553378], [105.237548, -5.553395], [105.237476, -5.553411], [105.237403, -5.553428], [105.237321, -5.553448], [105.237238, -5.553468], [105.23715, -5.553489], [105.237063, -5.55351], [105.236975, -5.553531], [105.2369, -5.553555], [105.236824, -5.55358], [105.236714, -5.553603], [105.236604, -5.553627], [105.236516, -5.553652], [105.236427, -5.553676], [105.236339, -5.553701], [105.236262, -5.553726], [105.236187, -5.553659], [105.236144, -5.553577], [105.236108, -5.553506], [105.236072, -5.553434], [105.236036, -5.553363], [105.236, -5.553292], [105.235948, -5.55318], [105.235908, -5.553104], [105.235869, -5.553029], [105.235816, -5.552934], [105.235773, -5.552872], [105.235731, -5.55281], [105.235679, -5.552738], [105.235605, -5.552629], [105.235554, -5.552563], [105.235496, -5.552489], [105.235436, -5.552405], [105.235368, -5.55231], [105.235312, -5.552233], [105.235271, -5.552177], [105.235207, -5.552099], [105.235127, -5.55201], [105.235078, -5.551953], [105.235016, -5.551873], [105.23497, -5.551806], [105.234925, -5.55174], [105.234874, -5.551663], [105.234826, -5.551595], [105.234778, -5.551527], [105.234695, -5.551431], [105.234633, -5.551367], [105.234541, -5.55138], [105.234477, -5.551396], [105.234391, -5.551415], [105.234319, -5.55143], [105.234246, -5.551445], [105.234142, -5.55147], [105.234049, -5.551492], [105.233957, -5.551509], [105.233878, -5.551529], [105.233791, -5.55155], [105.233706, -5.551577], [105.233623, -5.551611], [105.233541, -5.551649], [105.233459, -5.551688], [105.233367, -5.551732], [105.233258, -5.551786], [105.23319, -5.551814], [105.233121, -5.551843], [105.233051, -5.551872], [105.232977, -5.551907], [105.2329, -5.551941], [105.232815, -5.551975], [105.23273, -5.552009], [105.232649, -5.55205], [105.232567, -5.552092], [105.232502, -5.552133], [105.232436, -5.552175], [105.232349, -5.552234], [105.232262, -5.552293], [105.232176, -5.552352], [105.232079, -5.552408], [105.231981, -5.552464], [105.231932, -5.552473], [105.231888, -5.552403], [105.231835, -5.55232], [105.231782, -5.552237], [105.23173, -5.552155], [105.231677, -5.552072], [105.231631, -5.552002], [105.231584, -5.551933], [105.231538, -5.551863], [105.231491, -5.551794], [105.231445, -5.551724], [105.231394, -5.551641], [105.231343, -5.551559], [105.231302, -5.551485], [105.231261, -5.551411], [105.231228, -5.551349], [105.231195, -5.551287], [105.231138, -5.551191], [105.231086, -5.551112], [105.231034, -5.551033], [105.230982, -5.550954], [105.230941, -5.550882], [105.230899, -5.55081], [105.230858, -5.550739], [105.230817, -5.550667], [105.230775, -5.550599], [105.230733, -5.550532], [105.230672, -5.550452], [105.230591, -5.550349]]}}, {"type": "Feature", "properties": {"No": 16, "Nama": "Kebun Campuran", "jarak_m": 2157, "kelas": "Rendah"}, "geometry": {"type": "LineString", "coordinates": [[105.2275, -5.549814], [105.242054, -5.553109], [105.24204, -5.553078], [105.24199, -5.552993], [105.241959, -5.55294], [105.241903, -5.552856], [105.241858, -5.552791], [105.241825, -5.552751], [105.241723, -5.552778], [105.241641, -5.552852], [105.241556, -5.552921], [105.241467, -5.552986], [105.241374, -5.553046], [105.241278, -5.5531], [105.241162, -5.553155], [105.241043, -5.553205], [105.24096, -5.553238], [105.240879, -5.553278], [105.240802, -5.553323], [105.240728, -5.553375], [105.240659, -5.553431], [105.240593, -5.553493], [105.240526, -5.553572], [105.240459, -5.553651], [105.2404, -5.553722], [105.240342, -5.553793], [105.240283, -5.553864], [105.240211, -5.553957], [105.240119, -5.553938], [105.240065, -5.553871], [105.240012, -5.553805], [105.239959, -5.553739], [105.239942, -5.553714], [105.239878, -5.553659], [105.239814, -5.553604], [105.239751, -5.55355], [105.239687, -5.553495], [105.239605, -5.55346], [105.239523, -5.553426], [105.239452, -5.553398], [105.239381, -5.553371], [105.239368, -5.553354], [105.239356, -5.553333], [105.239267, -5.553298], [105.239187, -5.553276], [105.239117, -5.553274], [105.239047, -5.553273], [105.238944, -5.553271], [105.238842, -5.553269], [105.238753, -5.553271], [105.238664, -5.553274], [105.238575, -5.553276], [105.238486, -5.553279], [105.238396, -5.553281], [105.238307, -5.553284], [105.238218, -5.553286], [105.238129, -5.553289], [105.238, -5.553298], [105.23793, -5.553312], [105.23786, -5.553326], [105.237782, -5.553343], [105.237704, -5.55336], [105.237626, -5.553378], [105.237548, -5.553395], [105.237476, -5.553411], [105.237403, -5.553428], [105.237321, -5.553448], [105.237238, -5.553468], [105.23715, -5.553489], [105.237063, -5.55351], [105.236975, -5.553531], [105.2369, -5.553555], [105.236824, -5.55358], [105.236714, -5.553603], [105.236604, -5.553627], [105.236516, -5.553652], [105.236427, -5.553676], [105.236339, -5.553701], [105.236262, -5.553726], [105.236187, -5.553659], [105.236144, -5.553577], [105.236108, -5.553506], [105.236072, -5.553434], [105.236036, -5.553363], [105.236, -5.553292], [105.235948, -5.55318], [105.235908, -5.553104], [105.235869, -5.553029], [105.235816, -5.552934], [105.235773, -5.552872], [105.235731, -5.55281], [105.235679, -5.552738], [105.235605, -5.552629], [105.235554, -5.552563], [105.235496, -5.552489], [105.235436, -5.552405], [105.235368, -5.55231], [105.235312, -5.552233], [105.235271, -5.552177], [105.235207, -5.552099], [105.235127, -5.55201], [105.235078, -5.551953], [105.235016, -5.551873], [105.23497, -5.551806], [105.234925, -5.55174], [105.234874, -5.551663], [105.234826, -5.551595], [105.234778, -5.551527], [105.234695, -5.551431], [105.234633, -5.551367], [105.234541, -5.55138], [105.234477, -5.551396], [105.234391, -5.551415], [105.234319, -5.55143], [105.234246, -5.551445], [105.234142, -5.55147], [105.234049, -5.551492], [105.233957, -5.551509], [105.233878, -5.551529], [105.233791, -5.55155], [105.233706, -5.551577], [105.233623, -5.551611], [105.233541, -5.551649], [105.233459, -5.551688], [105.233367, -5.551732], [105.233258, -5.551786], [105.23319, -5.551814], [105.233121, -5.551843], [105.233051, -5.551872], [105.232977, -5.551907], [105.2329, -5.551941], [105.232815, -5.551975], [105.23273, -5.552009], [105.232649, -5.55205], [105.232567, -5.552092], [105.232502, -5.552133], [105.232436, -5.552175], [105.232349, -5.552234], [105.232262, -5.552293], [105.232176, -5.552352], [105.232079, -5.552408], [105.231981, -5.552464], [105.231932, -5.552473], [105.231888, -5.552403], [105.231835, -5.55232], [105.231782, -5.552237], [105.23173, -5.552155], [105.231677, -5.552072], [105.231631, -5.552002], [105.231584, -5.551933], [105.231538, -5.551863], [105.231491, -5.551794], [105.231445, -5.551724], [105.231394, -5.551641], [105.231343, -5.551559], [105.231302, -5.551485], [105.231261, -5.551411], [105.231228, -5.551349], [105.231195, -5.551287], [105.231138, -5.551191], [105.231086, -5.551112], [105.231034, -5.551033], [105.230982, -5.550954], [105.230941, -5.550882], [105.230899, -5.55081], [105.230858, -5.550739], [105.230817, -5.550667], [105.230775, -5.550599], [105.230733, -5.550532], [105.230672, -5.550452], [105.230591, -5.550349], [105.230537, -5.550282], [105.230483, -5.550216], [105.230422, -5.550148], [105.230362, -5.55008], [105.230291, -5.550005], [105.230225, -5.549926], [105.230164, -5.549843], [105.230156, -5.54983], [105.230109, -5.549756], [105.230062, -5.549661], [105.230015, -5.549567], [105.229963, -5.54947], [105.229935, -5.549412], [105.229905, -5.549349], [105.229869, -5.549282], [105.229834, -5.549216], [105.229798, -5.549149], [105.229754, -5.549066], [105.229709, -5.548984], [105.229665, -5.548901], [105.229616, -5.548815], [105.229567, -5.54873], [105.229532, -5.548667]]}}, {"type": "Feature", "properties": {"No": 17, "Nama": "Kebun Campuran", "jarak_m": 2204, "kelas": "Rendah"}, "geometry": {"type": "LineString", "coordinates": [[105.2273, -5.548924], [105.242054, -5.553109], [105.24204, -5.553078], [105.24199, -5.552993], [105.241959, -5.55294], [105.241903, -5.552856], [105.241858, -5.552791], [105.241825, -5.552751], [105.241723, -5.552778], [105.241641, -5.552852], [105.241556, -5.552921], [105.241467, -5.552986], [105.241374, -5.553046], [105.241278, -5.5531], [105.241162, -5.553155], [105.241043, -5.553205], [105.24096, -5.553238], [105.240879, -5.553278], [105.240802, -5.553323], [105.240728, -5.553375], [105.240659, -5.553431], [105.240593, -5.553493], [105.240526, -5.553572], [105.240459, -5.553651], [105.2404, -5.553722], [105.240342, -5.553793], [105.240283, -5.553864], [105.240211, -5.553957], [105.240119, -5.553938], [105.240065, -5.553871], [105.240012, -5.553805], [105.239959, -5.553739], [105.239942, -5.553714], [105.239878, -5.553659], [105.239814, -5.553604], [105.239751, -5.55355], [105.239687, -5.553495], [105.239605, -5.55346], [105.239523, -5.553426], [105.239452, -5.553398], [105.239381, -5.553371], [105.239368, -5.553354], [105.239356, -5.553333], [105.239267, -5.553298], [105.239187, -5.553276], [105.239117, -5.553274], [105.239047, -5.553273], [105.238944, -5.553271], [105.238842, -5.553269], [105.238753, -5.553271], [105.238664, -5.553274], [105.238575, -5.553276], [105.238486, -5.553279], [105.238396, -5.553281], [105.238307, -5.553284], [105.238218, -5.553286], [105.238129, -5.553289], [105.238, -5.553298], [105.23793, -5.553312], [105.23786, -5.553326], [105.237782, -5.553343], [105.237704, -5.55336], [105.237626, -5.553378], [105.237548, -5.553395], [105.237476, -5.553411], [105.237403, -5.553428], [105.237321, -5.553448], [105.237238, -5.553468], [105.23715, -5.553489], [105.237063, -5.55351], [105.236975, -5.553531], [105.2369, -5.553555], [105.236824, -5.55358], [105.236714, -5.553603], [105.236604, -5.553627], [105.236516, -5.553652], [105.236427, -5.553676], [105.236339, -5.553701], [105.236262, -5.553726], [105.236187, -5.553659], [105.236144, -5.553577], [105.236108, -5.553506], [105.236072, -5.553434], [105.236036, -5.553363], [105.236, -5.553292], [105.235948, -5.55318], [105.235908, -5.553104], [105.235869, -5.553029], [105.235816, -5.552934], [105.235773, -5.552872], [105.235731, -5.55281], [105.235679, -5.552738], [105.235605, -5.552629], [105.235554, -5.552563], [105.235496, -5.552489], [105.235436, -5.552405], [105.235368, -5.55231], [105.235312, -5.552233], [105.235271, -5.552177], [105.235207, -5.552099], [105.235127, -5.55201], [105.235078, -5.551953], [105.235016, -5.551873], [105.23497, -5.551806], [105.234925, -5.55174], [105.234874, -5.551663], [105.234826, -5.551595], [105.234778, -5.551527], [105.234695, -5.551431], [105.234633, -5.551367], [105.234541, -5.55138], [105.234477, -5.551396], [105.234391, -5.551415], [105.234319, -5.55143], [105.234246, -5.551445], [105.234142, -5.55147], [105.234049, -5.551492], [105.233957, -5.551509], [105.233878, -5.551529], [105.233791, -5.55155], [105.233706, -5.551577], [105.233623, -5.551611], [105.233541, -5.551649], [105.233459, -5.551688], [105.233367, -5.551732], [105.233258, -5.551786], [105.23319, -5.551814], [105.233121, -5.551843], [105.233051, -5.551872], [105.232977, -5.551907], [105.2329, -5.551941], [105.232815, -5.551975], [105.23273, -5.552009], [105.232649, -5.55205], [105.232567, -5.552092], [105.232502, -5.552133], [105.232436, -5.552175], [105.232349, -5.552234], [105.232262, -5.552293], [105.232176, -5.552352], [105.232079, -5.552408], [105.231981, -5.552464], [105.231932, -5.552473], [105.231888, -5.552403], [105.231835, -5.55232], [105.231782, -5.552237], [105.23173, -5.552155], [105.231677, -5.552072], [105.231631, -5.552002], [105.231584, -5.551933], [105.231538, -5.551863], [105.231491, -5.551794], [105.231445, -5.551724], [105.231394, -5.551641], [105.231343, -5.551559], [105.231302, -5.551485], [105.231261, -5.551411], [105.231228, -5.551349], [105.231195, -5.551287], [105.231138, -5.551191], [105.231086, -5.551112], [105.231034, -5.551033], [105.230982, -5.550954], [105.230941, -5.550882], [105.230899, -5.55081], [105.230858, -5.550739], [105.230817, -5.550667], [105.230775, -5.550599], [105.230733, -5.550532], [105.230672, -5.550452], [105.230591, -5.550349], [105.230537, -5.550282], [105.230483, -5.550216], [105.230422, -5.550148], [105.230362, -5.55008], [105.230291, -5.550005], [105.230225, -5.549926], [105.230164, -5.549843], [105.230156, -5.54983], [105.230109, -5.549756], [105.230062, -5.549661], [105.230015, -5.549567], [105.229963, -5.54947], [105.229935, -5.549412], [105.229905, -5.549349], [105.229869, -5.549282], [105.229834, -5.549216], [105.229798, -5.549149], [105.229754, -5.549066], [105.229709, -5.548984], [105.229665, -5.548901], [105.229616, -5.548815], [105.229567, -5.54873], [105.229532, -5.548667], [105.229498, -5.548604], [105.229463, -5.548532], [105.229428, -5.548461], [105.229393, -5.548381], [105.229358, -5.5483], [105.229323, -5.54822], [105.229273, -5.548102]]}}, {"type": "Feature", "properties": {"No": 18, "Nama": "Kebun Campuran", "jarak_m": 1071, "kelas": "Sedang"}, "geometry": {"type": "LineString", "coordinates": [[105.234743, -5.551383], [105.242054, -5.553109], [105.24204, -5.553078], [105.24199, -5.552993], [105.241959, -5.55294], [105.241903, -5.552856], [105.241858, -5.552791], [105.241825, -5.552751], [105.241723, -5.552778], [105.241641, -5.552852], [105.241556, -5.552921], [105.241467, -5.552986], [105.241374, -5.553046], [105.241278, -5.5531], [105.241162, -5.553155], [105.241043, -5.553205], [105.24096, -5.553238], [105.240879, -5.553278], [105.240802, -5.553323], [105.240728, -5.553375], [105.240659, -5.553431], [105.240593, -5.553493], [105.240526, -5.553572], [105.240459, -5.553651], [105.2404, -5.553722], [105.240342, -5.553793], [105.240283, -5.553864], [105.240211, -5.553957], [105.240119, -5.553938], [105.240065, -5.553871], [105.240012, -5.553805], [105.239959, -5.553739], [105.239942, -5.553714], [105.239878, -5.553659], [105.239814, -5.553604], [105.239751, -5.55355], [105.239687, -5.553495], [105.239605, -5.55346], [105.239523, -5.553426], [105.239452, -5.553398], [105.239381, -5.553371], [105.239368, -5.553354], [105.239356, -5.553333], [105.239267, -5.553298], [105.239187, -5.553276], [105.239117, -5.553274], [105.239047, -5.553273], [105.238944, -5.553271], [105.238842, -5.553269], [105.238753, -5.553271], [105.238664, -5.553274], [105.238575, -5.553276], [105.238486, -5.553279], [105.238396, -5.553281], [105.238307, -5.553284], [105.238218, -5.553286], [105.238129, -5.553289], [105.238, -5.553298], [105.23793, -5.553312], [105.23786, -5.553326], [105.237782, -5.553343], [105.237704, -5.55336], [105.237626, -5.553378], [105.237548, -5.553395], [105.237476, -5.553411], [105.237403, -5.553428], [105.237321, -5.553448], [105.237238, -5.553468], [105.23715, -5.553489], [105.237063, -5.55351], [105.236975, -5.553531], [105.2369, -5.553555], [105.236824, -5.55358], [105.236714, -5.553603], [105.236604, -5.553627], [105.236516, -5.553652], [105.236427, -5.553676], [105.236339, -5.553701], [105.236262, -5.553726], [105.236187, -5.553659], [105.236144, -5.553577], [105.236108, -5.553506], [105.236072, -5.553434], [105.236036, -5.553363], [105.236, -5.553292], [105.235948, -5.55318], [105.235908, -5.553104], [105.235869, -5.553029], [105.235816, -5.552934], [105.235773, -5.552872], [105.235731, -5.55281], [105.235679, -5.552738], [105.235605, -5.552629], [105.235554, -5.552563], [105.235496, -5.552489], [105.235436, -5.552405], [105.235368, -5.55231], [105.235312, -5.552233], [105.235271, -5.552177], [105.235207, -5.552099], [105.235127, -5.55201], [105.235078, -5.551953], [105.235016, -5.551873], [105.23497, -5.551806], [105.234925, -5.55174], [105.234874, -5.551663], [105.234826, -5.551595], [105.234778, -5.551527], [105.234695, -5.551431]]}}, {"type": "Feature", "properties": {"No": 19, "Nama": "Kebun Campuran", "jarak_m": 142, "kelas": "Tinggi"}, "geometry": {"type": "LineString", "coordinates": [[105.241731, -5.55214], [105.242054, -5.553109], [105.24204, -5.553078], [105.24199, -5.552993], [105.241959, -5.55294], [105.241903, -5.552856], [105.241858, -5.552791], [105.241804, -5.55271], [105.241889, -5.552646], [105.241977, -5.552587]]}}, {"type": "Feature", "properties": {"No": 20, "Nama": "Kebun Campuran", "jarak_m": 332, "kelas": "Tinggi"}, "geometry": {"type": "LineString", "coordinates": [[105.245217, -5.548749], [105.243648, -5.546938], [105.243715, -5.54699], [105.243764, -5.547039], [105.243814, -5.547088], [105.243899, -5.547182], [105.243958, -5.547258], [105.244017, -5.547335], [105.244093, -5.547438], [105.24414, -5.547518], [105.244188, -5.547599], [105.244217, -5.547653], [105.244244, -5.547706], [105.244269, -5.547759], [105.244293, -5.547823], [105.244313, -5.547888], [105.244327, -5.547955], [105.244337, -5.548023], [105.244342, -5.548129], [105.244351, -5.548234], [105.244364, -5.548339], [105.244399, -5.548443], [105.244434, -5.548547], [105.244459, -5.548624], [105.244485, -5.5487], [105.244566, -5.548701], [105.244637, -5.548674], [105.244709, -5.548648], [105.244801, -5.548612], [105.244894, -5.548577], [105.244986, -5.548541], [105.245063, -5.548505]]}}, {"type": "Feature", "properties": {"No": 21, "Nama": "Kebun Campuran", "jarak_m": 446, "kelas": "Tinggi"}, "geometry": {"type": "LineString", "coordinates": [[105.244042, -5.550546], [105.242054, -5.553109], [105.24204, -5.553078], [105.24199, -5.552993], [105.241959, -5.55294], [105.241903, -5.552856], [105.241858, -5.552791], [105.241804, -5.55271], [105.241889, -5.552646], [105.241977, -5.552587], [105.242068, -5.552532], [105.242162, -5.552483], [105.242258, -5.552427], [105.242353, -5.552371], [105.242446, -5.552314], [105.242538, -5.552258], [105.242628, -5.552202], [105.242718, -5.552146], [105.24279, -5.552095], [105.242861, -5.552044], [105.242933, -5.551992], [105.243004, -5.551941], [105.243067, -5.551894], [105.243129, -5.551847], [105.243209, -5.551774], [105.243288, -5.551702], [105.24335, -5.551639], [105.243411, -5.551575], [105.243473, -5.551512], [105.243535, -5.551448], [105.243597, -5.551384], [105.243658, -5.55132], [105.24372, -5.551256], [105.243792, -5.551187], [105.243863, -5.551119], [105.243935, -5.55105], [105.244006, -5.550982], [105.244065, -5.550919], [105.244121, -5.550852], [105.244172, -5.550782], [105.24422, -5.55071], [105.244254, -5.550637]]}}, {"type": "Feature", "properties": {"No": 22, "Nama": "Kebun Campuran", "jarak_m": 288, "kelas": "Tinggi"}, "geometry": {"type": "LineString", "coordinates": [[105.242169, -5.551347], [105.242054, -5.553109], [105.24204, -5.553078], [105.24199, -5.552993], [105.241959, -5.55294], [105.241903, -5.552856], [105.241858, -5.552791], [105.241804, -5.55271], [105.241889, -5.552646], [105.241977, -5.552587], [105.242068, -5.552532], [105.242162, -5.552483], [105.242258, -5.552427], [105.242353, -5.552371], [105.242446, -5.552314], [105.242538, -5.552258], [105.242628, -5.552202], [105.242718, -5.552146]]}}, {"type": "Feature", "properties": {"No": 23, "Nama": "Kebun Campuran", "jarak_m": 880, "kelas": "Sedang"}, "geometry": {"type": "LineString", "coordinates": [[105.247029, -5.555584], [105.242054, -5.553109], [105.24204, -5.553078], [105.24199, -5.552993], [105.241959, -5.55294], [105.241903, -5.552856], [105.241858, -5.552791], [105.241804, -5.55271], [105.241889, -5.552646], [105.241977, -5.552587], [105.242068, -5.552532], [105.242162, -5.552483], [105.242258, -5.552427], [105.242353, -5.552371], [105.242446, -5.552314], [105.242538, -5.552258], [105.242628, -5.552202], [105.242718, -5.552146], [105.24279, -5.552095], [105.242861, -5.552044], [105.242956, -5.552069], [105.242999, -5.552106], [105.243066, -5.552138], [105.243145, -5.552177], [105.243198, -5.552199], [105.243281, -5.552231], [105.243333, -5.552271], [105.243415, -5.552342], [105.243497, -5.552413], [105.243559, -5.552464], [105.243653, -5.552546], [105.243749, -5.552629], [105.243803, -5.552673], [105.243857, -5.552717], [105.243941, -5.552782], [105.244016, -5.552878], [105.244074, -5.552943], [105.244132, -5.553009], [105.244178, -5.553065], [105.244224, -5.553122], [105.24428, -5.553211], [105.244339, -5.553292], [105.24438, -5.553319], [105.244454, -5.553361], [105.244523, -5.553401], [105.244573, -5.553431], [105.244634, -5.553481], [105.24469, -5.553532], [105.244759, -5.553588], [105.244844, -5.553641], [105.244923, -5.553702], [105.24501, -5.553775], [105.245111, -5.553862], [105.245163, -5.553909], [105.245215, -5.553957], [105.245278, -5.554007], [105.245346, -5.554067], [105.245404, -5.554119], [105.245463, -5.554157], [105.245513, -5.554198], [105.245569, -5.554246], [105.245633, -5.554327], [105.245666, -5.554396], [105.245679, -5.554472], [105.245684, -5.554558], [105.245697, -5.554681], [105.245711, -5.554783], [105.245729, -5.55489], [105.245755, -5.554951], [105.245808, -5.555059], [105.245842, -5.555119], [105.245905, -5.555213], [105.245972, -5.555287], [105.246034, -5.555335], [105.246072, -5.555364], [105.246137, -5.555413], [105.246177, -5.555443], [105.246222, -5.555488], [105.246263, -5.555526], [105.246311, -5.555572], [105.246376, -5.555652], [105.246436, -5.555727], [105.246455, -5.555748], [105.246509, -5.55581], [105.246561, -5.555885], [105.246612, -5.555935]]}}, {"type": "Feature", "properties": {"No": 24, "Nama": "Kebun Campuran", "jarak_m": 1757, "kelas": "Rendah"}, "geometry": {"type": "LineString", "coordinates": [[105.231052, -5.547579], [105.242054, -5.553109], [105.24204, -5.553078], [105.24199, -5.552993], [105.241959, -5.55294], [105.241903, -5.552856], [105.241858, -5.552791], [105.241825, -5.552751], [105.241723, -5.552778], [105.241641, -5.552852], [105.241556, -5.552921], [105.241467, -5.552986], [105.241374, -5.553046], [105.241278, -5.5531], [105.241162, -5.553155], [105.241043, -5.553205], [105.24096, -5.553238], [105.240879, -5.553278], [105.240802, -5.553323], [105.240728, -5.553375], [105.240659, -5.553431], [105.240593, -5.553493], [105.240526, -5.553572], [105.240459, -5.553651], [105.2404, -5.553722], [105.240342, -5.553793], [105.240283, -5.553864], [105.240211, -5.553957], [105.240119, -5.553938], [105.240065, -5.553871], [105.240012, -5.553805], [105.239959, -5.553739], [105.239942, -5.553714], [105.239878, -5.553659], [105.239814, -5.553604], [105.239751, -5.55355], [105.239687, -5.553495], [105.239605, -5.55346], [105.239523, -5.553426], [105.239452, -5.553398], [105.239381, -5.553371], [105.239368, -5.553354], [105.239356, -5.553333], [105.239267, -5.553298], [105.239187, -5.553276], [105.239117, -5.553274], [105.239047, -5.553273], [105.238944, -5.553271], [105.238842, -5.553269], [105.238753, -5.553271], [105.238664, -5.553274], [105.238575, -5.553276], [105.238486, -5.553279], [105.238396, -5.553281], [105.238307, -5.553284], [105.238218, -5.553286], [105.238129, -5.553289], [105.238, -5.553298], [105.23793, -5.553312], [105.23786, -5.553326], [105.237782, -5.553343], [105.237704, -5.55336], [105.237626, -5.553378], [105.237548, -5.553395], [105.237476, -5.553411], [105.237403, -5.553428], [105.237321, -5.553448], [105.237238, -5.553468], [105.23715, -5.553489], [105.237063, -5.55351], [105.236975, -5.553531], [105.2369, -5.553555], [105.236824, -5.55358], [105.236714, -5.553603], [105.236604, -5.553627], [105.236516, -5.553652], [105.236427, -5.553676], [105.236339, -5.553701], [105.236262, -5.553726], [105.236187, -5.553659], [105.236144, -5.553577], [105.236108, -5.553506], [105.236072, -5.553434], [105.236036, -5.553363], [105.236, -5.553292], [105.235948, -5.55318], [105.235908, -5.553104], [105.235869, -5.553029], [105.235816, -5.552934], [105.235773, -5.552872], [105.235731, -5.55281], [105.235679, -5.552738], [105.235605, -5.552629], [105.235554, -5.552563], [105.235496, -5.552489], [105.235436, -5.552405], [105.235368, -5.55231], [105.235312, -5.552233], [105.235271, -5.552177], [105.235207, -5.552099], [105.235127, -5.55201], [105.235078, -5.551953], [105.235016, -5.551873], [105.23497, -5.551806], [105.234925, -5.55174], [105.234874, -5.551663], [105.234826, -5.551595], [105.234778, -5.551527], [105.234695, -5.551431], [105.234633, -5.551367], [105.234572, -5.551303], [105.234503, -5.551254], [105.234424, -5.551224], [105.23434, -5.551215], [105.234237, -5.551217], [105.234177, -5.551211], [105.234117, -5.551199], [105.234066, -5.551185], [105.233983, -5.551157], [105.233901, -5.55113], [105.23381, -5.551099], [105.23372, -5.551068], [105.233645, -5.551038], [105.233571, -5.551009], [105.2335, -5.550979], [105.233452, -5.550951], [105.233375, -5.550896], [105.23331, -5.550828], [105.233238, -5.550748], [105.233151, -5.550685], [105.233082, -5.550641], [105.233013, -5.550597], [105.232936, -5.550546], [105.232859, -5.550496], [105.232761, -5.550432], [105.23266, -5.550373], [105.23258, -5.550332], [105.232501, -5.550291], [105.232427, -5.550254], [105.232354, -5.550218], [105.232275, -5.550181], [105.232194, -5.550149], [105.232112, -5.550116], [105.232031, -5.550079], [105.231975, -5.550045], [105.23192, -5.550009], [105.231863, -5.549964], [105.231806, -5.549919], [105.231724, -5.549853], [105.231643, -5.549786], [105.231561, -5.54972], [105.231487, -5.549669], [105.231428, -5.54962], [105.231388, -5.549577], [105.231351, -5.549532], [105.231317, -5.549484], [105.231248, -5.549376], [105.231221, -5.549328], [105.231197, -5.549277], [105.231178, -5.549225], [105.23115, -5.54912], [105.231131, -5.54905], [105.231113, -5.54898], [105.231098, -5.548919], [105.231089, -5.548858], [105.231087, -5.548796], [105.231083, -5.548704], [105.231075, -5.548632], [105.231062, -5.548568], [105.231039, -5.548471], [105.231004, -5.548389], [105.230952, -5.548317], [105.230887, -5.548255], [105.230852, -5.548222], [105.230789, -5.54815], [105.23074, -5.548072], [105.230692, -5.547994], [105.230643, -5.547916]]}}, {"type": "Feature", "properties": {"No": 25, "Nama": "Kebun Campuran", "jarak_m": 2375, "kelas": "Rendah"}, "geometry": {"type": "LineString", "coordinates": [[105.226871, -5.546059], [105.242054, -5.553109], [105.24204, -5.553078], [105.24199, -5.552993], [105.241959, -5.55294], [105.241903, -5.552856], [105.241858, -5.552791], [105.241825, -5.552751], [105.241723, -5.552778], [105.241641, -5.552852], [105.241556, -5.552921], [105.241467, -5.552986], [105.241374, -5.553046], [105.241278, -5.5531], [105.241162, -5.553155], [105.241043, -5.553205], [105.24096, -5.553238], [105.240879, -5.553278], [105.240802, -5.553323], [105.240728, -5.553375], [105.240659, -5.553431], [105.240593, -5.553493], [105.240526, -5.553572], [105.240459, -5.553651], [105.2404, -5.553722], [105.240342, -5.553793], [105.240283, -5.553864], [105.240211, -5.553957], [105.240119, -5.553938], [105.240065, -5.553871], [105.240012, -5.553805], [105.239959, -5.553739], [105.239942, -5.553714], [105.239878, -5.553659], [105.239814, -5.553604], [105.239751, -5.55355], [105.239687, -5.553495], [105.239605, -5.55346], [105.239523, -5.553426], [105.239452, -5.553398], [105.239381, -5.553371], [105.239368, -5.553354], [105.239356, -5.553333], [105.239267, -5.553298], [105.239187, -5.553276], [105.239117, -5.553274], [105.239047, -5.553273], [105.238944, -5.553271], [105.238842, -5.553269], [105.238753, -5.553271], [105.238664, -5.553274], [105.238575, -5.553276], [105.238486, -5.553279], [105.238396, -5.553281], [105.238307, -5.553284], [105.238218, -5.553286], [105.238129, -5.553289], [105.238, -5.553298], [105.23793, -5.553312], [105.23786, -5.553326], [105.237782, -5.553343], [105.237704, -5.55336], [105.237626, -5.553378], [105.237548, -5.553395], [105.237476, -5.553411], [105.237403, -5.553428], [105.237321, -5.553448], [105.237238, -5.553468], [105.23715, -5.553489], [105.237063, -5.55351], [105.236975, -5.553531], [105.2369, -5.553555], [105.236824, -5.55358], [105.236714, -5.553603], [105.236604, -5.553627], [105.236516, -5.553652], [105.236427, -5.553676], [105.236339, -5.553701], [105.236262, -5.553726], [105.236187, -5.553659], [105.236144, -5.553577], [105.236108, -5.553506], [105.236072, -5.553434], [105.236036, -5.553363], [105.236, -5.553292], [105.235948, -5.55318], [105.235908, -5.553104], [105.235869, -5.553029], [105.235816, -5.552934], [105.235773, -5.552872], [105.235731, -5.55281], [105.235679, -5.552738], [105.235605, -5.552629], [105.235554, -5.552563], [105.235496, -5.552489], [105.235436, -5.552405], [105.235368, -5.55231], [105.235312, -5.552233], [105.235271, -5.552177], [105.235207, -5.552099], [105.235127, -5.55201], [105.235078, -5.551953], [105.235016, -5.551873], [105.23497, -5.551806], [105.234925, -5.55174], [105.234874, -5.551663], [105.234826, -5.551595], [105.234778, -5.551527], [105.234695, -5.551431], [105.234633, -5.551367], [105.234572, -5.551303], [105.234503, -5.551254], [105.234424, -5.551224], [105.23434, -5.551215], [105.234237, -5.551217], [105.234177, -5.551211], [105.234117, -5.551199], [105.234066, -5.551185], [105.233983, -5.551157], [105.233901, -5.55113], [105.23381, -5.551099], [105.23372, -5.551068], [105.233645, -5.551038], [105.233571, -5.551009], [105.2335, -5.550979], [105.233452, -5.550951], [105.233375, -5.550896], [105.23331, -5.550828], [105.233238, -5.550748], [105.233151, -5.550685], [105.233082, -5.550641], [105.233013, -5.550597], [105.232936, -5.550546], [105.232859, -5.550496], [105.232761, -5.550432], [105.23266, -5.550373], [105.23258, -5.550332], [105.232501, -5.550291], [105.232427, -5.550254], [105.232354, -5.550218], [105.232275, -5.550181], [105.232194, -5.550149], [105.232112, -5.550116], [105.232031, -5.550079], [105.231975, -5.550045], [105.23192, -5.550009], [105.231863, -5.549964], [105.231806, -5.549919], [105.231724, -5.549853], [105.231643, -5.549786], [105.231561, -5.54972], [105.231487, -5.549669], [105.231428, -5.54962], [105.231388, -5.549577], [105.231351, -5.549532], [105.231317, -5.549484], [105.231248, -5.549376], [105.231221, -5.549328], [105.231197, -5.549277], [105.231178, -5.549225], [105.23115, -5.54912], [105.231131, -5.54905], [105.231113, -5.54898], [105.231098, -5.548919], [105.231089, -5.548858], [105.231087, -5.548796], [105.231083, -5.548704], [105.231075, -5.548632], [105.231062, -5.548568], [105.231039, -5.548471], [105.231004, -5.548389], [105.230952, -5.548317], [105.230887, -5.548255], [105.230852, -5.548222], [105.230789, -5.54815], [105.23074, -5.548072], [105.230692, -5.547994], [105.230643, -5.547916], [105.230593, -5.547844], [105.230539, -5.547775], [105.230481, -5.54771], [105.230419, -5.547648], [105.230343, -5.547601], [105.230268, -5.547563], [105.230192, -5.547524], [105.230117, -5.547486], [105.230042, -5.547448], [105.229945, -5.5474], [105.229849, -5.547353], [105.229756, -5.547313], [105.229663, -5.547274], [105.229566, -5.547228], [105.229471, -5.547177], [105.229417, -5.54714], [105.229367, -5.547098], [105.229321, -5.547052], [105.229273, -5.547001], [105.229225, -5.546951], [105.229165, -5.546889], [105.229124, -5.546846], [105.229064, -5.546772], [105.229023, -5.546717], [105.228951, -5.546635], [105.22888, -5.546553], [105.228828, -5.546494], [105.228777, -5.546435], [105.228723, -5.546382], [105.228664, -5.54631], [105.228615, -5.546246], [105.228565, -5.546182], [105.228516, -5.546118], [105.228422, -5.546025], [105.228324, -5.545935], [105.228247, -5.545876], [105.228167, -5.545823], [105.228091, -5.545762], [105.228018, -5.545697], [105.227949, -5.545629], [105.227894, -5.545571], [105.22784, -5.545513], [105.227787, -5.545458], [105.227734, -5.545402], [105.227681, -5.545347], [105.227602, -5.545277], [105.22752, -5.54521], [105.227457, -5.545166], [105.227391, -5.545129], [105.227321, -5.545097], [105.227256, -5.545071], [105.22719, -5.54505], [105.227122, -5.545034], [105.227001, -5.544997], [105.226986, -5.545047], [105.226966, -5.545137], [105.226946, -5.545228], [105.22696, -5.545328], [105.226996, -5.54545], [105.227027, -5.54553], [105.227058, -5.54561], [105.227088, -5.545662], [105.227105, -5.545765], [105.227106, -5.545818], [105.227092, -5.545922], [105.227063, -5.546009], [105.227027, -5.546137]]}}]}