{"type": "FeatureCollection", "features": [{"type": "Feature", "properties": {"No": 1, "Nama": "Kebun Pisang", "Komoditas": "Pisang", "Foto": "data/foto/kebun-01.jpg", "jarak_m": 122, "kelas": "Tinggi", "jarak_baru_m": 122, "kelas_baru": "Tinggi"}, "geometry": {"type": "Point", "coordinates": [105.244242, -5.547735]}}, {"type": "Feature", "properties": {"No": 2, "Nama": "Kebun Pisang", "Komoditas": "Pisang", "Foto": "data/foto/kebun-02.jpg", "jarak_m": 1995, "kelas": "Rendah", "jarak_baru_m": 245, "kelas_baru": "Tinggi"}, "geometry": {"type": "Point", "coordinates": [105.2283, -5.551014]}}, {"type": "Feature", "properties": {"No": 3, "Nama": "Kebun Pisang", "Komoditas": "Pisang", "Foto": "data/foto/kebun-03.jpg", "jarak_m": 2714, "kelas": "Rendah", "jarak_baru_m": 544, "kelas_baru": "Sedang"}, "geometry": {"type": "Point", "coordinates": [105.2266, -5.549319]}}, {"type": "Feature", "properties": {"No": 4, "Nama": "Kebun Pisang", "Komoditas": "Pisang", "Foto": "data/foto/kebun-04.jpg", "jarak_m": 128, "kelas": "Tinggi", "jarak_baru_m": 128, "kelas_baru": "Tinggi"}, "geometry": {"type": "Point", "coordinates": [105.243948, -5.546086]}}, {"type": "Feature", "properties": {"No": 5, "Nama": "Kebun Campuran", "Komoditas": "Pisang, Kelapa, Coklat", "Foto": "data/foto/kebun-05.jpg", "jarak_m": 372, "kelas": "Tinggi", "jarak_baru_m": 372, "kelas_baru": "Tinggi"}, "geometry": {"type": "Point", "coordinates": [105.243246, -5.552984]}}, {"type": "Feature", "properties": {"No": 6, "Nama": "Kebun Campuran", "Komoditas": "Pisang, Kelapa, Coklat", "Foto": "data/foto/kebun-06.jpg", "jarak_m": 401, "kelas": "Tinggi", "jarak_baru_m": 401, "kelas_baru": "Tinggi"}, "geometry": {"type": "Point", "coordinates": [105.2442, -5.549774]}}, {"type": "Feature", "properties": {"No": 7, "Nama": "Kebun Campuran", "Komoditas": "Coklat, Pisang, Kelapa", "Foto": "data/foto/kebun-07.jpg", "jarak_m": 2599, "kelas": "Rendah", "jarak_baru_m": 429, "kelas_baru": "Tinggi"}, "geometry": {"type": "Point", "coordinates": [105.225188, -5.543347]}}, {"type": "Feature", "properties": {"No": 8, "Nama": "Kebun Campuran", "Komoditas": "Duku, Pisang, Durian", "Foto": "data/foto/kebun-08.jpg", "jarak_m": 2216, "kelas": "Rendah", "jarak_baru_m": 45, "kelas_baru": "Tinggi"}, "geometry": {"type": "Point", "coordinates": [105.227712, -5.544847]}}, {"type": "Feature", "properties": {"No": 9, "Nama": "Kebun Campuran", "Komoditas": "Singkong, Pisang, Kelapa", "Foto": "data/foto/kebun-09.jpg", "jarak_m": 2111, "kelas": "Rendah", "jarak_baru_m": 155, "kelas_baru": "Tinggi"}, "geometry": {"type": "Point", "coordinates": [105.228444, -5.545488]}}, {"type": "Feature", "properties": {"No": 10, "Nama": "Kebun Campuran", "Komoditas": "Pisang, Kelapa", "Foto": "data/foto/kebun-10.jpg", "jarak_m": 2265, "kelas": "Rendah", "jarak_baru_m": 94, "kelas_baru": "Tinggi"}, "geometry": {"type": "Point", "coordinates": [105.226765, -5.545107]}}, {"type": "Feature", "properties": {"No": 11, "Nama": "Kebun Campuran", "Komoditas": "Kopi, Pisang, Kelapa", "Foto": "data/foto/kebun-11.jpg", "jarak_m": 2249, "kelas": "Rendah", "jarak_baru_m": 78, "kelas_baru": "Tinggi"}, "geometry": {"type": "Point", "coordinates": [105.226938, -5.544839]}}, {"type": "Feature", "properties": {"No": 12, "Nama": "Kebun Campuran", "Komoditas": "Pisang", "Foto": "data/foto/kebun-12.jpg", "jarak_m": 2791, "kelas": "Rendah", "jarak_baru_m": 621, "kelas_baru": "Sedang"}, "geometry": {"type": "Point", "coordinates": [105.222518, -5.544191]}}, {"type": "Feature", "properties": {"No": 13, "Nama": "Kebun Campuran", "Komoditas": "Pisang, Kelapa, Coklat", "Foto": "data/foto/kebun-13.jpg", "jarak_m": 2888, "kelas": "Rendah", "jarak_baru_m": 717, "kelas_baru": "Sedang"}, "geometry": {"type": "Point", "coordinates": [105.221571, -5.543263]}}, {"type": "Feature", "properties": {"No": 14, "Nama": "Kebun Campuran", "Komoditas": "Pisang, Kelapa", "Foto": "data/foto/kebun-14.jpg", "jarak_m": 1987, "kelas": "Rendah", "jarak_baru_m": 234, "kelas_baru": "Tinggi"}, "geometry": {"type": "Point", "coordinates": [105.2283, -5.550664]}}, {"type": "Feature", "properties": {"No": 15, "Nama": "Kebun Campuran", "Komoditas": "Pisang, Kelapa", "Foto": "data/foto/kebun-15.jpg", "jarak_m": 1988, "kelas": "Rendah", "jarak_baru_m": 385, "kelas_baru": "Tinggi"}, "geometry": {"type": "Point", "coordinates": [105.2284, -5.5521]}}, {"type": "Feature", "properties": {"No": 16, "Nama": "Kebun Campuran", "Komoditas": "Pisang, Kelapa, Coklat", "Foto": "data/foto/kebun-16.jpg", "jarak_m": 2157, "kelas": "Rendah", "jarak_baru_m": 404, "kelas_baru": "Tinggi"}, "geometry": {"type": "Point", "coordinates": [105.2275, -5.549814]}}, {"type": "Feature", "properties": {"No": 17, "Nama": "Kebun Campuran", "Komoditas": "Pisang, Lengkuas, Kelapa", "Foto": "data/foto/kebun-17.jpg", "jarak_m": 2204, "kelas": "Rendah", "jarak_baru_m": 451, "kelas_baru": "Tinggi"}, "geometry": {"type": "Point", "coordinates": [105.2273, -5.548924]}}, {"type": "Feature", "properties": {"No": 18, "Nama": "Kebun Campuran", "Komoditas": "Coklat, Kelapa, Pisang, Mangga", "Foto": "data/foto/kebun-18.jpg", "jarak_m": 1071, "kelas": "Sedang", "jarak_baru_m": 697, "kelas_baru": "Sedang"}, "geometry": {"type": "Point", "coordinates": [105.234743, -5.551383]}}, {"type": "Feature", "properties": {"No": 19, "Nama": "Kebun Campuran", "Komoditas": "Pisang, Kates, Singkong, Mangga", "Foto": "data/foto/kebun-19.jpg", "jarak_m": 142, "kelas": "Tinggi", "jarak_baru_m": 142, "kelas_baru": "Tinggi"}, "geometry": {"type": "Point", "coordinates": [105.241731, -5.55214]}}, {"type": "Feature", "properties": {"No": 20, "Nama": "Kebun Campuran", "Komoditas": "Pisang, Kelapa, Coklat", "Foto": "data/foto/kebun-20.jpg", "jarak_m": 332, "kelas": "Tinggi", "jarak_baru_m": 332, "kelas_baru": "Tinggi"}, "geometry": {"type": "Point", "coordinates": [105.245217, -5.548749]}}, {"type": "Feature", "properties": {"No": 21, "Nama": "Kebun Campuran", "Komoditas": "Pisang, Singkong, Rambutan", "Foto": "data/foto/kebun-21.jpg", "jarak_m": 446, "kelas": "Tinggi", "jarak_baru_m": 446, "kelas_baru": "Tinggi"}, "geometry": {"type": "Point", "coordinates": [105.244042, -5.550546]}}, {"type": "Feature", "properties": {"No": 22, "Nama": "Kebun Campuran", "Komoditas": "Pisang, Singkong", "Foto": "data/foto/kebun-22.jpg", "jarak_m": 288, "kelas": "Tinggi", "jarak_baru_m": 288, "kelas_baru": "Tinggi"}, "geometry": {"type": "Point", "coordinates": [105.242169, -5.551347]}}, {"type": "Feature", "properties": {"No": 23, "Nama": "Kebun Campuran", "Komoditas": "Pisang, Kelapa, Coklat", "Foto": "data/foto/kebun-23.jpg", "jarak_m": 880, "kelas": "Sedang", "jarak_baru_m": 880, "kelas_baru": "Sedang"}, "geometry": {"type": "Point", "coordinates": [105.247029, -5.555584]}}, {"type": "Feature", "properties": {"No": 24, "Nama": "Kebun Campuran", "Komoditas": "Pisang, Kelapa, Coklat", "Foto": "data/foto/kebun-24.jpg", "jarak_m": 1757, "kelas": "Rendah", "jarak_baru_m": 531, "kelas_baru": "Sedang"}, "geometry": {"type": "Point", "coordinates": [105.231052, -5.547579]}}, {"type": "Feature", "properties": {"No": 25, "Nama": "Kebun Campuran", "Komoditas": "Pisang, Kelapa, Coklat", "Foto": "data/foto/kebun-25.jpg", "jarak_m": 2375, "kelas": "Rendah", "jarak_baru_m": 204, "kelas_baru": "Tinggi"}, "geometry": {"type": "Point", "coordinates": [105.226871, -5.546059]}}]}