{"type": "FeatureCollection", "features": [{"type": "Feature", "properties": {"nama": "Sidodadi"}, "geometry": {"type": "Polygon", "coordinates": [[[105.22713, -5.54066], [105.22744, -5.54088], [105.22804, -5.54091], [105.22873, -5.54082], [105.2293, -5.54082], [105.22962, -5.54098], [105.22987, -5.54123], [105.23021, -5.5418], [105.23044, -5.54233], [105.23081, -5.54274], [105.23113, -5.54309], [105.23154, -5.54322], [105.23195, -5.54315], [105.23239, -5.54296], [105.23286, -5.54274], [105.23324, -5.54262], [105.23371, -5.54246], [105.23415, -5.54236], [105.2345, -5.54236], [105.23475, -5.54249], [105.23504, -5.54268], [105.23529, -5.54309], [105.23551, -5.54362], [105.23579, -5.54413], [105.23605, -5.54435], [105.23636, -5.54454], [105.23671, -5.54463], [105.23705, -5.54463], [105.23731, -5.54457], [105.23765, -5.54429], [105.23803, -5.54407], [105.23844, -5.54365], [105.2391, -5.5434], [105.23973, -5.54318], [105.24027, -5.5429], [105.24075, -5.54268], [105.24131, -5.54259], [105.24194, -5.54266], [105.24265, -5.54284], [105.24323, -5.5431], [105.24389, -5.54337], [105.24482, -5.54349], [105.24587, -5.54349], [105.24643, -5.54354], [105.24644, -5.54356], [105.24645, -5.54357], [105.24646, -5.5436], [105.24647, -5.54362], [105.24647, -5.54363], [105.24647, -5.54365], [105.24647, -5.54366], [105.24647, -5.54367], [105.24647, -5.54368], [105.24646, -5.54371], [105.24645, -5.54373], [105.24643, -5.54379], [105.24642, -5.54382], [105.24641, -5.54384], [105.24641, -5.54385], [105.24641, -5.54386], [105.24641, -5.54387], [105.24642, -5.54389], [105.24643, -5.54391], [105.24645, -5.54393], [105.24651, -5.544], [105.24653, -5.54404], [105.24655, -5.54407], [105.24658, -5.54413], [105.24669, -5.54441], [105.24672, -5.54447], [105.24673, -5.54449], [105.24673, -5.54452], [105.24675, -5.54461], [105.24676, -5.54463], [105.24676, -5.54466], [105.24677, -5.54467], [105.24678, -5.54469], [105.24681, -5.54474], [105.24682, -5.54477], [105.24683, -5.54479], [105.24687, -5.54488], [105.24694, -5.54507], [105.24695, -5.5451], [105.24696, -5.54512], [105.24697, -5.54513], [105.24698, -5.54514], [105.24698, -5.54514], [105.24699, -5.54515], [105.247, -5.54515], [105.24701, -5.54515], [105.24702, -5.54515], [105.24705, -5.54515], [105.24707, -5.54514], [105.24708, -5.54514], [105.24711, -5.54512], [105.24713, -5.54511], [105.24716, -5.54509], [105.24719, -5.54508], [105.24721, -5.54506], [105.24724, -5.54504], [105.24728, -5.54501], [105.2473, -5.54498], [105.24732, -5.54496], [105.24734, -5.54494], [105.24735, -5.54491], [105.2474, -5.54482], [105.24742, -5.54478], [105.24743, -5.54476], [105.24744, -5.54475], [105.24745, -5.54474], [105.24747, -5.54473], [105.2475, -5.5447], [105.24766, -5.54461], [105.24772, -5.54457], [105.24775, -5.54455], [105.2478, -5.5445], [105.24781, -5.54449], [105.24783, -5.54448], [105.24785, -5.54447], [105.24787, -5.54446], [105.24792, -5.54444], [105.24795, -5.54442], [105.24798, -5.54442], [105.24801, -5.54442], [105.24805, -5.54441], [105.24809, -5.54441], [105.24812, -5.54441], [105.24814, -5.54441], [105.24815, -5.54442], [105.24817, -5.54442], [105.24818, -5.54442], [105.24819, -5.54443], [105.24821, -5.54445], [105.24823, -5.54446], [105.24826, -5.54449], [105.2483, -5.54453], [105.24833, -5.54456], [105.24834, -5.54458], [105.24836, -5.5446], [105.24944, -5.54607], [105.24962, -5.54631], [105.24963, -5.54633], [105.24965, -5.54635], [105.24965, -5.54636], [105.24965, -5.54637], [105.24966, -5.54637], [105.24966, -5.54638], [105.24966, -5.5464], [105.24966, -5.54642], [105.24964, -5.54649], [105.24964, -5.54652], [105.24964, -5.54653], [105.24964, -5.54654], [105.24964, -5.54655], [105.24965, -5.54656], [105.24966, -5.54658], [105.24969, -5.54661], [105.24978, -5.54671], [105.24984, -5.54679], [105.24987, -5.54681], [105.24989, -5.54683], [105.2499, -5.54684], [105.24991, -5.54684], [105.24992, -5.54684], [105.24993, -5.54685], [105.24994, -5.54684], [105.24995, -5.54684], [105.24996, -5.54684], [105.24997, -5.54683], [105.24998, -5.54682], [105.25, -5.54681], [105.25003, -5.54677], [105.25005, -5.54675], [105.25006, -5.54675], [105.25007, -5.54674], [105.25008, -5.54674], [105.25011, -5.54673], [105.25013, -5.54673], [105.25017, -5.54673], [105.25027, -5.54675], [105.25031, -5.54676], [105.25034, -5.54676], [105.25037, -5.54676], [105.25038, -5.54676], [105.2504, -5.54676], [105.25041, -5.54676], [105.25043, -5.54675], [105.25045, -5.54674], [105.25047, -5.54672], [105.2505, -5.5467], [105.25053, -5.54668], [105.25054, -5.54667], [105.25058, -5.54663], [105.25058, -5.54663], [105.25059, -5.54662], [105.2506, -5.54662], [105.25061, -5.54662], [105.25062, -5.54662], [105.25064, -5.54662], [105.25066, -5.54662], [105.25068, -5.54663], [105.25071, -5.54664], [105.25073, -5.54665], [105.25074, -5.54665], [105.25075, -5.54666], [105.25076, -5.54667], [105.25077, -5.54669], [105.2508, -5.54672], [105.25093, -5.54692], [105.25103, -5.54706], [105.25107, -5.54711], [105.25109, -5.54713], [105.25112, -5.54716], [105.2512, -5.54724], [105.25125, -5.54729], [105.25129, -5.54732], [105.25132, -5.54735], [105.25141, -5.54741], [105.25144, -5.54743], [105.25147, -5.54745], [105.25151, -5.54747], [105.25156, -5.5475], [105.25182, -5.54764], [105.25183, -5.54765], [105.25188, -5.54767], [105.2519, -5.54768], [105.25193, -5.54769], [105.25195, -5.54769], [105.25203, -5.5477], [105.25205, -5.54771], [105.25207, -5.54771], [105.25208, -5.54772], [105.25209, -5.54772], [105.2521, -5.54773], [105.25213, -5.54776], [105.25215, -5.54778], [105.25217, -5.54779], [105.2522, -5.54781], [105.25245, -5.54793], [105.25249, -5.54794], [105.25251, -5.54795], [105.25252, -5.54796], [105.25253, -5.54796], [105.25254, -5.54796], [105.25255, -5.54796], [105.25256, -5.54795], [105.25257, -5.54795], [105.25258, -5.54794], [105.25258, -5.54793], [105.25259, -5.54793], [105.25259, -5.54792], [105.25259, -5.54791], [105.25259, -5.5479], [105.25259, -5.54789], [105.25258, -5.54788], [105.25254, -5.54782], [105.25254, -5.5478], [105.25253, -5.54778], [105.25252, -5.54775], [105.25251, -5.54771], [105.2525, -5.54768], [105.25249, -5.54765], [105.25248, -5.54758], [105.25243, -5.54711], [105.25242, -5.54708], [105.25242, -5.54705], [105.25243, -5.54703], [105.25243, -5.54702], [105.25244, -5.54699], [105.25245, -5.54696], [105.25253, -5.54682], [105.25256, -5.54676], [105.25258, -5.54672], [105.25259, -5.54669], [105.25261, -5.54665], [105.25262, -5.54662], [105.25262, -5.54661], [105.25277, -5.54618], [105.2528, -5.54611], [105.25283, -5.54603], [105.25303, -5.54563], [105.25306, -5.54556], [105.25309, -5.54549], [105.25319, -5.54523], [105.2532, -5.54521], [105.25322, -5.54517], [105.25323, -5.54514], [105.25324, -5.54512], [105.25326, -5.54509], [105.25333, -5.54501], [105.25334, -5.54498], [105.25335, -5.54496], [105.25336, -5.54495], [105.25336, -5.54494], [105.25336, -5.54493], [105.25336, -5.54489], [105.25336, -5.54487], [105.25336, -5.54485], [105.25337, -5.54481], [105.25337, -5.5448], [105.25337, -5.54478], [105.25337, -5.54477], [105.25337, -5.54477], [105.25337, -5.54476], [105.25335, -5.54472], [105.25335, -5.5447], [105.25335, -5.54469], [105.25335, -5.54468], [105.25335, -5.54467], [105.25335, -5.54466], [105.25335, -5.54465], [105.25336, -5.54464], [105.25336, -5.54463], [105.25337, -5.54462], [105.25341, -5.54461], [105.25348, -5.54457], [105.2535, -5.54456], [105.25352, -5.54455], [105.25353, -5.54455], [105.25356, -5.54455], [105.25357, -5.54455], [105.25358, -5.54454], [105.25359, -5.54454], [105.25361, -5.54453], [105.25363, -5.54451], [105.25373, -5.54444], [105.25376, -5.54442], [105.25378, -5.54441], [105.25379, -5.5444], [105.25386, -5.54438], [105.25388, -5.54437], [105.25391, -5.54435], [105.25398, -5.5443], [105.254, -5.54429], [105.25401, -5.54428], [105.25402, -5.54428], [105.25403, -5.54428], [105.25405, -5.54427], [105.25406, -5.54427], [105.25408, -5.54427], [105.25414, -5.54428], [105.25415, -5.54428], [105.25418, -5.54428], [105.25421, -5.54428], [105.25425, -5.54427], [105.25427, -5.54426], [105.25429, -5.54425], [105.25432, -5.54423], [105.25438, -5.54419], [105.2544, -5.54418], [105.2544, -5.54417], [105.25442, -5.54416], [105.25447, -5.54414], [105.25454, -5.54411], [105.25458, -5.5441], [105.2546, -5.5441], [105.25461, -5.5441], [105.25464, -5.5441], [105.25468, -5.5441], [105.25487, -5.54413], [105.25493, -5.54414], [105.25496, -5.54415], [105.255, -5.54416], [105.25504, -5.54418], [105.25516, -5.54422], [105.25519, -5.54424], [105.25523, -5.54425], [105.25526, -5.54425], [105.25528, -5.54426], [105.25532, -5.54426], [105.25559, -5.54426], [105.25564, -5.54426], [105.25566, -5.54427], [105.25569, -5.54427], [105.25573, -5.54428], [105.25595, -5.54436], [105.25599, -5.54438], [105.25602, -5.54438], [105.25604, -5.54438], [105.25608, -5.54438], [105.25633, -5.54434], [105.25639, -5.54433], [105.25642, -5.54433], [105.25644, -5.54433], [105.25654, -5.54434], [105.25656, -5.54434], [105.25659, -5.54434], [105.2566, -5.54434], [105.25661, -5.54434], [105.25663, -5.54433], [105.25664, -5.54433], [105.25664, -5.54433], [105.25668, -5.54431], [105.25669, -5.5443], [105.2567, -5.5443], [105.25671, -5.5443], [105.25672, -5.54431], [105.25673, -5.54431], [105.25674, -5.54432], [105.25675, -5.54433], [105.25676, -5.54434], [105.25681, -5.54439], [105.25681, -5.54439], [105.25681, -5.54439], [105.25682, -5.54439], [105.25686, -5.54441], [105.25687, -5.54441], [105.25689, -5.54441], [105.2569, -5.54441], [105.25691, -5.54441], [105.25694, -5.54439], [105.25694, -5.54438], [105.25695, -5.54438], [105.25696, -5.54438], [105.25697, -5.54438], [105.25697, -5.54439], [105.25699, -5.54441], [105.257, -5.54441], [105.25701, -5.54441], [105.25702, -5.54441], [105.25702, -5.54441], [105.25703, -5.54441], [105.25704, -5.54441], [105.25705, -5.5444], [105.25706, -5.5444], [105.25706, -5.54439], [105.25707, -5.54438], [105.25708, -5.54436], [105.25708, -5.54435], [105.25708, -5.54435], [105.25709, -5.54434], [105.25709, -5.54434], [105.2571, -5.54433], [105.2571, -5.54433], [105.25711, -5.54433], [105.25711, -5.54434], [105.25712, -5.54434], [105.25712, -5.54435], [105.25712, -5.54436], [105.25714, -5.54441], [105.25714, -5.54442], [105.25714, -5.54443], [105.25715, -5.54444], [105.25716, -5.54444], [105.25717, -5.54445], [105.25721, -5.54447], [105.25722, -5.54447], [105.25724, -5.54449], [105.25725, -5.5445], [105.25726, -5.5445], [105.25726, -5.5445], [105.25729, -5.5445], [105.25731, -5.54449], [105.25733, -5.54449], [105.25741, -5.54449], [105.25743, -5.54449], [105.25744, -5.54449], [105.25746, -5.54449], [105.25747, -5.54448], [105.25751, -5.54446], [105.25752, -5.54445], [105.25753, -5.54445], [105.25754, -5.54445], [105.25755, -5.54445], [105.25756, -5.54445], [105.25758, -5.54445], [105.25762, -5.54446], [105.25765, -5.54447], [105.25769, -5.54449], [105.2577, -5.54449], [105.25771, -5.54449], [105.25771, -5.54449], [105.25772, -5.54449], [105.25773, -5.54449], [105.25776, -5.54448], [105.25777, -5.54448], [105.25777, -5.54448], [105.25778, -5.54448], [105.25779, -5.54448], [105.25783, -5.54449], [105.25784, -5.54449], [105.25787, -5.5445], [105.25791, -5.5445], [105.25799, -5.5445], [105.25803, -5.54451], [105.25806, -5.54451], [105.2581, -5.54451], [105.25811, -5.54452], [105.25812, -5.54452], [105.25815, -5.54451], [105.25816, -5.54451], [105.25816, -5.54451], [105.25817, -5.54452], [105.25818, -5.54454], [105.25819, -5.54455], [105.2582, -5.54455], [105.2582, -5.54455], [105.25821, -5.54455], [105.25825, -5.54455], [105.25826, -5.54455], [105.25827, -5.54455], [105.25828, -5.54455], [105.25828, -5.54456], [105.25831, -5.54457], [105.25832, -5.54457], [105.25833, -5.54458], [105.25834, -5.54458], [105.25836, -5.54457], [105.25838, -5.54457], [105.25847, -5.54457], [105.25848, -5.54457], [105.25851, -5.54456], [105.25856, -5.54455], [105.25864, -5.54453], [105.25869, -5.54451], [105.25871, -5.5445], [105.25873, -5.54449], [105.25874, -5.54448], [105.25876, -5.54446], [105.25878, -5.54444], [105.2588, -5.54442], [105.2588, -5.54442], [105.25883, -5.5444], [105.25884, -5.54439], [105.25884, -5.54439], [105.25884, -5.54438], [105.25884, -5.54437], [105.25884, -5.54436], [105.25884, -5.54432], [105.25884, -5.54432], [105.25884, -5.54431], [105.25885, -5.5443], [105.25885, -5.5443], [105.25888, -5.54428], [105.25889, -5.54426], [105.2589, -5.54425], [105.25892, -5.54421], [105.25892, -5.5442], [105.25894, -5.54418], [105.25898, -5.54414], [105.25901, -5.5441], [105.25902, -5.54409], [105.25906, -5.54406], [105.25907, -5.54405], [105.25908, -5.54404], [105.25908, -5.54403], [105.2591, -5.54401], [105.25912, -5.54395], [105.25913, -5.54393], [105.25914, -5.54392], [105.25915, -5.54391], [105.25915, -5.5439], [105.25916, -5.5439], [105.25917, -5.5439], [105.25918, -5.5439], [105.25919, -5.5439], [105.25921, -5.54391], [105.25922, -5.54391], [105.25923, -5.54391], [105.25926, -5.5439], [105.25929, -5.54389], [105.2593, -5.54389], [105.25931, -5.54389], [105.25932, -5.54389], [105.25934, -5.54389], [105.25936, -5.5439], [105.25945, -5.54393], [105.25947, -5.54394], [105.2595, -5.54395], [105.25953, -5.54395], [105.25954, -5.54396], [105.25955, -5.54396], [105.25957, -5.54397], [105.25963, -5.544], [105.25966, -5.54401], [105.25967, -5.54401], [105.25968, -5.54401], [105.25969, -5.54401], [105.25973, -5.54401], [105.25976, -5.54401], [105.25979, -5.54401], [105.25982, -5.544], [105.25983, -5.544], [105.25984, -5.54401], [105.25985, -5.54401], [105.25988, -5.54404], [105.2599, -5.54406], [105.25993, -5.54408], [105.25995, -5.54409], [105.25998, -5.54409], [105.25999, -5.54409], [105.26002, -5.5441], [105.26007, -5.5441], [105.26009, -5.5441], [105.2601, -5.54411], [105.26011, -5.54411], [105.26012, -5.54412], [105.26014, -5.54413], [105.26018, -5.54416], [105.2602, -5.54418], [105.26021, -5.54418], [105.26022, -5.54418], [105.26022, -5.54418], [105.26026, -5.54417], [105.26027, -5.54417], [105.26027, -5.54417], [105.26028, -5.54417], [105.26029, -5.54417], [105.26029, -5.54418], [105.2603, -5.54419], [105.2603, -5.54422], [105.26031, -5.54423], [105.26031, -5.54424], [105.26032, -5.54424], [105.26032, -5.54425], [105.26034, -5.54426], [105.26036, -5.54427], [105.26037, -5.54427], [105.2604, -5.54427], [105.26042, -5.54428], [105.26044, -5.54428], [105.26046, -5.54429], [105.26048, -5.54429], [105.2605, -5.5443], [105.26056, -5.54434], [105.26059, -5.54435], [105.2606, -5.54436], [105.26061, -5.54436], [105.26062, -5.54436], [105.26066, -5.54436], [105.2607, -5.54436], [105.26074, -5.54436], [105.26076, -5.54437], [105.26079, -5.54437], [105.26083, -5.54438], [105.26085, -5.54438], [105.2609, -5.5444], [105.26093, -5.54441], [105.26097, -5.54443], [105.26099, -5.54443], [105.26107, -5.54444], [105.26109, -5.54445], [105.2611, -5.54445], [105.26113, -5.54446], [105.26114, -5.54446], [105.26117, -5.54447], [105.26118, -5.54447], [105.26121, -5.54448], [105.26126, -5.5445], [105.2613, -5.54451], [105.26131, -5.54451], [105.26133, -5.54452], [105.26133, -5.54452], [105.26134, -5.54452], [105.26134, -5.54454], [105.26134, -5.54455], [105.26134, -5.54455], [105.26136, -5.54457], [105.26141, -5.54463], [105.26143, -5.54465], [105.26144, -5.54465], [105.26145, -5.54466], [105.26146, -5.54466], [105.26147, -5.54466], [105.26147, -5.54466], [105.26148, -5.54466], [105.26149, -5.54466], [105.26149, -5.54465], [105.2615, -5.54464], [105.2615, -5.54463], [105.2615, -5.54462], [105.2615, -5.54461], [105.26149, -5.5446], [105.26148, -5.54458], [105.26146, -5.54454], [105.26145, -5.54453], [105.26144, -5.54453], [105.26143, -5.54452], [105.26137, -5.54448], [105.26133, -5.54446], [105.26132, -5.54446], [105.26128, -5.54443], [105.26127, -5.54443], [105.26125, -5.54442], [105.26124, -5.54441], [105.26122, -5.54441], [105.2612, -5.54441], [105.26117, -5.54441], [105.26116, -5.5444], [105.26115, -5.5444], [105.26114, -5.5444], [105.26112, -5.54438], [105.26107, -5.54433], [105.26105, -5.54432], [105.26105, -5.54432], [105.26104, -5.54431], [105.26103, -5.54431], [105.26102, -5.54431], [105.26101, -5.54431], [105.261, -5.54431], [105.26098, -5.54431], [105.26093, -5.54432], [105.26092, -5.54432], [105.2609, -5.54432], [105.26089, -5.54432], [105.26088, -5.54432], [105.26087, -5.54432], [105.26086, -5.54431], [105.26085, -5.54431], [105.26084, -5.5443], [105.26084, -5.54429], [105.26083, -5.54428], [105.26083, -5.54428], [105.26083, -5.54428], [105.26083, -5.54427], [105.26083, -5.54426], [105.26083, -5.54425], [105.26084, -5.54424], [105.26084, -5.54423], [105.26085, -5.54422], [105.26086, -5.54422], [105.26088, -5.54421], [105.26089, -5.5442], [105.26091, -5.54419], [105.26094, -5.54419], [105.26097, -5.54419], [105.26101, -5.54419], [105.26103, -5.54419], [105.26106, -5.54419], [105.26107, -5.54419], [105.2611, -5.54419], [105.26115, -5.54421], [105.26128, -5.54426], [105.26133, -5.54427], [105.26137, -5.54429], [105.26138, -5.5443], [105.2614, -5.54431], [105.26143, -5.54433], [105.26147, -5.54436], [105.26149, -5.54438], [105.2615, -5.54439], [105.26151, -5.54439], [105.26153, -5.54442], [105.26155, -5.54446], [105.26159, -5.54452], [105.2616, -5.54455], [105.26162, -5.5446], [105.26169, -5.54477], [105.2617, -5.54481], [105.26171, -5.54484], [105.26171, -5.54485], [105.26171, -5.54486], [105.26171, -5.54487], [105.2617, -5.54488], [105.2617, -5.5449], [105.26169, -5.54492], [105.26167, -5.54497], [105.26164, -5.54503], [105.26162, -5.54506], [105.2616, -5.54508], [105.26159, -5.54509], [105.26158, -5.5451], [105.26156, -5.54512], [105.26154, -5.54513], [105.26148, -5.54517], [105.26145, -5.54518], [105.26144, -5.5452], [105.26142, -5.54521], [105.2614, -5.54524], [105.26138, -5.54527], [105.26133, -5.54536], [105.26132, -5.54538], [105.2613, -5.5454], [105.2613, -5.54541], [105.26129, -5.54542], [105.26122, -5.54546], [105.26121, -5.54547], [105.2612, -5.54547], [105.2612, -5.54548], [105.2612, -5.54548], [105.2612, -5.54548], [105.26112, -5.54553], [105.26109, -5.54555], [105.26107, -5.54556], [105.26106, -5.54557], [105.26104, -5.54559], [105.26099, -5.54565], [105.26098, -5.54567], [105.26096, -5.54568], [105.26094, -5.5457], [105.2609, -5.54572], [105.26088, -5.54573], [105.26085, -5.54574], [105.26082, -5.54575], [105.26071, -5.54577], [105.26069, -5.54577], [105.26067, -5.54578], [105.26066, -5.54579], [105.26065, -5.5458], [105.26064, -5.54581], [105.26061, -5.54585], [105.2606, -5.54586], [105.26059, -5.54587], [105.26058, -5.54587], [105.26057, -5.54588], [105.26054, -5.54589], [105.26049, -5.5459], [105.26028, -5.54596], [105.26026, -5.54596], [105.26023, -5.54597], [105.26021, -5.54597], [105.26019, -5.54597], [105.26018, -5.54597], [105.26017, -5.54596], [105.26016, -5.54596], [105.26014, -5.54594], [105.26011, -5.54591], [105.26009, -5.54589], [105.26008, -5.54589], [105.26007, -5.54589], [105.26006, -5.54589], [105.26005, -5.54589], [105.26004, -5.5459], [105.26004, -5.5459], [105.26003, -5.54591], [105.26003, -5.54592], [105.26002, -5.54593], [105.26002, -5.54594], [105.26002, -5.54596], [105.26003, -5.54601], [105.26003, -5.54604], [105.26003, -5.54612], [105.26003, -5.54617], [105.26003, -5.54622], [105.26002, -5.54624], [105.26002, -5.54627], [105.26001, -5.54628], [105.26001, -5.54629], [105.26, -5.5463], [105.25999, -5.54632], [105.25997, -5.54634], [105.25995, -5.54636], [105.25993, -5.54638], [105.25992, -5.54639], [105.25991, -5.54639], [105.2599, -5.54639], [105.25989, -5.5464], [105.25989, -5.5464], [105.25988, -5.5464], [105.25987, -5.54639], [105.25986, -5.54639], [105.25985, -5.54638], [105.25984, -5.54638], [105.25981, -5.54634], [105.25979, -5.54633], [105.25977, -5.54631], [105.25975, -5.5463], [105.25973, -5.5463], [105.25972, -5.54629], [105.25971, -5.54629], [105.2597, -5.54629], [105.25968, -5.54629], [105.25967, -5.54629], [105.25966, -5.54629], [105.25965, -5.5463], [105.25964, -5.5463], [105.25963, -5.54631], [105.25961, -5.54633], [105.2596, -5.54635], [105.25955, -5.54642], [105.25953, -5.54644], [105.25952, -5.54645], [105.2595, -5.54647], [105.25945, -5.5465], [105.25943, -5.54652], [105.25941, -5.54654], [105.25936, -5.54659], [105.25934, -5.54661], [105.25932, -5.54662], [105.25928, -5.54664], [105.25923, -5.54666], [105.25907, -5.54672], [105.25904, -5.54673], [105.25902, -5.54675], [105.25901, -5.54675], [105.259, -5.54676], [105.25899, -5.54677], [105.25896, -5.54682], [105.25895, -5.54683], [105.25893, -5.54685], [105.2589, -5.54687], [105.25881, -5.54695], [105.25878, -5.54697], [105.25875, -5.547], [105.2587, -5.54705], [105.25869, -5.54706], [105.25868, -5.54707], [105.25867, -5.54708], [105.25865, -5.54708], [105.25864, -5.54708], [105.25862, -5.54709], [105.25859, -5.54709], [105.2585, -5.54708], [105.25846, -5.54709], [105.25844, -5.54709], [105.25839, -5.54711], [105.25836, -5.54711], [105.25834, -5.54712], [105.25832, -5.54712], [105.25829, -5.54712], [105.2583, -5.54725], [105.2583, -5.54731], [105.2583, -5.54735], [105.2583, -5.54737], [105.25829, -5.54741], [105.25828, -5.54744], [105.25827, -5.54746], [105.25824, -5.54751], [105.25823, -5.54753], [105.25822, -5.54754], [105.25821, -5.54757], [105.25821, -5.54759], [105.2582, -5.54762], [105.25819, -5.54774], [105.25818, -5.54778], [105.25817, -5.54781], [105.25817, -5.54782], [105.25816, -5.54784], [105.25815, -5.54787], [105.25814, -5.54788], [105.25813, -5.5479], [105.25812, -5.54791], [105.25811, -5.54791], [105.25809, -5.54793], [105.25808, -5.54793], [105.25807, -5.54794], [105.25806, -5.54794], [105.25805, -5.54794], [105.25804, -5.54794], [105.25803, -5.54794], [105.25801, -5.54793], [105.25798, -5.54791], [105.25796, -5.54791], [105.25795, -5.54791], [105.25794, -5.54791], [105.25794, -5.54791], [105.25793, -5.54792], [105.25793, -5.54792], [105.25791, -5.54796], [105.25791, -5.54797], [105.2579, -5.54798], [105.25789, -5.54798], [105.25788, -5.54799], [105.25785, -5.54801], [105.25784, -5.54801], [105.25783, -5.54802], [105.25781, -5.54804], [105.25781, -5.54804], [105.2578, -5.54806], [105.25778, -5.54808], [105.25777, -5.5481], [105.25776, -5.54813], [105.25776, -5.54814], [105.25776, -5.54814], [105.25776, -5.54815], [105.25777, -5.54817], [105.25778, -5.54818], [105.25778, -5.54819], [105.25778, -5.5482], [105.25778, -5.54821], [105.25778, -5.54823], [105.25778, -5.54824], [105.25779, -5.54834], [105.2578, -5.54837], [105.2578, -5.54839], [105.25781, -5.54842], [105.25782, -5.54843], [105.25782, -5.54843], [105.25784, -5.54846], [105.25785, -5.54846], [105.25786, -5.54847], [105.25786, -5.54848], [105.25786, -5.54849], [105.25786, -5.5485], [105.25786, -5.54852], [105.25786, -5.54853], [105.25786, -5.54854], [105.25784, -5.54858], [105.25779, -5.54869], [105.25776, -5.54875], [105.25775, -5.54877], [105.25774, -5.54879], [105.25772, -5.54881], [105.2577, -5.54883], [105.25769, -5.54883], [105.25767, -5.54885], [105.25758, -5.5489], [105.25755, -5.54892], [105.25754, -5.54892], [105.25752, -5.54894], [105.25747, -5.54898], [105.25745, -5.549], [105.25744, -5.549], [105.25743, -5.54901], [105.25742, -5.54901], [105.25741, -5.54901], [105.2574, -5.54901], [105.25739, -5.549], [105.25738, -5.549], [105.25737, -5.54899], [105.25737, -5.54899], [105.25737, -5.54898], [105.25735, -5.54894], [105.25734, -5.54894], [105.25734, -5.54893], [105.25733, -5.54892], [105.25732, -5.54892], [105.25732, -5.54892], [105.25731, -5.54892], [105.2573, -5.54892], [105.25729, -5.54893], [105.25728, -5.54893], [105.25727, -5.54895], [105.25726, -5.54897], [105.25726, -5.549], [105.25725, -5.54904], [105.25725, -5.54911], [105.25725, -5.54913], [105.25725, -5.54916], [105.25725, -5.5492], [105.25725, -5.54926], [105.25725, -5.54928], [105.25725, -5.54929], [105.25725, -5.5493], [105.25724, -5.54931], [105.25724, -5.54932], [105.25722, -5.54935], [105.25709, -5.54951], [105.25705, -5.54956], [105.25703, -5.54958], [105.25703, -5.5496], [105.25702, -5.54961], [105.25701, -5.54965], [105.257, -5.54966], [105.25699, -5.54967], [105.25698, -5.54968], [105.25694, -5.54971], [105.25691, -5.54973], [105.25675, -5.54982], [105.25671, -5.54984], [105.25669, -5.54986], [105.25667, -5.54987], [105.25666, -5.54988], [105.25666, -5.54989], [105.25663, -5.54994], [105.25662, -5.54995], [105.25661, -5.54995], [105.2566, -5.54996], [105.25659, -5.54997], [105.25658, -5.54997], [105.25656, -5.54998], [105.2565, -5.55001], [105.25647, -5.55002], [105.25645, -5.55003], [105.25642, -5.55006], [105.25641, -5.55006], [105.2564, -5.55007], [105.25637, -5.55008], [105.25631, -5.55009], [105.25628, -5.5501], [105.25625, -5.55012], [105.25617, -5.55019], [105.25614, -5.55021], [105.25612, -5.55021], [105.25611, -5.55021], [105.2561, -5.55022], [105.25604, -5.55023], [105.25603, -5.55023], [105.25602, -5.55023], [105.256, -5.55025], [105.25596, -5.55027], [105.25594, -5.55028], [105.25592, -5.5503], [105.25587, -5.55031], [105.25586, -5.55032], [105.25585, -5.55032], [105.25583, -5.55034], [105.25581, -5.55036], [105.25574, -5.55043], [105.25571, -5.55046], [105.25569, -5.55048], [105.25568, -5.55049], [105.25566, -5.5505], [105.25564, -5.55051], [105.25563, -5.55051], [105.25562, -5.55051], [105.25561, -5.55051], [105.2556, -5.55051], [105.25559, -5.5505], [105.25557, -5.55049], [105.2555, -5.55043], [105.25548, -5.55042], [105.25547, -5.55041], [105.25546, -5.55041], [105.25545, -5.5504], [105.25544, -5.5504], [105.25538, -5.5504], [105.25537, -5.5504], [105.25536, -5.5504], [105.25535, -5.5504], [105.25532, -5.55039], [105.25525, -5.55036], [105.25522, -5.55035], [105.2552, -5.55034], [105.25519, -5.55034], [105.25517, -5.55034], [105.25516, -5.55034], [105.25515, -5.55035], [105.25512, -5.55035], [105.25509, -5.55037], [105.25496, -5.55042], [105.25494, -5.55043], [105.25491, -5.55044], [105.25488, -5.55044], [105.25487, -5.55044], [105.25484, -5.55044], [105.25478, -5.55044], [105.25476, -5.55045], [105.25475, -5.55045], [105.25474, -5.55045], [105.25474, -5.55046], [105.25474, -5.55047], [105.25473, -5.55048], [105.25473, -5.55053], [105.25473, -5.55054], [105.25473, -5.55055], [105.25472, -5.55057], [105.25471, -5.55059], [105.25467, -5.55066], [105.25465, -5.55068], [105.25465, -5.55069], [105.25464, -5.55071], [105.25462, -5.55077], [105.25461, -5.5508], [105.2546, -5.55082], [105.2546, -5.55083], [105.25459, -5.55083], [105.25458, -5.55084], [105.25457, -5.55085], [105.25453, -5.55087], [105.2543, -5.55096], [105.25426, -5.55098], [105.25423, -5.551], [105.25421, -5.55101], [105.25418, -5.55103], [105.25407, -5.55112], [105.25405, -5.55113], [105.25402, -5.55115], [105.25401, -5.55115], [105.25399, -5.55116], [105.25394, -5.55116], [105.25392, -5.55117], [105.2539, -5.55117], [105.25385, -5.55119], [105.25383, -5.5512], [105.25381, -5.5512], [105.2538, -5.5512], [105.25379, -5.5512], [105.25377, -5.55119], [105.25376, -5.55118], [105.25375, -5.55118], [105.25374, -5.55117], [105.25373, -5.55115], [105.25371, -5.55113], [105.25369, -5.55111], [105.25365, -5.55104], [105.25363, -5.55102], [105.25362, -5.55099], [105.25361, -5.55097], [105.2536, -5.55095], [105.25356, -5.55081], [105.25354, -5.55077], [105.25353, -5.55075], [105.25353, -5.55074], [105.25352, -5.55074], [105.25351, -5.55073], [105.2535, -5.55073], [105.25349, -5.55072], [105.25346, -5.55072], [105.25344, -5.55072], [105.25342, -5.55072], [105.2534, -5.55072], [105.25338, -5.55072], [105.25338, -5.55072], [105.25335, -5.55073], [105.25333, -5.55074], [105.25331, -5.55075], [105.2533, -5.55076], [105.25328, -5.55077], [105.25325, -5.5508], [105.25323, -5.55081], [105.25321, -5.55083], [105.25316, -5.55085], [105.25314, -5.55087], [105.25313, -5.55087], [105.25312, -5.55088], [105.2531, -5.5509], [105.25308, -5.55093], [105.25306, -5.55097], [105.25304, -5.55099], [105.25303, -5.55102], [105.25303, -5.55103], [105.25302, -5.55105], [105.25302, -5.55106], [105.25302, -5.55108], [105.25302, -5.55109], [105.25302, -5.5511], [105.25302, -5.55111], [105.25303, -5.55113], [105.25303, -5.55114], [105.25304, -5.55115], [105.25304, -5.55116], [105.25305, -5.55117], [105.25307, -5.55118], [105.25308, -5.55118], [105.25309, -5.55119], [105.2531, -5.55119], [105.25311, -5.55119], [105.25312, -5.55119], [105.25313, -5.55118], [105.25315, -5.55117], [105.25318, -5.55116], [105.2532, -5.55115], [105.2532, -5.55114], [105.25321, -5.55114], [105.25322, -5.55112], [105.25328, -5.55106], [105.2533, -5.55105], [105.25331, -5.55104], [105.25332, -5.55104], [105.25333, -5.55103], [105.25334, -5.55103], [105.25335, -5.55103], [105.25335, -5.55104], [105.25336, -5.55104], [105.25337, -5.55104], [105.25338, -5.55105], [105.25339, -5.55106], [105.25341, -5.55108], [105.25343, -5.55111], [105.25346, -5.55117], [105.25347, -5.5512], [105.25348, -5.55123], [105.25349, -5.55124], [105.25349, -5.55125], [105.25349, -5.55127], [105.25349, -5.55128], [105.25349, -5.55129], [105.25349, -5.5513], [105.25348, -5.55131], [105.25347, -5.55132], [105.25347, -5.55133], [105.25346, -5.55134], [105.25344, -5.55135], [105.2534, -5.55137], [105.25338, -5.55139], [105.25337, -5.5514], [105.25337, -5.5514], [105.25336, -5.55141], [105.25335, -5.55142], [105.25335, -5.55143], [105.25335, -5.55145], [105.25335, -5.55147], [105.25335, -5.55148], [105.25335, -5.5515], [105.25336, -5.55154], [105.25337, -5.55157], [105.25338, -5.55158], [105.25338, -5.55159], [105.2534, -5.55161], [105.25344, -5.55166], [105.25353, -5.55176], [105.25355, -5.55179], [105.25357, -5.5518], [105.25358, -5.55181], [105.25359, -5.55182], [105.2536, -5.55183], [105.25362, -5.55183], [105.25363, -5.55183], [105.25365, -5.55183], [105.25366, -5.55183], [105.25368, -5.55185], [105.2537, -5.55187], [105.25371, -5.55188], [105.25371, -5.55189], [105.25371, -5.5519], [105.25371, -5.5519], [105.25372, -5.55191], [105.25372, -5.55191], [105.25374, -5.55192], [105.25375, -5.55192], [105.25377, -5.55194], [105.2538, -5.55196], [105.25382, -5.55199], [105.25382, -5.552], [105.25383, -5.55201], [105.25383, -5.55202], [105.25383, -5.55202], [105.25383, -5.55203], [105.25383, -5.55204], [105.25381, -5.55206], [105.25376, -5.5521], [105.25375, -5.55211], [105.25375, -5.55212], [105.25375, -5.55212], [105.25375, -5.55213], [105.25376, -5.55215], [105.25377, -5.55215], [105.25377, -5.55216], [105.25377, -5.55217], [105.25377, -5.55218], [105.25377, -5.55221], [105.25376, -5.55225], [105.25376, -5.55228], [105.25376, -5.5523], [105.25377, -5.55233], [105.25377, -5.55235], [105.25378, -5.55238], [105.25383, -5.55249], [105.25384, -5.55251], [105.25384, -5.55253], [105.25385, -5.55254], [105.25385, -5.55255], [105.25386, -5.55258], [105.25386, -5.5526], [105.25386, -5.55264], [105.25385, -5.55268], [105.25385, -5.5527], [105.25384, -5.55271], [105.25383, -5.55274], [105.25381, -5.55277], [105.25366, -5.55302], [105.25364, -5.55305], [105.25362, -5.55309], [105.25359, -5.55316], [105.25354, -5.55326], [105.25354, -5.55328], [105.25353, -5.55331], [105.25352, -5.55333], [105.25352, -5.55335], [105.25352, -5.55336], [105.25351, -5.55337], [105.25349, -5.55339], [105.25345, -5.55342], [105.25345, -5.55342], [105.25344, -5.55343], [105.25341, -5.55343], [105.25334, -5.55343], [105.25332, -5.55343], [105.25331, -5.55344], [105.2533, -5.55344], [105.25327, -5.55345], [105.25326, -5.55346], [105.25325, -5.55346], [105.25325, -5.55347], [105.25324, -5.55348], [105.25324, -5.55349], [105.25323, -5.5535], [105.25322, -5.55354], [105.25322, -5.55356], [105.2532, -5.5536], [105.25317, -5.55368], [105.25313, -5.55376], [105.25312, -5.55378], [105.25311, -5.5538], [105.25309, -5.55382], [105.25304, -5.55389], [105.25303, -5.55391], [105.25302, -5.55392], [105.25302, -5.55393], [105.25302, -5.55395], [105.25301, -5.55396], [105.25301, -5.55399], [105.25301, -5.55402], [105.25301, -5.55402], [105.25301, -5.55402], [105.253, -5.55402], [105.25299, -5.55402], [105.25298, -5.55401], [105.25297, -5.554], [105.25296, -5.554], [105.25296, -5.554], [105.25295, -5.554], [105.25294, -5.55401], [105.25294, -5.55401], [105.25293, -5.55402], [105.25293, -5.55403], [105.25292, -5.55407], [105.25292, -5.55408], [105.25292, -5.55409], [105.25291, -5.5541], [105.2529, -5.5541], [105.2529, -5.55411], [105.25289, -5.55412], [105.25288, -5.55412], [105.25286, -5.55413], [105.25285, -5.55414], [105.25285, -5.55414], [105.25284, -5.55415], [105.25284, -5.55416], [105.25283, -5.55422], [105.25283, -5.55423], [105.25283, -5.55424], [105.25282, -5.55425], [105.2528, -5.55427], [105.25276, -5.55431], [105.25275, -5.55433], [105.25274, -5.55435], [105.25272, -5.5544], [105.25271, -5.55441], [105.2527, -5.55443], [105.25266, -5.55447], [105.25264, -5.55449], [105.25263, -5.55451], [105.25261, -5.55454], [105.2526, -5.55456], [105.25258, -5.55457], [105.25255, -5.55459], [105.25255, -5.5546], [105.25254, -5.55461], [105.25251, -5.55466], [105.25249, -5.55468], [105.25248, -5.5547], [105.25247, -5.55472], [105.25246, -5.55475], [105.25245, -5.55477], [105.25243, -5.55479], [105.2524, -5.55484], [105.25239, -5.55486], [105.25236, -5.55493], [105.25235, -5.55495], [105.25234, -5.55497], [105.25224, -5.55516], [105.25221, -5.5552], [105.2522, -5.55523], [105.25218, -5.55525], [105.25217, -5.55527], [105.25216, -5.55527], [105.25215, -5.55528], [105.25215, -5.55528], [105.25212, -5.55529], [105.25212, -5.5553], [105.25211, -5.55531], [105.25211, -5.55531], [105.2521, -5.55532], [105.2521, -5.55533], [105.25211, -5.55535], [105.25211, -5.55536], [105.25211, -5.55537], [105.25211, -5.5554], [105.25211, -5.55541], [105.25211, -5.55541], [105.25211, -5.55543], [105.25211, -5.55548], [105.25212, -5.55551], [105.25211, -5.55552], [105.25211, -5.55553], [105.25211, -5.55554], [105.2521, -5.55555], [105.25209, -5.55556], [105.25207, -5.55559], [105.25206, -5.5556], [105.25206, -5.55561], [105.25205, -5.55562], [105.25205, -5.55563], [105.25205, -5.55565], [105.25205, -5.55575], [105.25205, -5.55579], [105.25203, -5.55586], [105.25203, -5.5559], [105.25203, -5.55591], [105.25201, -5.55597], [105.252, -5.556], [105.252, -5.55601], [105.252, -5.55602], [105.252, -5.55605], [105.25199, -5.55608], [105.25199, -5.55608], [105.25199, -5.55611], [105.25199, -5.55614], [105.25199, -5.55616], [105.25199, -5.55616], [105.252, -5.55619], [105.25201, -5.55625], [105.25202, -5.55629], [105.25202, -5.5563], [105.25202, -5.55633], [105.25201, -5.55636], [105.25202, -5.55639], [105.25202, -5.5564], [105.25201, -5.55643], [105.25201, -5.55644], [105.252, -5.55646], [105.25201, -5.55652], [105.25201, -5.55653], [105.25201, -5.55654], [105.25202, -5.55659], [105.25203, -5.55661], [105.25203, -5.55662], [105.25203, -5.55664], [105.25203, -5.55669], [105.25203, -5.5567], [105.25203, -5.55673], [105.25203, -5.55674], [105.25203, -5.55676], [105.25203, -5.55679], [105.25201, -5.55693], [105.25201, -5.55695], [105.25201, -5.55698], [105.25201, -5.55701], [105.25201, -5.55704], [105.25202, -5.55705], [105.25205, -5.55722], [105.25206, -5.55723], [105.25207, -5.55725], [105.25208, -5.55727], [105.25208, -5.55728], [105.25209, -5.55729], [105.25209, -5.5573], [105.25209, -5.55734], [105.25209, -5.55734], [105.25209, -5.55735], [105.25209, -5.55735], [105.2521, -5.55735], [105.25211, -5.55735], [105.25212, -5.55735], [105.25214, -5.55734], [105.2522, -5.55733], [105.25223, -5.55732], [105.25224, -5.55732], [105.25225, -5.55732], [105.25226, -5.55733], [105.25227, -5.55733], [105.25227, -5.55734], [105.25228, -5.55735], [105.25228, -5.55736], [105.25229, -5.55737], [105.2523, -5.55741], [105.25234, -5.5575], [105.25232, -5.55751], [105.2523, -5.55751], [105.25229, -5.55752], [105.25228, -5.55753], [105.25227, -5.55754], [105.25227, -5.55755], [105.25227, -5.55756], [105.25228, -5.55758], [105.25229, -5.55762], [105.2523, -5.55764], [105.25231, -5.55766], [105.25232, -5.55766], [105.25232, -5.55767], [105.25234, -5.55769], [105.25239, -5.55774], [105.25241, -5.55775], [105.25242, -5.55777], [105.25244, -5.5578], [105.25244, -5.55781], [105.25245, -5.55782], [105.25246, -5.55782], [105.25251, -5.55786], [105.25252, -5.55787], [105.25255, -5.55788], [105.25258, -5.5579], [105.2526, -5.55791], [105.25263, -5.55793], [105.25265, -5.55794], [105.25268, -5.55797], [105.25273, -5.55802], [105.25275, -5.55803], [105.25276, -5.55804], [105.25279, -5.55805], [105.25284, -5.55808], [105.25285, -5.55809], [105.25287, -5.5581], [105.2529, -5.55813], [105.25298, -5.55819], [105.253, -5.55821], [105.25302, -5.55822], [105.25304, -5.55823], [105.25305, -5.55826], [105.25306, -5.55827], [105.25307, -5.55827], [105.2531, -5.55829], [105.25311, -5.5583], [105.25315, -5.55833], [105.25317, -5.55835], [105.25318, -5.55835], [105.25319, -5.55836], [105.25322, -5.55842], [105.25323, -5.55843], [105.25323, -5.55843], [105.25325, -5.55845], [105.25326, -5.55846], [105.25327, -5.55847], [105.25328, -5.5585], [105.2533, -5.55854], [105.25332, -5.55858], [105.25332, -5.55858], [105.25333, -5.5586], [105.25334, -5.5586], [105.25334, -5.55861], [105.25335, -5.55862], [105.25335, -5.55863], [105.25335, -5.55864], [105.25334, -5.55865], [105.25333, -5.55867], [105.25333, -5.55867], [105.25334, -5.55868], [105.25334, -5.55868], [105.25336, -5.55869], [105.25337, -5.55869], [105.25337, -5.5587], [105.25337, -5.5587], [105.25337, -5.5587], [105.25337, -5.55871], [105.25337, -5.55871], [105.25335, -5.55873], [105.25334, -5.55874], [105.25334, -5.55874], [105.25334, -5.55875], [105.25333, -5.55876], [105.25333, -5.55876], [105.25334, -5.55877], [105.25334, -5.55877], [105.25335, -5.55878], [105.25335, -5.55879], [105.25335, -5.55879], [105.25335, -5.55882], [105.25334, -5.55883], [105.25335, -5.55883], [105.25335, -5.55887], [105.25335, -5.55887], [105.25335, -5.55888], [105.25335, -5.5589], [105.25334, -5.55891], [105.25334, -5.55891], [105.25335, -5.55892], [105.25335, -5.55894], [105.25336, -5.55894], [105.25337, -5.55895], [105.25337, -5.55896], [105.25337, -5.55897], [105.25337, -5.55897], [105.25337, -5.55898], [105.25336, -5.559], [105.25335, -5.55901], [105.25335, -5.55901], [105.25335, -5.55902], [105.25335, -5.55903], [105.25335, -5.55904], [105.25336, -5.55906], [105.25337, -5.55907], [105.25337, -5.55907], [105.25336, -5.55909], [105.25335, -5.55914], [105.25335, -5.55916], [105.25335, -5.55917], [105.25335, -5.55919], [105.25336, -5.55922], [105.25338, -5.55927], [105.25338, -5.55929], [105.25338, -5.55931], [105.25338, -5.55932], [105.25338, -5.55933], [105.25338, -5.55936], [105.25338, -5.55938], [105.25338, -5.55939], [105.25338, -5.55943], [105.25338, -5.55945], [105.25338, -5.55959], [105.25338, -5.55963], [105.25338, -5.55964], [105.25339, -5.55968], [105.25339, -5.55969], [105.25339, -5.55971], [105.25339, -5.55972], [105.25338, -5.55975], [105.25338, -5.55978], [105.25338, -5.55979], [105.25338, -5.55981], [105.25339, -5.55982], [105.25339, -5.55985], [105.2534, -5.55986], [105.2534, -5.55988], [105.2534, -5.55989], [105.25339, -5.55993], [105.25339, -5.55995], [105.25339, -5.55996], [105.25339, -5.55997], [105.2534, -5.56], [105.25341, -5.56003], [105.25343, -5.56007], [105.25346, -5.56016], [105.25347, -5.56021], [105.25349, -5.56023], [105.25349, -5.56024], [105.2535, -5.56026], [105.25351, -5.56027], [105.25352, -5.56027], [105.25352, -5.56027], [105.25353, -5.56028], [105.25354, -5.56027], [105.25355, -5.56027], [105.25355, -5.56028], [105.25356, -5.56028], [105.25356, -5.56029], [105.25356, -5.5603], [105.25356, -5.56032], [105.25356, -5.56033], [105.25356, -5.56034], [105.25356, -5.56034], [105.25358, -5.56035], [105.2536, -5.56037], [105.25363, -5.56039], [105.25364, -5.5604], [105.25365, -5.56041], [105.25367, -5.56044], [105.25367, -5.56046], [105.25369, -5.56048], [105.25371, -5.5605], [105.25388, -5.56067], [105.2539, -5.5607], [105.25393, -5.56072], [105.25396, -5.56074], [105.25399, -5.56076], [105.25402, -5.56077], [105.25404, -5.56078], [105.25407, -5.56079], [105.25415, -5.5608], [105.25418, -5.56081], [105.25422, -5.56082], [105.25424, -5.56084], [105.25426, -5.56084], [105.25428, -5.56086], [105.25428, -5.56093], [105.25428, -5.56096], [105.25428, -5.56099], [105.25427, -5.56101], [105.25427, -5.56102], [105.25426, -5.56103], [105.25426, -5.56104], [105.25425, -5.56105], [105.25424, -5.56106], [105.25424, -5.56107], [105.25423, -5.56108], [105.25422, -5.56108], [105.25421, -5.56108], [105.2542, -5.56108], [105.25419, -5.56108], [105.25418, -5.56108], [105.25417, -5.56107], [105.25416, -5.56106], [105.25414, -5.56104], [105.25412, -5.56102], [105.25409, -5.56098], [105.25406, -5.56095], [105.25405, -5.56093], [105.25403, -5.56091], [105.25401, -5.56089], [105.25401, -5.56088], [105.25398, -5.56087], [105.25396, -5.56085], [105.25393, -5.56083], [105.25387, -5.56078], [105.25385, -5.56076], [105.25383, -5.56075], [105.25379, -5.56073], [105.25375, -5.56072], [105.25364, -5.56068], [105.25357, -5.56068], [105.25356, -5.56068], [105.25355, -5.56068], [105.25354, -5.56067], [105.25352, -5.56064], [105.2535, -5.56064], [105.25348, -5.56064], [105.25345, -5.56063], [105.25344, -5.56062], [105.25343, -5.56062], [105.2534, -5.5606], [105.2534, -5.5606], [105.25337, -5.56059], [105.25335, -5.56058], [105.25325, -5.56054], [105.25323, -5.56053], [105.25322, -5.56052], [105.25321, -5.56052], [105.25319, -5.56052], [105.25318, -5.56052], [105.25317, -5.56052], [105.25316, -5.56053], [105.25314, -5.56054], [105.25307, -5.56058], [105.25305, -5.56059], [105.25303, -5.5606], [105.25299, -5.56061], [105.25298, -5.56061], [105.25297, -5.56062], [105.25295, -5.56063], [105.2529, -5.56068], [105.25288, -5.56069], [105.25285, -5.56071], [105.25284, -5.56071], [105.25284, -5.56072], [105.25283, -5.56073], [105.25283, -5.56074], [105.25282, -5.56078], [105.25281, -5.56081], [105.2528, -5.56083], [105.25279, -5.56087], [105.25277, -5.5609], [105.25275, -5.56092], [105.25272, -5.56096], [105.2527, -5.56098], [105.25269, -5.561], [105.25269, -5.56101], [105.25268, -5.56102], [105.25268, -5.56103], [105.25269, -5.56106], [105.25269, -5.56109], [105.25269, -5.5611], [105.25269, -5.56111], [105.2527, -5.56111], [105.25271, -5.56112], [105.25272, -5.56113], [105.25274, -5.56113], [105.25276, -5.56114], [105.25277, -5.56114], [105.25278, -5.56115], [105.2528, -5.56116], [105.25283, -5.56117], [105.25286, -5.56119], [105.2529, -5.5612], [105.25291, -5.56121], [105.25292, -5.56122], [105.25293, -5.56122], [105.25294, -5.56123], [105.25295, -5.56124], [105.25296, -5.56126], [105.25297, -5.56128], [105.25297, -5.56129], [105.25298, -5.5613], [105.25298, -5.56131], [105.25298, -5.56132], [105.25298, -5.56135], [105.25297, -5.56141], [105.25297, -5.56144], [105.25297, -5.56145], [105.25297, -5.56148], [105.25297, -5.56154], [105.25297, -5.56157], [105.25297, -5.56158], [105.25297, -5.56159], [105.25297, -5.56161], [105.25296, -5.56162], [105.25294, -5.56165], [105.25291, -5.56169], [105.25291, -5.56169], [105.2529, -5.56167], [105.2529, -5.56166], [105.2529, -5.56164], [105.2529, -5.56163], [105.2529, -5.56158], [105.2529, -5.56157], [105.2529, -5.56157], [105.25288, -5.56153], [105.25287, -5.5615], [105.25287, -5.56149], [105.25286, -5.56148], [105.25285, -5.56145], [105.25283, -5.56143], [105.25281, -5.56141], [105.25281, -5.56141], [105.25281, -5.56141], [105.2528, -5.56141], [105.2528, -5.56142], [105.2528, -5.56144], [105.25281, -5.56147], [105.25281, -5.56149], [105.25283, -5.56153], [105.25283, -5.56154], [105.25283, -5.56154], [105.25285, -5.56157], [105.25285, -5.56158], [105.25285, -5.56159], [105.25285, -5.56159], [105.25285, -5.5616], [105.25284, -5.56162], [105.25283, -5.56163], [105.25283, -5.56165], [105.25283, -5.56169], [105.25283, -5.56171], [105.25283, -5.56172], [105.25283, -5.56173], [105.25282, -5.56174], [105.25281, -5.56176], [105.25276, -5.56184], [105.25275, -5.56186], [105.25273, -5.5619], [105.25272, -5.56191], [105.25271, -5.56192], [105.25271, -5.56193], [105.2527, -5.56193], [105.25268, -5.56194], [105.25264, -5.56194], [105.25263, -5.56195], [105.25262, -5.56195], [105.25262, -5.56195], [105.25262, -5.56196], [105.25262, -5.56197], [105.2526, -5.56199], [105.2526, -5.562], [105.25258, -5.56202], [105.25256, -5.56204], [105.25256, -5.56204], [105.25255, -5.56205], [105.25256, -5.56205], [105.25256, -5.56206], [105.25257, -5.56206], [105.25259, -5.56205], [105.25262, -5.56205], [105.25263, -5.56207], [105.25263, -5.56207], [105.25264, -5.56209], [105.25265, -5.5621], [105.25266, -5.56212], [105.25266, -5.56215], [105.25268, -5.56224], [105.25269, -5.56228], [105.2527, -5.56231], [105.2527, -5.56234], [105.25269, -5.56236], [105.25269, -5.5624], [105.25267, -5.5625], [105.25267, -5.5625], [105.25267, -5.56251], [105.25266, -5.56252], [105.25266, -5.56253], [105.25267, -5.56254], [105.25267, -5.56256], [105.25267, -5.56257], [105.25267, -5.56258], [105.25266, -5.56259], [105.25266, -5.56261], [105.25265, -5.56261], [105.25265, -5.56262], [105.25264, -5.56262], [105.25264, -5.56262], [105.25263, -5.56261], [105.25262, -5.5626], [105.25261, -5.5626], [105.25261, -5.5626], [105.25261, -5.5626], [105.25261, -5.56261], [105.2526, -5.56264], [105.2526, -5.56265], [105.2526, -5.56265], [105.2526, -5.56265], [105.25258, -5.56265], [105.25258, -5.56265], [105.25256, -5.56267], [105.25254, -5.56268], [105.25252, -5.56269], [105.25252, -5.5627], [105.25252, -5.5627], [105.25245, -5.56275], [105.25242, -5.56277], [105.2524, -5.56278], [105.25237, -5.56279], [105.2523, -5.56281], [105.25228, -5.56282], [105.25226, -5.56283], [105.25226, -5.56284], [105.25225, -5.56285], [105.25223, -5.56287], [105.25221, -5.5629], [105.25219, -5.56292], [105.25216, -5.56294], [105.25213, -5.56297], [105.2521, -5.56299], [105.25208, -5.56301], [105.25207, -5.56301], [105.25203, -5.56302], [105.25202, -5.56303], [105.25201, -5.56304], [105.252, -5.56304], [105.25198, -5.56306], [105.25196, -5.56309], [105.25188, -5.56321], [105.25186, -5.56321], [105.25184, -5.56321], [105.25183, -5.56321], [105.25181, -5.56322], [105.2518, -5.56322], [105.25179, -5.56323], [105.25178, -5.56324], [105.25177, -5.56325], [105.25176, -5.56326], [105.25176, -5.56327], [105.25174, -5.56332], [105.25173, -5.56333], [105.25173, -5.56334], [105.25172, -5.56334], [105.25172, -5.56335], [105.25171, -5.56335], [105.2517, -5.56335], [105.25169, -5.56335], [105.25164, -5.56334], [105.25163, -5.56334], [105.25162, -5.56334], [105.25161, -5.56335], [105.2516, -5.56335], [105.2516, -5.56336], [105.25159, -5.56337], [105.25158, -5.56338], [105.25156, -5.56344], [105.25156, -5.56345], [105.25154, -5.56347], [105.25153, -5.56348], [105.25152, -5.56353], [105.25151, -5.56354], [105.2515, -5.56356], [105.25148, -5.56359], [105.25146, -5.56361], [105.25144, -5.56367], [105.25143, -5.56367], [105.25143, -5.56368], [105.25142, -5.56368], [105.25141, -5.56368], [105.2514, -5.56368], [105.25137, -5.56366], [105.25136, -5.56366], [105.25135, -5.56366], [105.25133, -5.56366], [105.25132, -5.56366], [105.25131, -5.56366], [105.2513, -5.56367], [105.25129, -5.56368], [105.25128, -5.56368], [105.25128, -5.56369], [105.25127, -5.56371], [105.25126, -5.56374], [105.25124, -5.5638], [105.25123, -5.56382], [105.25122, -5.56383], [105.25121, -5.56384], [105.2512, -5.56385], [105.25117, -5.56388], [105.25116, -5.56389], [105.25116, -5.56389], [105.25116, -5.5639], [105.25116, -5.56391], [105.25117, -5.56395], [105.25117, -5.56395], [105.25117, -5.56396], [105.25116, -5.56397], [105.25116, -5.56398], [105.25114, -5.56401], [105.25111, -5.56405], [105.25111, -5.56406], [105.25109, -5.56408], [105.25108, -5.56409], [105.25108, -5.5641], [105.25107, -5.56413], [105.25107, -5.56414], [105.25106, -5.56415], [105.25105, -5.56417], [105.25103, -5.56418], [105.25102, -5.56419], [105.251, -5.5642], [105.25099, -5.56421], [105.25098, -5.56421], [105.25098, -5.56421], [105.25097, -5.56421], [105.25096, -5.5642], [105.25096, -5.5642], [105.25095, -5.56419], [105.25095, -5.56417], [105.25094, -5.56416], [105.25094, -5.56416], [105.25093, -5.56416], [105.25092, -5.56418], [105.2509, -5.56421], [105.25088, -5.56423], [105.25087, -5.56425], [105.25087, -5.56425], [105.25085, -5.56426], [105.25083, -5.56428], [105.25081, -5.56429], [105.25079, -5.5643], [105.25074, -5.56432], [105.25073, -5.56432], [105.25072, -5.56433], [105.25071, -5.56433], [105.2507, -5.56435], [105.25065, -5.56441], [105.25064, -5.56443], [105.25063, -5.56443], [105.25062, -5.56444], [105.25061, -5.56444], [105.2506, -5.56444], [105.25058, -5.56443], [105.25054, -5.56442], [105.25053, -5.56442], [105.25052, -5.56442], [105.25051, -5.56442], [105.2505, -5.56443], [105.2505, -5.56443], [105.25049, -5.56445], [105.25046, -5.56453], [105.25046, -5.56454], [105.25045, -5.56457], [105.25043, -5.56459], [105.25043, -5.5646], [105.25041, -5.56463], [105.25033, -5.56475], [105.2503, -5.56476], [105.25027, -5.56477], [105.25025, -5.56477], [105.25023, -5.56477], [105.25022, -5.56477], [105.25021, -5.56477], [105.25019, -5.56477], [105.25018, -5.56477], [105.25016, -5.56476], [105.25014, -5.56475], [105.25012, -5.56473], [105.2501, -5.56472], [105.25009, -5.56471], [105.25008, -5.56471], [105.25007, -5.56471], [105.25006, -5.56471], [105.25005, -5.56472], [105.25004, -5.56472], [105.25004, -5.56473], [105.25001, -5.56475], [105.25001, -5.56476], [105.25, -5.56477], [105.24997, -5.56478], [105.24997, -5.56478], [105.24996, -5.56479], [105.24995, -5.5648], [105.24994, -5.56483], [105.24993, -5.56483], [105.24993, -5.56484], [105.24992, -5.56485], [105.24992, -5.56485], [105.24992, -5.56486], [105.24992, -5.56486], [105.24992, -5.56486], [105.24992, -5.56488], [105.24993, -5.56489], [105.24993, -5.5649], [105.24992, -5.5649], [105.24992, -5.5649], [105.24989, -5.56491], [105.24988, -5.56492], [105.24987, -5.56492], [105.24986, -5.56493], [105.24984, -5.56496], [105.24984, -5.56496], [105.24984, -5.56497], [105.24983, -5.56497], [105.24982, -5.56498], [105.24978, -5.565], [105.24977, -5.56501], [105.24976, -5.56502], [105.24975, -5.56503], [105.24973, -5.56509], [105.24972, -5.56512], [105.24972, -5.56512], [105.24971, -5.56514], [105.2497, -5.56515], [105.2497, -5.56516], [105.24969, -5.56517], [105.24967, -5.56518], [105.24967, -5.56519], [105.24965, -5.5652], [105.24963, -5.56521], [105.24961, -5.56522], [105.24959, -5.56523], [105.24958, -5.56523], [105.24958, -5.56523], [105.24957, -5.56523], [105.24956, -5.56523], [105.24954, -5.56523], [105.24951, -5.56523], [105.24949, -5.56522], [105.24948, -5.56521], [105.24947, -5.5652], [105.24946, -5.5652], [105.24945, -5.56519], [105.24945, -5.56518], [105.24944, -5.56515], [105.24942, -5.56509], [105.24941, -5.56506], [105.24941, -5.56505], [105.2494, -5.56504], [105.24939, -5.56503], [105.24937, -5.56501], [105.24934, -5.56499], [105.2493, -5.56498], [105.24928, -5.56497], [105.24926, -5.56496], [105.24923, -5.56496], [105.24921, -5.56495], [105.24918, -5.56495], [105.24916, -5.56495], [105.24915, -5.56495], [105.24914, -5.56496], [105.24909, -5.56497], [105.24908, -5.56497], [105.24907, -5.56498], [105.24906, -5.56498], [105.24904, -5.56497], [105.24895, -5.56496], [105.24891, -5.56495], [105.24886, -5.56496], [105.2487, -5.56496], [105.24868, -5.56496], [105.24865, -5.56496], [105.24863, -5.56496], [105.24861, -5.56495], [105.24859, -5.56494], [105.24856, -5.56492], [105.24855, -5.56491], [105.24854, -5.56491], [105.24851, -5.5649], [105.24846, -5.56488], [105.2484, -5.56486], [105.24835, -5.56485], [105.24833, -5.56484], [105.2483, -5.56482], [105.24828, -5.56481], [105.24826, -5.56479], [105.24825, -5.56477], [105.24824, -5.56476], [105.24824, -5.56475], [105.24824, -5.56474], [105.24823, -5.56473], [105.24823, -5.56468], [105.24823, -5.56467], [105.24822, -5.56464], [105.24821, -5.56462], [105.2482, -5.56459], [105.24813, -5.56446], [105.24812, -5.56444], [105.24811, -5.56442], [105.24811, -5.56441], [105.24811, -5.56439], [105.24811, -5.56438], [105.24812, -5.56436], [105.24813, -5.56431], [105.24814, -5.5643], [105.24814, -5.56429], [105.24814, -5.56428], [105.24814, -5.56426], [105.24814, -5.56425], [105.24813, -5.56424], [105.24813, -5.56423], [105.24811, -5.56421], [105.2481, -5.56419], [105.24809, -5.56419], [105.24807, -5.56417], [105.24806, -5.56417], [105.24803, -5.56416], [105.24803, -5.56416], [105.24802, -5.56415], [105.24801, -5.56414], [105.248, -5.56414], [105.24799, -5.56413], [105.24798, -5.56411], [105.24796, -5.56408], [105.24795, -5.56405], [105.24794, -5.56404], [105.24794, -5.56402], [105.24793, -5.56399], [105.24793, -5.56395], [105.24793, -5.56393], [105.24792, -5.5639], [105.24791, -5.56389], [105.2479, -5.56387], [105.24789, -5.56386], [105.24788, -5.56385], [105.24787, -5.56384], [105.24786, -5.56384], [105.24784, -5.56383], [105.24781, -5.56382], [105.24779, -5.56382], [105.24777, -5.56381], [105.24775, -5.56381], [105.24772, -5.56381], [105.24771, -5.56381], [105.24768, -5.5638], [105.24767, -5.5638], [105.24766, -5.5638], [105.24763, -5.56382], [105.24762, -5.56382], [105.24761, -5.56382], [105.24756, -5.56382], [105.24755, -5.56382], [105.24754, -5.56382], [105.24753, -5.56382], [105.24749, -5.56384], [105.24749, -5.56384], [105.24748, -5.56384], [105.24747, -5.56384], [105.24747, -5.56383], [105.24747, -5.56383], [105.24747, -5.56381], [105.24747, -5.56378], [105.24749, -5.56371], [105.24749, -5.56368], [105.24749, -5.56368], [105.24749, -5.56367], [105.24749, -5.56366], [105.24749, -5.56365], [105.24748, -5.56365], [105.24748, -5.56364], [105.24747, -5.56364], [105.24746, -5.56364], [105.24744, -5.56364], [105.24742, -5.56365], [105.24738, -5.56366], [105.24737, -5.56366], [105.24736, -5.56366], [105.24735, -5.56365], [105.24733, -5.56364], [105.24732, -5.56364], [105.24731, -5.56364], [105.2473, -5.56364], [105.2473, -5.56364], [105.24727, -5.56365], [105.24725, -5.56367], [105.24724, -5.56367], [105.24723, -5.56367], [105.24723, -5.56367], [105.24722, -5.56366], [105.24719, -5.56364], [105.24718, -5.56363], [105.24714, -5.56361], [105.24713, -5.56361], [105.2471, -5.56359], [105.24709, -5.56358], [105.24708, -5.56358], [105.24706, -5.56357], [105.24704, -5.56357], [105.24703, -5.56357], [105.24703, -5.56356], [105.24702, -5.56356], [105.24702, -5.56355], [105.24701, -5.56354], [105.24701, -5.56353], [105.24701, -5.5635], [105.247, -5.56349], [105.247, -5.56348], [105.24699, -5.56346], [105.24699, -5.56345], [105.24698, -5.56344], [105.24696, -5.56343], [105.24688, -5.56335], [105.24686, -5.56333], [105.24685, -5.56332], [105.24685, -5.56331], [105.24683, -5.56329], [105.24679, -5.5632], [105.24677, -5.56317], [105.24675, -5.56315], [105.24672, -5.56312], [105.2467, -5.5631], [105.24669, -5.56308], [105.24668, -5.56307], [105.24667, -5.56305], [105.24663, -5.56294], [105.24662, -5.56292], [105.24661, -5.56291], [105.2466, -5.5629], [105.2466, -5.56289], [105.24659, -5.56288], [105.24657, -5.56287], [105.24655, -5.56286], [105.2465, -5.56284], [105.24642, -5.5628], [105.24638, -5.56278], [105.24636, -5.56277], [105.24633, -5.56276], [105.2463, -5.56276], [105.24627, -5.56275], [105.24626, -5.56274], [105.24625, -5.56274], [105.24623, -5.56272], [105.24621, -5.56269], [105.24613, -5.56258], [105.24611, -5.56255], [105.24609, -5.56253], [105.24608, -5.56252], [105.24608, -5.56252], [105.24607, -5.56251], [105.24605, -5.56251], [105.24604, -5.5625], [105.24603, -5.5625], [105.24595, -5.5625], [105.24592, -5.5625], [105.24589, -5.5625], [105.24587, -5.56249], [105.24585, -5.56249], [105.24583, -5.56248], [105.24581, -5.56247], [105.24579, -5.56246], [105.24576, -5.56244], [105.24572, -5.56241], [105.24567, -5.56238], [105.24565, -5.56236], [105.24563, -5.56234], [105.24563, -5.56234], [105.24562, -5.56233], [105.24561, -5.56233], [105.2456, -5.56233], [105.24557, -5.56234], [105.24556, -5.56234], [105.24554, -5.56235], [105.24552, -5.56237], [105.24549, -5.56238], [105.24536, -5.56247], [105.24534, -5.56248], [105.24531, -5.5625], [105.2453, -5.5625], [105.24529, -5.5625], [105.24528, -5.5625], [105.24527, -5.5625], [105.24526, -5.5625], [105.24524, -5.56249], [105.24521, -5.56248], [105.2452, -5.56247], [105.24518, -5.56245], [105.24514, -5.5624], [105.24513, -5.5624], [105.24512, -5.56239], [105.2451, -5.56238], [105.24506, -5.56237], [105.24503, -5.56236], [105.24501, -5.56235], [105.245, -5.56234], [105.245, -5.56233], [105.24499, -5.56233], [105.24498, -5.56232], [105.24498, -5.56231], [105.24497, -5.5623], [105.24495, -5.56225], [105.24494, -5.56223], [105.24492, -5.56221], [105.2449, -5.56219], [105.24489, -5.56218], [105.24488, -5.56217], [105.24488, -5.56216], [105.24487, -5.56215], [105.24486, -5.56209], [105.24485, -5.56207], [105.24484, -5.56205], [105.24482, -5.56203], [105.24481, -5.56201], [105.2448, -5.562], [105.24479, -5.562], [105.24478, -5.56199], [105.24477, -5.56199], [105.24476, -5.56198], [105.2447, -5.56197], [105.24465, -5.56196], [105.24464, -5.56196], [105.24463, -5.56196], [105.24462, -5.56196], [105.24461, -5.56196], [105.2446, -5.56196], [105.24459, -5.56197], [105.24459, -5.56198], [105.24458, -5.56199], [105.24457, -5.562], [105.24457, -5.562], [105.24457, -5.56202], [105.24457, -5.56203], [105.24457, -5.56205], [105.24458, -5.5621], [105.24458, -5.56211], [105.24458, -5.56212], [105.24458, -5.56214], [105.24457, -5.56216], [105.24456, -5.5622], [105.24454, -5.56223], [105.24452, -5.56225], [105.24451, -5.56226], [105.24451, -5.56226], [105.2445, -5.56227], [105.24449, -5.56227], [105.24448, -5.56227], [105.24447, -5.56228], [105.24446, -5.56228], [105.24444, -5.56227], [105.2444, -5.56226], [105.24438, -5.56226], [105.24437, -5.56226], [105.24437, -5.56226], [105.24437, -5.56226], [105.24436, -5.56227], [105.24436, -5.56227], [105.24436, -5.56228], [105.24436, -5.56228], [105.24436, -5.56228], [105.24436, -5.56228], [105.24437, -5.56228], [105.24439, -5.56228], [105.2444, -5.56228], [105.24445, -5.5623], [105.24448, -5.5623], [105.24452, -5.5623], [105.24454, -5.56231], [105.24455, -5.56231], [105.24456, -5.56232], [105.24459, -5.56233], [105.24461, -5.56234], [105.24462, -5.56236], [105.24463, -5.56237], [105.24464, -5.56238], [105.24464, -5.56239], [105.24465, -5.56241], [105.24465, -5.56242], [105.24465, -5.56244], [105.24465, -5.56246], [105.24465, -5.56247], [105.24465, -5.56248], [105.24464, -5.56249], [105.24464, -5.5625], [105.24463, -5.56251], [105.24462, -5.56252], [105.24461, -5.56253], [105.2446, -5.56253], [105.24458, -5.56254], [105.24455, -5.56254], [105.24453, -5.56255], [105.2445, -5.56255], [105.24449, -5.56255], [105.24446, -5.56254], [105.24445, -5.56254], [105.24444, -5.56254], [105.24443, -5.56253], [105.24439, -5.5625], [105.24438, -5.5625], [105.24438, -5.56249], [105.24438, -5.56248], [105.24438, -5.56247], [105.24438, -5.56246], [105.24439, -5.56245], [105.24439, -5.56244], [105.24439, -5.56243], [105.24439, -5.56242], [105.24439, -5.56241], [105.24438, -5.5624], [105.24438, -5.5624], [105.24438, -5.56239], [105.24437, -5.56239], [105.24435, -5.5624], [105.24434, -5.5624], [105.24434, -5.5624], [105.24433, -5.5624], [105.24432, -5.5624], [105.24431, -5.5624], [105.2443, -5.56239], [105.2443, -5.56239], [105.24429, -5.56238], [105.24429, -5.56237], [105.24429, -5.56237], [105.24429, -5.56236], [105.24429, -5.56235], [105.2443, -5.56234], [105.24431, -5.56233], [105.24431, -5.56232], [105.24432, -5.56231], [105.24431, -5.5623], [105.24431, -5.56229], [105.24431, -5.56228], [105.2443, -5.56227], [105.24429, -5.56226], [105.24427, -5.56224], [105.24427, -5.56224], [105.24427, -5.56223], [105.24427, -5.5622], [105.24426, -5.5622], [105.24426, -5.56219], [105.24425, -5.56219], [105.24425, -5.56219], [105.24424, -5.56219], [105.24423, -5.56219], [105.24423, -5.56219], [105.2442, -5.56221], [105.24418, -5.56222], [105.24416, -5.56222], [105.24415, -5.56223], [105.24412, -5.56223], [105.24411, -5.56223], [105.2441, -5.56223], [105.24409, -5.56223], [105.24408, -5.56222], [105.24407, -5.56222], [105.24407, -5.56221], [105.24406, -5.5622], [105.24406, -5.56219], [105.24406, -5.56219], [105.24406, -5.56218], [105.24406, -5.56218], [105.24408, -5.56218], [105.24408, -5.56218], [105.24408, -5.56218], [105.24409, -5.56217], [105.24409, -5.56217], [105.24409, -5.56217], [105.24409, -5.56216], [105.24408, -5.56216], [105.24406, -5.56213], [105.24406, -5.56213], [105.24405, -5.56212], [105.24401, -5.5621], [105.24399, -5.56209], [105.24397, -5.56207], [105.2439, -5.562], [105.24386, -5.56197], [105.24384, -5.56194], [105.24383, -5.56193], [105.24381, -5.56192], [105.24376, -5.56188], [105.24374, -5.56187], [105.24372, -5.56186], [105.2437, -5.56184], [105.24369, -5.56181], [105.24365, -5.56175], [105.24363, -5.56172], [105.24362, -5.5617], [105.24358, -5.56165], [105.24356, -5.56163], [105.24356, -5.56162], [105.24354, -5.56159], [105.24353, -5.56157], [105.24351, -5.56154], [105.24351, -5.56154], [105.2435, -5.56152], [105.24348, -5.5615], [105.24347, -5.56147], [105.24345, -5.56145], [105.24342, -5.56141], [105.24342, -5.56139], [105.24341, -5.56138], [105.2434, -5.56137], [105.24337, -5.56134], [105.24337, -5.56133], [105.24336, -5.56132], [105.24336, -5.56132], [105.24335, -5.5613], [105.24334, -5.56128], [105.24333, -5.56126], [105.24333, -5.56125], [105.24332, -5.56124], [105.2433, -5.56123], [105.24326, -5.56121], [105.24325, -5.5612], [105.24325, -5.56119], [105.24324, -5.56118], [105.24323, -5.56116], [105.24323, -5.56115], [105.24322, -5.56115], [105.24322, -5.56114], [105.24321, -5.56114], [105.2432, -5.56114], [105.24318, -5.56115], [105.24315, -5.56116], [105.24313, -5.56113], [105.24299, -5.56077], [105.24285, -5.5605], [105.24272, -5.56034], [105.24239, -5.55994], [105.24223, -5.55977], [105.24207, -5.55936], [105.24198, -5.5592], [105.24187, -5.55903], [105.24181, -5.55889], [105.2418, -5.55879], [105.2418, -5.5587], [105.24181, -5.55866], [105.24185, -5.55839], [105.24185, -5.55836], [105.24183, -5.55816], [105.24172, -5.55789], [105.24159, -5.55763], [105.24152, -5.55751], [105.24142, -5.5573], [105.24129, -5.55702], [105.2411, -5.5566], [105.24105, -5.55649], [105.24105, -5.55649], [105.24094, -5.5562], [105.24077, -5.55583], [105.24058, -5.55548], [105.2405, -5.55536], [105.24035, -5.55514], [105.24029, -5.55503], [105.24016, -5.55483], [105.23999, -5.55443], [105.2399, -5.5543], [105.23984, -5.55422], [105.23967, -5.55406], [105.23939, -5.55401], [105.23901, -5.55389], [105.2389, -5.55386], [105.23873, -5.55373], [105.23857, -5.55356], [105.2384, -5.55343], [105.23816, -5.55338], [105.23812, -5.55337], [105.23767, -5.55343], [105.2374, -5.55348], [105.23707, -5.55371], [105.2369, -5.55386], [105.23689, -5.55386], [105.23676, -5.55394], [105.23674, -5.55401], [105.23678, -5.55414], [105.23674, -5.55425], [105.23661, -5.5543], [105.23652, -5.55432], [105.23652, -5.55432], [105.23651, -5.55433], [105.23636, -5.55434], [105.23627, -5.5543], [105.23606, -5.55424], [105.23583, -5.55424], [105.23568, -5.55425], [105.2355, -5.55417], [105.23535, -5.55405], [105.23524, -5.55398], [105.23522, -5.55393], [105.23517, -5.55382], [105.23509, -5.55375], [105.23495, -5.55371], [105.23466, -5.55364], [105.23448, -5.5536], [105.23435, -5.55358], [105.23428, -5.55355], [105.23421, -5.55348], [105.23416, -5.55344], [105.23414, -5.55342], [105.23403, -5.55338], [105.23389, -5.55337], [105.23386, -5.55338], [105.23368, -5.55343], [105.23355, -5.55343], [105.23346, -5.55336], [105.23339, -5.55331], [105.23338, -5.5533], [105.23324, -5.5533], [105.23309, -5.55336], [105.23303, -5.55346], [105.23298, -5.5536], [105.23293, -5.55368], [105.23282, -5.55374], [105.23282, -5.55374], [105.23269, -5.55379], [105.23266, -5.5538], [105.2326, -5.55379], [105.23243, -5.55374], [105.23216, -5.55365], [105.23183, -5.5535], [105.23167, -5.55343], [105.23167, -5.55343], [105.23149, -5.55335], [105.23141, -5.55328], [105.23137, -5.55319], [105.23134, -5.5531], [105.23126, -5.55303], [105.23096, -5.55299], [105.23083, -5.55293], [105.23082, -5.55292], [105.23082, -5.55283], [105.23086, -5.55275], [105.23085, -5.55266], [105.23071, -5.55264], [105.23062, -5.55253], [105.2306, -5.55246], [105.23054, -5.55233], [105.23044, -5.55225], [105.23035, -5.55225], [105.23026, -5.55234], [105.2302, -5.55241], [105.23013, -5.55244], [105.23006, -5.55235], [105.23004, -5.5522], [105.23007, -5.552], [105.23014, -5.55185], [105.2302, -5.55169], [105.23018, -5.55168], [105.23014, -5.55161], [105.23002, -5.55161], [105.22987, -5.55165], [105.22985, -5.55168], [105.22975, -5.55177], [105.22953, -5.55206], [105.22933, -5.55231], [105.2292, -5.55249], [105.22913, -5.55257], [105.22884, -5.55278], [105.22856, -5.55293], [105.22832, -5.55302], [105.22828, -5.55303], [105.22787, -5.55312], [105.22765, -5.55315], [105.22759, -5.55312], [105.22737, -5.55299], [105.22665, -5.55264], [105.22612, -5.55246], [105.22551, -5.55235], [105.22512, -5.55239], [105.22472, -5.55256], [105.22419, -5.55256], [105.22369, -5.55256], [105.22283, -5.55256], [105.22208, -5.5526], [105.22057, -5.55248], [105.21921, -5.55123], [105.21865, -5.55061], [105.2184, -5.5502], [105.21824, -5.54941], [105.21815, -5.54852], [105.21799, -5.54754], [105.21783, -5.54704], [105.21764, -5.54669], [105.21736, -5.54647], [105.21679, -5.54628], [105.21613, -5.54613], [105.21562, -5.54575], [105.21543, -5.54543], [105.21537, -5.54508], [105.21537, -5.54483], [105.21565, -5.54458], [105.21606, -5.54442], [105.21654, -5.54436], [105.21717, -5.54433], [105.21767, -5.54429], [105.2184, -5.54423], [105.21893, -5.54407], [105.21937, -5.54391], [105.21972, -5.54379], [105.21978, -5.54354], [105.21963, -5.54325], [105.21925, -5.54284], [105.21887, -5.54246], [105.21865, -5.54208], [105.21855, -5.54161], [105.21855, -5.5413], [105.21858, -5.54107], [105.21884, -5.54089], [105.21931, -5.54088], [105.21991, -5.54111], [105.22038, -5.54123], [105.22089, -5.54123], [105.22133, -5.54098], [105.22161, -5.5406], [105.22183, -5.54019], [105.22205, -5.53978], [105.22246, -5.53943], [105.2229, -5.53934], [105.22331, -5.53937], [105.22369, -5.53968], [105.22404, -5.54006], [105.22429, -5.54009], [105.22473, -5.54009], [105.22508, -5.53994], [105.22552, -5.5399], [105.22602, -5.5399], [105.22653, -5.54009], [105.22681, -5.54038], [105.22713, -5.54066]]]}}]}